	Site Name	Type	Billing Address	Billing City	Billing State/Province	Billing Zip/Postal Code	Grant	# Full Time Slots	# Three Quarter Time Slots	# Half Time Slots	# Reduced Half Time Slots	# Quarter-Time Slots	# Minimum Time Slots	# Abbreviated Time Slots	full_address	googleMaps_lat_long	googleMaps_clean_address
0	Glenwood Elementary School	Education-K thru 12	2407 S. Houston	Amarillo	TX	79103	21-22 Amarillo ISD ACTX				2.0				2407 S. Houston, Amarillo, TX 79103	(35.1875439, -101.8237399)	2407 S Houston St, Amarillo, TX 79103, USA
1	Humphrey's Highland Elementary School	Education-K thru 12	3901 SE 15th	Amarillo	TX	79104	21-22 Amarillo ISD ACTX			1	5.0				3901 SE 15th, Amarillo, TX 79104	(35.1967066, -101.7908832)	3901 SE 15th Ave, Amarillo, TX 79104, USA
2	Lamar Elementary School	Education-K thru 12	3800 S. Lipscomb	Amarillo	TX	79110	21-22 Amarillo ISD ACTX				2.0				3800 S. Lipscomb, Amarillo, TX 79110	(35.1737463, -101.8545579)	3800 S Lipscomb St, Amarillo, TX 79110, USA
3	Landergin Elementary School	Education-K thru 12	3209 S. Taylor	Amarillo	TX	79110	21-22 Amarillo ISD ACTX				2.0				3209 S. Taylor, Amarillo, TX 79110	(35.1788868, -101.8391701)	3209 S Taylor St, Amarillo, TX 79110, USA
4	Lawndale Elementary School	Education-K thru 12	2215 S. Bivins	Amarillo	TX	79103	21-22 Amarillo ISD ACTX				2.0				2215 S. Bivins, Amarillo, TX 79103	(35.1875445, -101.8068325)	2215 S Bivins St, Amarillo, TX 79103, USA
5	Oak Dale Elementary School	Education-K thru 12	2711 S. Hill	Amarillo	TX	79103	21-22 Amarillo ISD ACTX			1	2.0				2711 S. Hill, Amarillo, TX 79103	(35.1838282, -101.7913729)	2711 S Hill St, Amarillo, TX 79103, USA
6	South Lawn Elementary School	Education-K thru 12	4719 S. Bowie	Amarillo	TX	79110	21-22 Amarillo ISD ACTX			2	4.0				4719 S. Bowie, Amarillo, TX 79110	(35.159764, -101.8569855)	4719 Bowie St, Amarillo, TX 79110, USA
7	Sunrise Elementary School	Education-K thru 12	5123 E. 14th	Amarillo	TX	79104	21-22 Amarillo ISD ACTX				2.0				5123 E. 14th, Amarillo, TX 79104	(35.1961316, -101.7996406)	SE 14th Ave, Amarillo, TX, USA
8	Tradewind Elementary School	Education-K thru 12	4300 Williams	Amarillo	TX	79118	21-22 Amarillo ISD ACTX			3	5.0				4300 Williams, Amarillo, TX 79118	(35.1697964, -101.8188418)	4300 Williams St, Amarillo, TX 79118, USA
9	San Jacinto Elementary School	Education-K thru 12	3400 W. 4th	Amarillo	TX	79106	21-22 Amarillo ISD ACTX				2.0				3400 W. 4th, Amarillo, TX 79106	(35.2018872, -101.8948754)	Amarillo, TX 79106, USA
10	Margaret Wills Elementary School	Education-K thru 12	3500 W. 11th Ave.	Amarillo	TX	79106	21-22 Amarillo ISD ACTX				2.0				3500 W. 11th Ave., Amarillo, TX 79106	(35.2015614, -101.8750708)	3500 W 11th Ave, Amarillo, TX 79102, USA
11	Carver Elementary School	Education-K thru 12	1905 N.W. 12th	Amarillo	TX	79107	21-22 Amarillo ISD ACTX			1	3.0				1905 N.W. 12th, Amarillo, TX 79107	(35.2256944, -101.8555783)	1905 NW 12th Ave, Amarillo, TX 79107, USA
12	Whittier Elementary School	Education-K thru 12	2004 N. Marrs	Amarillo	TX	79107	21-22 Amarillo ISD ACTX				2.0				2004 N. Marrs, Amarillo, TX 79107	(35.2335371, -101.8016117)	2004 N Marrs St, Amarillo, TX 79107, USA
13	Mesa Verde Elementary School	Education-K thru 12	4011 Beaver	Amarillo	TX	79107	21-22 Amarillo ISD ACTX				2.0				4011 Beaver, Amarillo, TX 79107	(35.2416077, -101.7914174)	4011 Beaver Dr, Amarillo, TX 79107, USA
14	Forest Hill Elementary School	Education-K thru 12	3515 Amarillo Blvd. E.	Amarillo	TX	79107	21-22 Amarillo ISD ACTX				2.0				3515 Amarillo Blvd. E., Amarillo, TX 79107	(35.2234092, -101.7957624)	3515 E Amarillo Blvd, Amarillo, TX 79107, USA
15	Avondale Elementary School	Education-K thru 12	1500 Avondale	Amarillo	TX	79106	21-22 Amarillo ISD ACTX			1	3.0				1500 Avondale, Amarillo, TX 79106	(35.1997354, -101.8944274)	1500 S Avondale St, Amarillo, TX 79106, USA
16	Wolflin Elementary School	Education-K thru 12	2026 S Hughes	Amarillo	TX	79109	21-22 Amarillo ISD ACTX			1	3.0				2026 S Hughes, Amarillo, TX 79109	(35.192243, -101.8500408)	2026 S Hughes St, Amarillo, TX 79109, USA
17	American YouthWorks - Texas Conservation Corps 	Nonprofit	1901 E Ben White Blvd	Austin	TX	78741	21-22 American YouthWorks ACTX		30.0						1901 E Ben White Blvd, Austin, TX 78741	(30.2154969, -97.74735720000001)	1901 E Ben White Blvd, Austin, TX 78741, USA
18	Big Thought Headquarters	Nonprofit	1409 Botham Jean Blvd, Suite 1015	Dallas	TX	75215	21-22 Big Thought ACTX			20					1409 Botham Jean Blvd, Suite 1015, Dallas, TX 75215	(32.7668465, -96.79473949999999)	1409 Botham Jean Blvd #1015, Dallas, TX 75215, USA
19	Breakthrough Central Texas Office	Nonprofit	1050 East 11th Street, Suite 350	Austin	TX	78702	21-22 Breakthrough Central Texas ACTX	21				8			1050 East 11th Street, Suite 350, Austin, TX 78702	(30.2693881, -97.7291522)	1050 E 11th St #350, Austin, TX 78702, USA
20	University of Texas	Education-College/University	116 Inner Campus Drive	Austin	TX	78712	21-22 Breakthrough Central Texas ACTX					32			116 Inner Campus Drive, Austin, TX 78712	(30.2863279, -97.73860719999999)	Dorothy L. Gebauer Building, 116 Inner Campus Drive, Austin, TX 78705, USA
21	St. Andrew's Episcopal School	Education-K thru 12	1112 W 31st Street	Austin	TX	78705	21-22 Breakthrough Central Texas ACTX					32			1112 W 31st Street, Austin, TX 78705	(30.3025154, -97.7490124)	1112 W 31st St, Austin, TX 78705, USA
22	Decker Middle School	Education-K thru 12	8104 Decker Lane	Austin	TX	78724	21-22 Breakthrough Central Texas ACTX					56			8104 Decker Lane, Austin, TX 78724	(30.3107777, -97.62141919999999)	8104 Decker Ln, Austin, TX 78724, USA
23	Del Valle Middle School	Education-K thru 12	5500 Ross Road	Del Valle	TX	78617	21-22 Breakthrough Central Texas ACTX					36			5500 Ross Road, Del Valle, TX 78617	(30.1736319, -97.6237069)	5500 Ross Rd, Del Valle, TX 78617, USA
24	St. John's School	Education-K thru 12	2401 Claremont Lane	Houston	TX	77019	21-22 Breakthrough Central Texas ACTX					36			2401 Claremont Lane, Houston, TX 77019	(29.7427585, -95.42934819999999)	2401 Claremont Ln, Houston, TX 77019, USA
25	KIPP Connect	Education-K thru 12	6700 Bellaire Blvd	Houston	TX	77074	21-22 Breakthrough Central Texas ACTX					36			6700 Bellaire Blvd, Houston, TX 77074	(29.7059163, -95.5019875)	6700 Bellaire Blvd, Houston, TX 77074, USA
26	Gregory Lincoln Education Center	Education-K thru 12	1101 Taft St	Houston	TX	77019	21-22 Breakthrough Central Texas ACTX					36			1101 Taft St, Houston, TX 77019	(29.7562, -95.3850394)	1101 Taft St, Houston, TX 77019, USA
27	ChildFund Texas Area Office	Nonprofit	4220 N Bicentennial Dr, Suite E	McAllen	TX	78504-4103	21-22 ChildFund International ACTX						8		4220 N Bicentennial Dr, Suite E, McAllen, TX 78504-4103	(26.2436452, -98.2336504)	4220 N Bicentennial Dr e, McAllen, TX 78504, USA
28	Rosendo Benvidez Elementary School	Education-K thru 12	1885 El Pinto Rd	Sullivan City	TX	78595-2002	21-22 ChildFund International ACTX			2					1885 El Pinto Rd, Sullivan City, TX 78595-2002	(26.3046249, -98.558104)	1885 El Pinto Rd, Sullivan City, TX 78595, USA
29	Juan N Sequin Elementary School	Education-K thru 12	8500 N Western Rd	Mission	TX	78574-6679	21-22 ChildFund International ACTX			2					8500 N Western Rd, Mission, TX 78574-6679	(26.330101, -98.39058449999999)	8500 Western Rd, Mission, TX 78574, USA
30	Emiliano Zapata Elementry School	Education-K thru 12	9100 La Homa Rd	Mission	TX	78574-5442	21-22 ChildFund International ACTX			2					9100 La Homa Rd, Mission, TX 78574-5442	(26.332875, -98.342749)	9100 La Homa Rd, Mission, TX 78574, USA
31	Elodia Chapa Elementary School	Education-K thru 12	5670 Doffing Rd	Mission	TX	78574-1258	21-22 ChildFund International ACTX			2					5670 Doffing Rd, Mission, TX 78574-1258	(26.2860403, -98.3752567)	5670 Doffing Rd, Mission, TX 78574, USA
32	Evangelina Garza Elementary School	Education-K thru 12	8731 N Doffing Rd	Mission	TX	78574-3385	21-22 ChildFund International ACTX			2					8731 N Doffing Rd, Mission, TX 78574-3385	(26.3311208, -98.3700812)	8731 N Doffing Rd, Mission, TX 78574, USA
33	Clinton Elementary School	Education-K thru 12	39202 Mile 7 Rd	Penitas	TX	78576	21-22 ChildFund International ACTX			2					39202 Mile 7 Rd, Penitas, TX 78576	(26.3400866, -98.44725620000001)	39202 Mile 7 Rd, Penitas, TX 78576, USA
34	Sam Fordyce Elementary School	Education-K thru 12	801 FM886	Sullivan City	TX	78595	21-22 ChildFund International ACTX			2					801 FM886, Sullivan City, TX 78595	(26.2666205, -98.553647)	801 FM886, Sullivan City, TX 78595, USA
35	Mendiola Elementary School	Education-K thru 12	6401 Abram Rd	Mission	TX	78572	21-22 ChildFund International ACTX			2					6401 Abram Rd, Mission, TX 78572	(26.2993559, -98.3891273)	6401 Abram Rd, Mission, TX 78574, USA
36	Avila Elementary School	Education-K thru 12	9205 Carmen Avila Rd	Edinburg	TX	78542-0961	21-22 ChildFund International ACTX			2					9205 Carmen Avila Rd, Edinburg, TX 78542-0961	(26.3871401, -98.08993950000001)	9205 Carmen Avila Rd, Edinburg, TX 78542, USA
37	Monte Cristo Elementary School	Education-K thru 12	4010 N Doolittle Rd	Edinburg	TX	78542-0538	21-22 ChildFund International ACTX			2					4010 N Doolittle Rd, Edinburg, TX 78542-0538	(26.3362067, -98.1212264)	4010 N Doolittle Rd, Edinburg, TX 78542, USA
38	Lee Elementary School	Education-K thru 12	1215 W Sprague	Edinburg	TX	78542-7402	21-22 ChildFund International ACTX			2					1215 W Sprague, Edinburg, TX 78542-7402	(26.2969254, -98.1759461)	1215 W Sprague St, Edinburg, TX 78539, USA
39	Guerra Elementary School	Education-K thru 12	10010 N Via Fernandez	Edinburg	TX	78541	21-22 ChildFund International ACTX			2					10010 N Via Fernandez, Edinburg, TX 78541	(26.4012274, -98.15059869999999)	10010 N Via Fernandez, Edinburg, TX 78541, USA
40	Villarreal Elementary School	Education-K thru 12	4014 N Doolittle Rd	Edinburg	TX	78542	21-22 ChildFund International ACTX			2					4014 N Doolittle Rd, Edinburg, TX 78542	(26.3357028, -98.1186903)	4014 N Doolittle Rd, Edinburg, TX 78542, USA
41	Singleterry Elementary	Education-K thru 12	9113 Val Verde Rd	Donna	TX	78537	21-22 ChildFund International ACTX			2					9113 Val Verde Rd, Donna, TX 78537	(26.2442416, -98.07712579999999)	9113 Val Verde Rd, Donna, TX 78537, USA
42	Allison Elementary School	Education-K thru 12	515 Vargas Road	Austin	TX	78741-2455	21-22 Communities In Schools of Central Texas ACTX			1					515 Vargas Road, Austin, TX 78741-2455	(30.2357841, -97.6920353)	515 Vargas Rd, Austin, TX 78741, USA
43	Becker Elementary School	Education-K thru 12	906 W Milton St	Austin	TX	78704	21-22 Communities In Schools of Central Texas ACTX					3			906 W Milton St, Austin, TX 78704	(30.2503951, -97.75945399999999)	906 W Milton St, Austin, TX 78704, USA
44	Bedicheck Middle School	Education-K thru 12	6800 Bill Hughes Road	Austin	TX	78745-5605	21-22 Communities In Schools of Central Texas ACTX	2							6800 Bill Hughes Road, Austin, TX 78745-5605	(30.1952599, -97.787136)	6800 Bill Hughes Rd, Austin, TX 78745, USA
45	Bertha Sadler Means Middle School	Education-K thru 12	6401 N Hampton Dr	Austin	TX	78723-2042	21-22 Communities In Schools of Central Texas ACTX	1							6401 N Hampton Dr, Austin, TX 78723-2042	(30.3134991, -97.68050129999999)	6401 N Hampton Dr, Austin, TX 78723, USA
46	Blackshear Elementary School	Education-K thru 12	1712 E. 11th Street	Austin	TX	78702-2717	21-22 Communities In Schools of Central Texas ACTX	1				2			1712 E. 11th Street, Austin, TX 78702-2717	(30.2675855, -97.722894)	1712 E 11th St, Austin, TX 78702, USA
47	Burnet Middle School	Education-K thru 12	8401 Hathaway	Austin	TX	78757-7029	21-22 Communities In Schools of Central Texas ACTX	2				2			8401 Hathaway, Austin, TX 78757-7029	(30.3641563, -97.7244638)	8401 Hathaway Dr, Austin, TX 78757, USA
48	Communities In Schools Central Office	Nonprofit	3000 S IH 35	Austin	TX	78704	21-22 Communities In Schools of Central Texas ACTX					1			3000 S IH 35, Austin, TX 78704	(30.2273054, -97.7461563)	3000 S I-35 Frontage Rd, Austin, TX 78704, USA
49	Chapa Middle School	Education-K thru 12	3311 Dacy Ln	Kyle	TX	78640	21-22 Communities In Schools of Central Texas ACTX	1				1			3311 Dacy Ln, Kyle, TX 78640	(30.0210438, -97.8328009)	3311 Dacy Ln, Kyle, TX 78640, USA
50	Cook Elementary School	Education-K thru 12	1511 Cripple Creek Drive	Austin	TX	78758-5099	21-22 Communities In Schools of Central Texas ACTX	2							1511 Cripple Creek Drive, Austin, TX 78758-5099	(30.3772861, -97.70524669999999)	1511 Cripple Creek Dr, Austin, TX 78758, USA
51	Covington Middle School	Education-K thru 12	3700 Convict Hill Rd	Austin	TX	78749-2526	21-22 Communities In Schools of Central Texas ACTX	2							3700 Convict Hill Rd, Austin, TX 78749-2526	(30.2116026, -97.8346885)	3700 Convict Hill Rd, Austin, TX 78749, USA
52	Crockett Elementary School	Education-K thru 12	1300 Girard St	San Marcos	TX	78666-2813	21-22 Communities In Schools of Central Texas ACTX	1		1		1			1300 Girard St, San Marcos, TX 78666-2813	(29.8856852, -97.9614148)	1300 Girard St, San Marcos, TX 78666, USA
53	Crockett High School	Education-K thru 12	5601 Menchaca Rd	Austin	TX	78745	21-22 Communities In Schools of Central Texas ACTX					1			5601 Menchaca Rd, Austin, TX 78745	(30.2147211, -97.7974133)	5601 Menchaca Rd, Austin, TX 78745, USA
54	De Zavala Elementary School	Education-K thru 12	150 De Zavala Dr	San Marcos	TX	78666	21-22 Communities In Schools of Central Texas ACTX	1				1			150 De Zavala Dr, San Marcos, TX 78666	(29.8559553, -97.93540970000001)	150 De Zavala Dr, San Marcos, TX 78666, USA
55	Decker Elementary School	Education-K thru 12	8500 Decker Lane	Austin	TX	78724-2202	21-22 Communities In Schools of Central Texas ACTX	1							8500 Decker Lane, Austin, TX 78724-2202	(30.311318, -97.61675919999999)	8500 Decker Ln, Austin, TX 78724, USA
56	Dobie Middle School	Education-K thru 12	1200 E. Rundberg Lane	Austin	TX	78753-4934	21-22 Communities In Schools of Central Texas ACTX	2							1200 E. Rundberg Lane, Austin, TX 78753-4934	(30.3554045, -97.67933529999999)	1200 E Rundberg Ln, Austin, TX 78753, USA
57	Elgin Intermediate School	Education-K thru 12	902 West 2nd St	Elgin	TX	78621-2515	21-22 Communities In Schools of Central Texas ACTX	1				1			902 West 2nd St, Elgin, TX 78621-2515	(30.3481782, -97.37938659999999)	902 W 2nd St, Elgin, TX 78621, USA
58	Goodnight Middle School	Education-K thru 12	1301 TX-123	San Marcos	TX	78666-0000	21-22 Communities In Schools of Central Texas ACTX	2							1301 TX-123, San Marcos, TX 78666-0000	(29.8589336, -97.93740969999999)	1301 Texas Hwy 123, San Marcos, TX 78666, USA
59	Gus Garcia Young Mens Leadership Academy	Education-K thru 12	7414 Johnny Morris Road	Austin	TX	78724-2902	21-22 Communities In Schools of Central Texas ACTX	1							7414 Johnny Morris Road, Austin, TX 78724-2902	(30.3113969, -97.6430288)	7414 Johnny Morris Rd, Austin, TX 78724, USA
60	Harris Elementary School	Education-K thru 12	1711 Wheless Ln	Austin	TX	78723	21-22 Communities In Schools of Central Texas ACTX					1			1711 Wheless Ln, Austin, TX 78723	(30.31410319999999, -97.6919293)	1711 Wheless Ln, Austin, TX 78723, USA
61	Hart Elementary School	Education-K thru 12	8301 Furness	Austin	TX	78753-5826	21-22 Communities In Schools of Central Texas ACTX	1		1		1			8301 Furness, Austin, TX 78753-5826	(30.3425183, -97.6883671)	8301 Furness Dr, Austin, TX 78753, USA
62	Johnson High School	Education-K thru 12	4260 FM 967	Buda	TX	78610	21-22 Communities In Schools of Central Texas ACTX					1			4260 FM 967, Buda, TX 78610	(30.09557229999999, -97.8924188)	4260 FM 967, Buda, TX 78610, USA
63	Kealing Middle School	Education-K thru 12	1607 Pennsylvania Ave	Austin	TX	78702	21-22 Communities In Schools of Central Texas ACTX					1			1607 Pennsylvania Ave, Austin, TX 78702	(30.2711355, -97.72155749999999)	1607 Pennsylvania Ave, Austin, TX 78702, USA
64	Langford Elementary School	Education-K thru 12	2206 Blue Meadow	Austin	TX	78744-5016	21-22 Communities In Schools of Central Texas ACTX	1		1					2206 Blue Meadow, Austin, TX 78744-5016	(30.1828353, -97.7635504)	2206 Blue Meadow Dr, Austin, TX 78744, USA
65	Lively Middle School	Education-K thru 12	201 E Mary St	Austin	TX	78704-3554	21-22 Communities In Schools of Central Texas ACTX	1							201 E Mary St, Austin, TX 78704-3554	(30.243846, -97.75054039999999)	201 E Mary St, Austin, TX 78704, USA
66	Lockhart Junior High School	Education-K thru 12	500 City Line Rd	Lockhart	TX	78644-2572	21-22 Communities In Schools of Central Texas ACTX	1				1			500 City Line Rd, Lockhart, TX 78644-2572	(29.8745815, -97.7015778)	500 City Line Rd, Lockhart, TX 78644, USA
67	Metz-Sanchez Elementary School	Education-K thru 12	84 Robert T. Martinez Jr St	Austin	TX	78702-4551	21-22 Communities In Schools of Central Texas ACTX	1							84 Robert T. Martinez Jr St, Austin, TX 78702-4551	(30.2542842, -97.72172719999999)	84 Robert T Martinez Jr St, Austin, TX 78702, USA
68	Oak Springs Elementary School	Education-K thru 12	3601 Webberville Road	Austin	TX	78702-3008	21-22 Communities In Schools of Central Texas ACTX	1				1			3601 Webberville Road, Austin, TX 78702-3008	(30.2719146, -97.70454679999999)	3601 Webberville Rd, Austin, TX 78702, USA
69	Overton Elementary School	Education-K thru 12	7201 Colony Loop Dr	Austin	TX	78724-5348	21-22 Communities In Schools of Central Texas ACTX	1		1					7201 Colony Loop Dr, Austin, TX 78724-5348	(30.3001872, -97.6367011)	7201 Colony Loop Dr, Austin, TX 78724, USA
70	Perez Elementary School	Education-K thru 12	7500 S. Pleasant Valley Road	Austin	TX	78744-6412	21-22 Communities In Schools of Central Texas ACTX	2							7500 S. Pleasant Valley Road, Austin, TX 78744-6412	(30.170521, -97.7561855)	7500 S Pleasant Valley Rd, Austin, TX 78744, USA
71	Pickle Elementary School	Education-K thru 12	1101 Wheatley	Austin	TX	78752-1733	21-22 Communities In Schools of Central Texas ACTX	1							1101 Wheatley, Austin, TX 78752-1733	(30.33286349999999, -97.6938165)	1101 Wheatley Ave, Austin, TX 78752, USA
72	Rodriguez Elementary School	Education-K thru 12	4400 Franklin Park Drive	Austin	TX	78744-2929	21-22 Communities In Schools of Central Texas ACTX			1		2			4400 Franklin Park Drive, Austin, TX 78744-2929	(30.2006302, -97.7460627)	4400 Franklin Park Dr, Austin, TX 78744, USA
73	ShadowGlen Elementary School	Education-K thru 12	12000 Shadowglen Trace	Manor	TX	78653	21-22 Communities In Schools of Central Texas ACTX					1			12000 Shadowglen Trace, Manor, TX 78653	(30.3651603, -97.54071789999999)	12000 Shadowglen Trce, Manor, TX 78653, USA
74	Simon Middle School	Education-K thru 12	3839 E. FM 150	Kyle	TX	78640-6072	21-22 Communities In Schools of Central Texas ACTX	1							3839 E. FM 150, Kyle, TX 78640-6072	(29.9453779, -97.8288984)	3839 FM150 W, Kyle, TX 78640, USA
75	Strawn Elementary School	Education-K thru 12	9000 FM1854	Dale	TX	78616-2004	21-22 Communities In Schools of Central Texas ACTX			1					9000 FM1854, Dale, TX 78616-2004	(30.0017654, -97.6194867)	9000 FM1854, Dale, TX 78616, USA
76	Wallace Middle School	Education-K thru 12	1500 W. Center Road	Kyle	TX	78640-5644	21-22 Communities In Schools of Central Texas ACTX	1				1			1500 W. Center Road, Kyle, TX 78640-5644	(29.991646, -97.88925359999999)	1500 W Center St, Kyle, TX 78640, USA
77	Webb Middle School	Education-K thru 12	601 E St. Johns Ave	Austin	TX	78752	21-22 Communities In Schools of Central Texas ACTX					1			601 E St. Johns Ave, Austin, TX 78752	(30.3320636, -97.70738870000001)	601 E St Johns Ave, Austin, TX 78752, USA
78	Widen Elementary School	Education-K thru 12	5605 Nuckols Crossing Road	Austin	TX	 78744-4615	21-22 Communities In Schools of Central Texas ACTX	1				1			5605 Nuckols Crossing Road, Austin, TX 78744-4615	(30.188201, -97.7406518)	5605 Nuckols Crossing Rd, Austin, TX 78744, USA
79	Wooten Elementary School	Education-K thru 12	1406 Dale Dr	Austin	TX	78757-8310	21-22 Communities In Schools of Central Texas ACTX			1		2			1406 Dale Dr, Austin, TX 78757-8310	(30.3535065, -97.718885)	1406 Dale Dr, Austin, TX 78757, USA
80	Zavala Elementary School	Education-K thru 12	310 Robert T. Martinez Jr St	Austin	TX	78702-4536	21-22 Communities In Schools of Central Texas ACTX	1							310 Robert T. Martinez Jr St, Austin, TX 78702-4536	(30.2582433, -97.7198811)	310 Robert T Martinez Jr St, Austin, TX 78702, USA
81	Hodge Elementary School	Education-K thru 12	3900 Grant Pkwy.	Denton	TX	76208-3412	21-22 Communities In Schools of North Texas ACTX					1	1		3900 Grant Pkwy., Denton, TX 76208-3412	(33.250559, -97.08987139999999)	3900 Grant Pkwy, Denton, TX 76208, USA
82	Alexander Elementary School	Education-K thru 12	800 Mack Dr.	Denton	TX	76209-6314	21-22 Communities In Schools of North Texas ACTX					1	1		800 Mack Dr., Denton, TX 76209-6314	(33.219871, -97.1046487)	800 Mack Dr, Denton, TX 76209, USA
83	Rivera Elementary School	Education-K thru 12	701 Newton St.	Denton	TX	76205-6234	21-22 Communities In Schools of North Texas ACTX					1	1		701 Newton St., Denton, TX 76205-6234	(33.2071641, -97.1149295)	701 Newton St, Denton, TX 76205, USA
84	Calhoun Middle School	Education-K thru 12	709 W Congress St.	Denton	TX	76201-4011	21-22 Communities In Schools of North Texas ACTX					1	1		709 W Congress St., Denton, TX 76201-4011	(33.2190197, -97.1401022)	709 W Congress St, Denton, TX 76201, USA
85	Strickland Middle School	Education-K thru 12	324 E Windsor Dr.	Denton	TX	76209-8312	21-22 Communities In Schools of North Texas ACTX					1	1		324 E Windsor Dr., Denton, TX 76209-8312	(33.2431598, -97.1280299)	324 E Windsor Dr, Denton, TX 76209, USA
86	Evers Park Elementary School	Education-K thru 12	3300 Evers Pkwy.	Denton	TX	76207-7208	21-22 Communities In Schools of North Texas ACTX					1	1		3300 Evers Pkwy., Denton, TX 76207-7208	(33.2469344, -97.1341499)	3300 Evers Pkwy, Denton, TX 76207, USA
87	Central Elementary School	Education-K thru 12	400 High School Dr.	Lewisville	TX	75057-3635	21-22 Communities In Schools of North Texas ACTX					1	1		400 High School Dr., Lewisville, TX 75057-3635	(33.0392843, -96.99894689999999)	400 High School Dr, Lewisville, TX 75057, USA
88	Lakeland Elementary School	Education-K thru 12	800 Fox Ave.	Lewisville	TX	75067-4552	21-22 Communities In Schools of North Texas ACTX					1	1		800 Fox Ave., Lewisville, TX 75067-4552	(33.0335556, -97.0086237)	800 Fox Ave, Lewisville, TX 75067, USA
89	Lewisville Elementary School	Education-K thru 12	285 Country Ridge	Lewisville	TX	75067-7968	21-22 Communities In Schools of North Texas ACTX					1	1		285 Country Ridge, Lewisville, TX 75067-7968	(33.0229486, -96.99524009999999)	285 Country Ridge, Lewisville, TX 75067, USA
90	DeLay Middle School	Education-K thru 12	2103 Savage Ln.	Lewisville	TX	75057-2149	21-22 Communities In Schools of North Texas ACTX					1	1		2103 Savage Ln., Lewisville, TX 75057-2149	(33.0741817, -97.0194355)	2103 Savage Ln, Lewisville, TX 75057, USA
91	Bridgeport Elementary School	Education-K thru 12	1408 Elementary Dr.	Bridgeport	TX	76426-4100	21-22 Communities In Schools of North Texas ACTX					2			1408 Elementary Dr., Bridgeport, TX 76426-4100	(33.1973885, -97.7468201)	1408 Elementary Dr, Bridgeport, TX 76426, USA
92	Bridgeport Intermediate School	Education-K thru 12	1400 US Hwy 380	Bridgeport	TX	76426-2050	21-22 Communities In Schools of North Texas ACTX					1			1400 US Hwy 380, Bridgeport, TX 76426-2050	(33.2101155, -97.75475519999999)	Bridgeport, TX 76426, USA
93	Bridgeport Middle School	Education-K thru 12	702 17th St.	Bridgeport	TX	76426-3903	21-22 Communities In Schools of North Texas ACTX					1			702 17th St., Bridgeport, TX 76426-3903	(33.2050913, -97.7490258)	702 17th St, Bridgeport, TX 76426, USA
94	Bridgeport High School	Education-K thru 12	1 Maroon Dr.	Bridgeport	TX	76426-6741	21-22 Communities In Schools of North Texas ACTX					1			1 Maroon Dr., Bridgeport, TX 76426-6741	(33.2113931, -97.73883719999999)	1 Maroon St, Bridgeport, TX 76426, USA
95	Borman Elementary School	Education-K thru 12	1201 Parvin St.	Denton	TX	76205-6715	21-22 Communities In Schools of North Texas ACTX					10			1201 Parvin St., Denton, TX 76205-6715	(33.1900784, -97.14587069999999)	1201 Parvin St, Denton, TX 76205, USA
96	Ginnings Elementary School	Education-K thru 12	2525 Yellowstone Pl.	Denton	TX	76209-8602	21-22 Communities In Schools of North Texas ACTX					1			2525 Yellowstone Pl., Denton, TX 76209-8602	(33.2517819, -97.120796)	2525 Yellowstone Pl, Denton, TX 76209, USA
97	Myers Middle School	Education-K thru 12	131 N Garza Rd.	Shady Shores	TX	76208-5612	21-22 Communities In Schools of North Texas ACTX					1			131 N Garza Rd., Shady Shores, TX 76208-5612	(33.1620281, -97.0415676)	131 Garza Rd, Shady Shores, TX 76208, USA
98	Strickland Middle School	Education-K thru 12	324 E Windsor Dr.	Denton	TX	76209-8312	21-22 Communities In Schools of North Texas ACTX					1			324 E Windsor Dr., Denton, TX 76209-8312	(33.2431598, -97.1280299)	324 E Windsor Dr, Denton, TX 76209, USA
99	Denton High School	Education-K thru 12	1007 Fulton St.	Denton	TX	76201-2851	21-22 Communities In Schools of North Texas ACTX					2			1007 Fulton St., Denton, TX 76201-2851	(33.2246497, -97.14392699999999)	1007 Fulton St, Denton, TX 76201, USA
100	Ryan High School	Education-K thru 12	5101 E Mckinney St.	Denton	TX	76208-4630	21-22 Communities In Schools of North Texas ACTX					2			5101 E Mckinney St., Denton, TX 76208-4630	(33.211197, -97.0758577)	5101 E McKinney St, Denton, TX 76208, USA
101	Corinth Elementary School	Education-K thru 12	3501 Cliff Oaks Dr.	Corinth	TX	76210-1801	21-22 Communities In Schools of North Texas ACTX					2			3501 Cliff Oaks Dr., Corinth, TX 76210-1801	(33.1330213, -97.05379339999999)	3501 Cliff Oaks Dr, Corinth, TX 76210, USA
102	Lake Dallas Elementary School	Education-K thru 12	401 Main St.	Lake Dallas	TX	75065-2725	21-22 Communities In Schools of North Texas ACTX					2			401 Main St., Lake Dallas, TX 75065-2725	(33.1197272, -97.0244747)	401 Main St, Lake Dallas, TX 75065, USA
103	Lake Dallas Middle School	Education-K thru 12	325 E Hundley Dr.	Lake Dallas	TX	75065-2629	21-22 Communities In Schools of North Texas ACTX					1			325 E Hundley Dr., Lake Dallas, TX 75065-2629	(33.1234987, -97.0258185)	325 E Hundley Dr, Lake Dallas, TX 75065, USA
104	Lake Dallas High School	Education-K thru 12	3016 Parkridge Dr.	Corinth	TX	76210-2228	21-22 Communities In Schools of North Texas ACTX					1			3016 Parkridge Dr., Corinth, TX 76210-2228	(33.1330061, -97.0617763)	3016 Parkridge Dr, Corinth, TX 76210, USA
105	Degan Elementary School	Education-K thru 12	1680 College Parkway	Lewisville	TX	75077-2708	21-22 Communities In Schools of North Texas ACTX					1			1680 College Parkway, Lewisville, TX 75077-2708	(33.0478006, -97.03953709999999)	1680 College Pkwy, Lewisville, TX 75077, USA
106	Mill Street Elementary School	Education-K thru 12	601 S Mill St.	Lewisville	TX	75057-3969	21-22 Communities In Schools of North Texas ACTX					1			601 S Mill St., Lewisville, TX 75057-3969	(33.0411614, -96.9941511)	601 S Mill St, Lewisville, TX 75057, USA
107	Parkway Elementary School	Education-K thru 12	2100 S Valley Parkway	Lewisville	TX	75067-7498	21-22 Communities In Schools of North Texas ACTX					1			2100 S Valley Parkway, Lewisville, TX 75067-7498	(33.0089161, -97.0206953)	2100 S Valley Pkwy, Lewisville, TX 75067, USA
108	Peters Colony Elementary School	Education-K thru 12	5101 Nash Dr.	The Colony	TX	75056-1700	21-22 Communities In Schools of North Texas ACTX					1			5101 Nash Dr., The Colony, TX 75056-1700	(33.093392, -96.8804229)	5101 Nash Dr, The Colony, TX 75056, USA
109	Rockbrook Elementary School	Education-K thru 12	2751 Rockbrook Dr.	Lewisville	TX	75067-4150	21-22 Communities In Schools of North Texas ACTX					1			2751 Rockbrook Dr., Lewisville, TX 75067-4150	(32.9959672, -96.97860109999999)	2751 Rockbrook Dr, Lewisville, TX 75067, USA
110	Camey Elementary School 	Education-K thru 12	4949 Arbor Glen Rd	The Colony	TX	75056	21-22 Communities In Schools of North Texas ACTX					1			4949 Arbor Glen Rd, The Colony, TX 75056	(33.0774456, -96.8865934)	4949 Arbor Glen Rd, The Colony, TX 75056, USA
111	Ethridge Elementary School	Education-K thru 12	6001 Ethridge Dr	The Colony	TX	75056	21-22 Communities In Schools of North Texas ACTX					1			6001 Ethridge Dr, The Colony, TX 75056	(33.089545, -96.91023299999999)	6001 Ethridge Dr, The Colony, TX 75056, USA
112	Vickery Elementary School	Education-K thru 12	3301 Wager Rd.	Flower Mound	TX	75028-1405	21-22 Communities In Schools of North Texas ACTX					1			3301 Wager Rd., Flower Mound, TX 75028-1405	(33.0320349, -97.03971)	3301 Wager Rd, Flower Mound, TX 75028, USA
113	Durham Middle School	Education-K thru 12	2075 S Edmoonds Ln	Lewisville	TX	75067-6155	21-22 Communities In Schools of North Texas ACTX					1			2075 S Edmoonds Ln, Lewisville, TX 75067-6155	(33.0117123, -97.0036487)	2075 Edmonds Ln, Lewisville, TX 75067, USA
114	Hedrick Middle School	Education-K thru 12	1526 Bellaire Blvd.	Lewisville	TX	75067-4901	21-22 Communities In Schools of North Texas ACTX					9			1526 Bellaire Blvd., Lewisville, TX 75067-4901	(33.0270871, -97.0259865)	1526 Bellaire Blvd, Lewisville, TX 75067, USA
115	Lewisville Harmon High School	Education-K thru 12	1250 W Round Grove Rd.	Lewisville	TX	75067-7914	21-22 Communities In Schools of North Texas ACTX					1			1250 W Round Grove Rd., Lewisville, TX 75067-7914	(33.0073084, -97.0258236)	1250 W Round Grove Rd, Lewisville, TX 75067, USA
116	Lewisville Killough High School	Education-K thru 12	1301 Summit Ave.	Lewisville	TX	75077-2511	21-22 Communities In Schools of North Texas ACTX					1			1301 Summit Ave., Lewisville, TX 75077-2511	(33.0612681, -97.0187531)	1301 N Summit Ave, Lewisville, TX 75067, USA
117	Lewisville High School	Education-K thru 12	1098 W Main St.	Lewisville	TX	75067-3518	21-22 Communities In Schools of North Texas ACTX					1			1098 W Main St., Lewisville, TX 75067-3518	(33.0400183, -97.0193582)	1098 W Main St, Lewisville, TX 75067, USA
118	Little Elm High School	Education-K thru 12	1900 Walker Ln.	Little Elm	TX	75068-6924	21-22 Communities In Schools of North Texas ACTX					1			1900 Walker Ln., Little Elm, TX 75068-6924	(33.1832879, -96.90556939999999)	1900 Walker Ln, Little Elm, TX 75068, USA
119	Clara Love Elementary School	Education-K thru 12	16301 Elementary Dr.	Justin	TX	76247-5785	21-22 Communities In Schools of North Texas ACTX					1			16301 Elementary Dr., Justin, TX 76247-5785	(33.0391287, -97.3242118)	16301 Elementary Dr, Justin, TX 76247, USA
120	Prairie View Elementary School	Education-K thru 12	609 FM 3433	Rhome	TX	76078-5407	21-22 Communities In Schools of North Texas ACTX					1			609 FM 3433, Rhome, TX 76078-5407	(33.0125878, -97.4859112)	FM3433, Aurora, TX 76078, USA
121	Seven Hills Elementary School	Education-K thru 12	654 FM 3433	Newark	TX	76071-5431	21-22 Communities In Schools of North Texas ACTX					1			654 FM 3433, Newark, TX 76071-5431	(33.0195853, -97.4872511)	654 FM3433, Newark, TX 76071, USA
122	Chisholm Trail Middle School	Education-K thru 12	583 FM 3433	Rhome	TX	76078-5401	21-22 Communities In Schools of North Texas ACTX					1			583 FM 3433, Rhome, TX 76078-5401	(33.0125878, -97.4859112)	FM3433, Aurora, TX 76078, USA
123	Pike Middle School	Education-K thru 12	2200 Texan Dr.	Justin	TX	76247-8792	21-22 Communities In Schools of North Texas ACTX					1			2200 Texan Dr., Justin, TX 76247-8792	(33.026422, -97.317567)	2200 Texan Dr, Justin, TX 76247, USA
124	Griffen Middle School	Education-K thru 12	5105 N Colony Blvd	The Colony	TX	75056	21-22 Communities In Schools of North Texas ACTX					1			5105 N Colony Blvd, The Colony, TX 75056	(33.0969645, -96.88119859999999)	5105 N Colony Blvd, The Colony, TX 75056, USA
125	Huffins Middle School 	Education-K thru 12	1440 N Valley Pkwy 	Lewisville	TX	75077	21-22 Communities In Schools of North Texas ACTX					1			1440 N Valley Pkwy, Lewisville, TX 75077	(33.0551943, -97.03306309999999)	1440 N Valley Pkwy, Lewisville, TX 75077, USA
126	Northwest High School	Education-K thru 12	2301 Texan Dr.	Justin	TX	76247-8793	21-22 Communities In Schools of North Texas ACTX					1			2301 Texan Dr., Justin, TX 76247-8793	(33.0268328, -97.3136896)	2301 Texan Dr, Justin, TX 76247, USA
127	Beacon Hill Academy	Education-K thru 12	1411 W Ashby Pl	San Antonio	TX	78201-6337	21-22 Communities In Schools of San Antonio ACTX					2			1411 W Ashby Pl, San Antonio, TX 78201-6337	(29.4499657, -98.514521)	1411 W Ashby Pl, San Antonio, TX 78201, USA
128	Burbank High School	Education-K thru 12	1002 Edwards St	San Antonio	TX	78204-2698	21-22 Communities In Schools of San Antonio ACTX					2			1002 Edwards St, San Antonio, TX 78204-2698	(29.3928838, -98.5092028)	1002 Edwards, San Antonio, TX 78204, USA
129	Cable Elementary School	Education-K thru 12	1706 Pinn Rd	San Antonio	TX	78227-2907	21-22 Communities In Schools of San Antonio ACTX						2		1706 Pinn Rd, San Antonio, TX 78227-2907	(29.4142903, -98.62259569999999)	1706 Pinn Rd, San Antonio, TX 78227, USA
130	Camelot Elementary School	Education-K thru 12	7410 Ray Bon Dr	San Antonio	TX	78218-2840	21-22 Communities In Schools of San Antonio ACTX					0.25			7410 Ray Bon Dr, San Antonio, TX 78218-2840	(29.5006393, -98.3872724)	7410 Ray Bon Dr, San Antonio, TX 78218, USA
131	Candlewood Elementary School	Education-K thru 12	3635 Candleglenn	San Antonio	TX	78244-2100	21-22 Communities In Schools of San Antonio ACTX						2		3635 Candleglenn, San Antonio, TX 78244-2100	(29.4580076, -98.36831099999999)	3635 Candleglenn, San Antonio, TX 78244, USA
132	Carvajal Early Childhood Campus	Education-K thru 12	225 Arizona	San Antonio	TX	78207-6411	21-22 Communities In Schools of San Antonio ACTX					3			225 Arizona, San Antonio, TX 78207-6411	(29.413541, -98.5415038)	225 Arizona, San Antonio, TX 78207, USA
133	CAST STEM High School	Education-K thru 12	4495 SW Verano Pkwy	Von Ormy	TX	78073-4331	21-22 Communities In Schools of San Antonio ACTX					2			4495 SW Verano Pkwy, Von Ormy, TX 78073-4331	(29.2928695, -98.588211)	4495 Verano Pkwy, Von Ormy, TX 78073, USA
134	Charles C. Ball Academy	Education-K thru 12	343 Koehler Ct	San Antonio	TX	78223	21-22 Communities In Schools of San Antonio ACTX						1		343 Koehler Ct, San Antonio, TX 78223	(29.3672951, -98.46079859999999)	343 Koehler Ct, San Antonio, TX 78223, USA
135	Chavez Excel Academy	Education-K thru 12	11937 IH 10 W	San Antonio	TX	78230	21-22 Communities In Schools of San Antonio ACTX					0.25			11937 IH 10 W, San Antonio, TX 78230	(29.6557786, -98.6255196)	W I-10, San Antonio, TX 78257, USA
136	Churchill High School	Education-K thru 12	12049 Blanco Rd	San Antonio	TX	78216 -2411	21-22 Communities In Schools of San Antonio ACTX					2			12049 Blanco Rd, San Antonio, TX 78216 -2411	(29.548924, -98.51427)	12049 Blanco Rd, San Antonio, TX 78216, USA
137	Colonial Hills Elementary School 	Education-K thru 12	2627 Kerrybrook Ct	San Antonio	TX	78230- 4534	21-22 Communities In Schools of San Antonio ACTX					3			2627 Kerrybrook Ct, San Antonio, TX 78230- 4534	(29.5166143, -98.5368058)	2627 Kerrybrook Ct, San Antonio, TX 78230, USA
138	Converse Elementary School	Education-K thru 12	6720 FM 1516	Converse	TX	78109 -1399	21-22 Communities In Schools of San Antonio ACTX						1		6720 FM 1516, Converse, TX 78109 -1399	(29.4914935, -98.3081811)	6720 Farm to Market 1516, Converse, TX 78109, USA
139	Cooper Academy	Education-K thru 12	1700 Tampico	San Antonio	TX	78207 -0000	21-22 Communities In Schools of San Antonio ACTX					0.5			1700 Tampico, San Antonio, TX 78207 -0000	(29.4147472, -98.52481540000001)	1700 Tampico St, San Antonio, TX 78207, USA
140	David Crockett Academy	Education-K thru 12	2215 Morales St	San Antonio	TX	78207-2599	21-22 Communities In Schools of San Antonio ACTX						1		2215 Morales St, San Antonio, TX 78207-2599	(29.4334765, -98.525373)	2215 Morales St, San Antonio, TX 78207, USA
141	East Central High School	Education-K thru 12	7173 FM 1628	San Antonio	TX	78263-9620	21-22 Communities In Schools of San Antonio ACTX					0.5			7173 FM 1628, San Antonio, TX 78263-9620	(29.3523288, -98.2964684)	7173 FM1628, San Antonio, TX 78263, USA
142	East Central CAST LEAD High School	Education-K thru 12	7284 FM 1628	San Antonio	TX	78263-9620	21-22 Communities In Schools of San Antonio ACTX					0.5			7284 FM 1628, San Antonio, TX 78263-9620	(29.3512119, -98.29417459999999)	7284 FM1628, Adkins, TX 78101, USA
143	Ed White Middle School	Education-K thru 12	7800 Midcrown Dr	San Antonio	TX	78218-2322	21-22 Communities In Schools of San Antonio ACTX					0.5	1		7800 Midcrown Dr, San Antonio, TX 78218-2322	(29.5056595, -98.379859)	7800 Midcrown Dr, San Antonio, TX 78218, USA
144	E. H. Gilbert Elementary School	Education-K thru 12	931 E Southcross	San Antonio	TX	78214	21-22 Communities In Schools of San Antonio ACTX					0.5			931 E Southcross, San Antonio, TX 78214	(29.3700764, -98.4857042)	931 E Southcross, San Antonio, TX 78214, USA
145	Glenoaks Elementary School	Education-K thru 12	5103 Newcome Dr	San Antonio	TX	78229-4924	21-22 Communities In Schools of San Antonio ACTX					1	1		5103 Newcome Dr, San Antonio, TX 78229-4924	(29.4956495, -98.585366)	5103 Newcome Dr, San Antonio, TX 78229, USA
146	Harlendale Middle School	Education-K thru 12	300 W Huff Ave	San Antonio	TX	78214	21-22 Communities In Schools of San Antonio ACTX						1		300 W Huff Ave, San Antonio, TX 78214	(29.36382799999999, -98.4987632)	300 W Huff Ave, San Antonio, TX 78214, USA
147	Highlands High School	Education-K thru 12	3118 Elgin Ave	San Antonio	TX	78210-5599	21-22 Communities In Schools of San Antonio ACTX					0.25			3118 Elgin Ave, San Antonio, TX 78210-5599	(29.3882158, -98.44258549999999)	3118 Elgin Ave, San Antonio, TX 78210, USA
148	Hobby Middle School	Education-K thru 12	11843 Vance Jackson Rd	San Antonio	TX	78230	21-22 Communities In Schools of San Antonio ACTX						1		11843 Vance Jackson Rd, San Antonio, TX 78230	(29.5513038, -98.5713076)	11843 Vance Jackson Rd, San Antonio, TX 78230, USA
149	Holmes High School	Education-K thru 12	6500 Ingram Rd	San Antonio	TX	78238-3932	21-22 Communities In Schools of San Antonio ACTX					1.5			6500 Ingram Rd, San Antonio, TX 78238-3932	(29.4638712, -98.6162016)	6500 Ingram Rd, San Antonio, TX 78238, USA
150	Hot Wells Middle School	Education-K thru 12	400 Hot Wells Blvd.	San Antonio	TX	78223	21-22 Communities In Schools of San Antonio ACTX					2			400 Hot Wells Blvd., San Antonio, TX 78223	(29.3676732, -98.46264160000001)	400 Hot Wells Blvd, San Antonio, TX 78223, USA
151	Jefferson High School	Education-K thru 12	723 Donaldson Ave	San Antonio	TX	78201-4897	21-22 Communities In Schools of San Antonio ACTX					2			723 Donaldson Ave, San Antonio, TX 78201-4897	(29.4659605, -98.5399056)	723 Donaldson Ave, San Antonio, TX 78201, USA
152	Jones Middle School	Education-K thru 12	1256 Pinn Rd	San Antonio	TX	78227 -1899	21-22 Communities In Schools of San Antonio ACTX						1		1256 Pinn Rd, San Antonio, TX 78227 -1899	(29.4223558, -98.62311120000001)	1256 Pinn Rd, San Antonio, TX 78227, USA
153	Karen Wagner High School	Education-K thru 12	3000 N Foster Rd	San Antonio	TX	78244-1135	21-22 Communities In Schools of San Antonio ACTX					2			3000 N Foster Rd, San Antonio, TX 78244-1135	(29.4566422, -98.3569359)	3000 N Foster Rd, San Antonio, TX 78244, USA
154	Kirby Middle School	Education-K thru 12	5441 Seguin Rd	San Antonio	TX	78219 -1097	21-22 Communities In Schools of San Antonio ACTX					0.25			5441 Seguin Rd, San Antonio, TX 78219 -1097	(29.4694787, -98.38734869999999)	5441 Old Seguin Rd, Kirby, TX 78219, USA
155	Lanier High School	Education-K thru 12	1514 W Cesar E Chavez Blvd	San Antonio	TX	78207-3992	21-22 Communities In Schools of San Antonio ACTX					2			1514 W Cesar E Chavez Blvd, San Antonio, TX 78207-3992	(29.4223059, -98.5172595)	1514 W César E Chávez Blvd, San Antonio, TX 78207, USA
156	Lee High School	Education-K thru 12	1400 Jackson Keller Rd.	San Antonio	TX	78213- 3206	21-22 Communities In Schools of San Antonio ACTX					1	1		1400 Jackson Keller Rd., San Antonio, TX 78213- 3206	(29.5065173, -98.51512149999999)	1400 Jackson Keller Rd, San Antonio, TX 78213, USA
157	Legacy Middle School	Education-K thru 12	5903 South East Loop 410	San Antonio	TX	78263 -9701	21-22 Communities In Schools of San Antonio ACTX					2			5903 South East Loop 410, San Antonio, TX 78263 -9701	(29.365714, -98.3997484)	5903 SE Loop 410 Acc Rd, San Antonio, TX 78222, USA
158	Longfellow Middle School	Education-K thru 12	1130 East Sunshine Dr	San Antonio	TX	78228 -2999	21-22 Communities In Schools of San Antonio ACTX					2			1130 East Sunshine Dr, San Antonio, TX 78228 -2999	(29.4732844, -98.56326)	1130 E Sunshine Dr, San Antonio, TX 78228, USA
159	Madison High School	Education-K thru 12	5005 Stahl Rd	San Antonio	TX	78247 -1799	21-22 Communities In Schools of San Antonio ACTX					1			5005 Stahl Rd, San Antonio, TX 78247 -1799	(29.5848083, -98.3920639)	5005 Stahl Rd, San Antonio, TX 78247, USA
160	Margil Academy	Education-K thru 12	1000 Perez St	San Antonio	TX	78207-2334	21-22 Communities In Schools of San Antonio ACTX					2			1000 Perez St, San Antonio, TX 78207-2334	(29.4328893, -98.5141781)	1000 Perez St, San Antonio, TX 78207, USA
161	Martin Elementary School	Education-K thru 12	730 Canterbury Dr	San Antonio	TX	78228-6500	21-22 Communities In Schools of San Antonio ACTX					1	1		730 Canterbury Dr, San Antonio, TX 78228-6500	(29.4427482, -98.5986331)	730 Canterbury Dr, San Antonio, TX 78228, USA
162	McDermott Elementary School	Education-K thru 12	5111 USAA Blvd	San Antonio	TX	78240-5010	21-22 Communities In Schools of San Antonio ACTX					2			5111 USAA Blvd, San Antonio, TX 78240-5010	(29.534711, -98.5842069)	5111 Usaa Blvd, San Antonio, TX 78240, USA
163	Meadow Village Elementary School	Education-K thru 12	1406 Meadow Way Dr	San Antonio	TX	78227-1658	21-22 Communities In Schools of San Antonio ACTX						2		1406 Meadow Way Dr, San Antonio, TX 78227-1658	(29.423129, -98.64272109999999)	1406 Meadow Way Dr, San Antonio, TX 78227, USA
164	Memorial High School	Education-K thru 12	1227 Memorial St	San Antonio	TX	78228	21-22 Communities In Schools of San Antonio ACTX					2			1227 Memorial St, San Antonio, TX 78228	(29.446713, -98.5644188)	1227 Memorial St, San Antonio, TX 78228, USA
165	Montgomery Elementary School	Education-K thru 12	7047 Montgomery Dr	San Antonio	TX	78239-3322	21-22 Communities In Schools of San Antonio ACTX						2		7047 Montgomery Dr, San Antonio, TX 78239-3322	(29.5117557, -98.3498742)	7047 Montgomery Dr, San Antonio, TX 78239, USA
166	P F Stewart Elementary School	Education-K thru 12	1950 Rigsby Ave	San Antonio	TX	78210 -4433	21-22 Communities In Schools of San Antonio ACTX						2		1950 Rigsby Ave, San Antonio, TX 78210 -4433	(29.3973953, -98.4320024)	1950 Rigsby Ave, San Antonio, TX 78210, USA
167	Park Village Elementary School	Education-K thru 12	5855 East Midcrown Dr	San Antonio	TX	78218 -4199	21-22 Communities In Schools of San Antonio ACTX					1	1		5855 East Midcrown Dr, San Antonio, TX 78218 -4199	(29.4915022, -98.3707189)	5855 Midcrown Dr, San Antonio, TX 78218, USA
168	Passmore Elementary	Education-K thru 12	570 Pinn Rd	San Antonio	TX	78227-1234	21-22 Communities In Schools of San Antonio ACTX					1	1		570 Pinn Rd, San Antonio, TX 78227-1234	(29.4303921, -98.6226816)	570 Pinn Rd, San Antonio, TX 78227, USA
169	Poe Middle School	Education-K thru 12	814 Aransas Ave	San Antonio	TX	78210-2212	21-22 Communities In Schools of San Antonio ACTX						1		814 Aransas Ave, San Antonio, TX 78210-2212	(29.4075024, -98.4615956)	814 Aransas Ave, San Antonio, TX 78210, USA
170	Sam Houston High School	Education-K thru 12	635 E Houston St	San Antonio	TX	78220- 2325	21-22 Communities In Schools of San Antonio ACTX					2			635 E Houston St, San Antonio, TX 78220- 2325	(29.4270551, -98.4862607)	635 E Houston St, San Antonio, TX 78205, USA
171	Schenck Elementary School	Education-K thru 12	101 Kate Schenck Ave	San Antonio	TX	78223-3305	21-22 Communities In Schools of San Antonio ACTX					2			101 Kate Schenck Ave, San Antonio, TX 78223-3305	(29.3618381, -98.4361155)	101 Kate Schenck Ave, San Antonio, TX 78223, USA
172	Southwest High School	Education-K thru 12	11690 Dragon Ln	San Antonio	TX	78252-2647	21-22 Communities In Schools of San Antonio ACTX					1			11690 Dragon Ln, San Antonio, TX 78252-2647	(29.307749, -98.6742427)	11690 Dragon Ln, San Antonio, TX 78252, USA
173	Southwest Legacy High School	Education-K thru 12	4495 SW Verano Parkway	Von Ormy	TX	78073-4331	21-22 Communities In Schools of San Antonio ACTX					1			4495 SW Verano Parkway, Von Ormy, TX 78073-4331	(29.2928695, -98.588211)	4495 Verano Pkwy, Von Ormy, TX 78073, USA
174	Tafolla Middle School	Education-K thru 12	1303 W. Ceasar E. Chavez Blvd	San Antonio	TX	78207- 3935	21-22 Communities In Schools of San Antonio ACTX					1			1303 W. Ceasar E. Chavez Blvd, San Antonio, TX 78207- 3935	(29.42285669999999, -98.51203339999999)	1303 W César E Chávez Blvd, San Antonio, TX 78207, USA
175	Terrell Wells Middle School	Education-K thru 12	422 W Hutchins Pl	San Antonio	TX	78221-2798	21-22 Communities In Schools of San Antonio ACTX					0.5			422 W Hutchins Pl, San Antonio, TX 78221-2798	(29.344506, -98.5099962)	422 W Hutchins Pl, San Antonio, TX 78221, USA
176	Travis Early College High School	Education-K thru 12	1915 N Main Ave	San Antonio	TX	78212	21-22 Communities In Schools of San Antonio ACTX					1.5			1915 N Main Ave, San Antonio, TX 78212	(29.4473113, -98.4948369)	1915 N Main Ave, San Antonio, TX 78212, USA
177	Villarreal Elementary School	Education-K thru 12	2902 White Tail Rd	San Antonio	TX	78228-2749	21-22 Communities In Schools of San Antonio ACTX					1			2902 White Tail Rd, San Antonio, TX 78228-2749	(29.4647569, -98.5890795)	2902 White Tail Dr, San Antonio, TX 78228, USA
178	Walzem Elementary School	Education-K thru 12	4618 Walzem Rd	San Antonio	TX	78218-1609	21-22 Communities In Schools of San Antonio ACTX						1		4618 Walzem Rd, San Antonio, TX 78218-1609	(29.5095983, -98.40116169999999)	4618 Walzem Rd, San Antonio, TX 78218, USA
179	Westwood Terrace Elementary School	Education-K thru 12	2315 Hackamore Ln	San Antonio	TX	 78227-2747	21-22 Communities In Schools of San Antonio ACTX					2			2315 Hackamore Ln, San Antonio, TX 78227-2747	(29.4087371, -98.6402079)	2315 Hackamore Ln, San Antonio, TX 78227, USA
180	Whittier Middle School	Education-K thru 12	2101 Edison Dr	San Antonio	TX	78201 -3499	21-22 Communities In Schools of San Antonio ACTX					1	1		2101 Edison Dr, San Antonio, TX 78201 -3499	(29.4754169, -98.53013469999999)	2101 Edison Dr, San Antonio, TX 78201, USA
181	Woodlake Elementary School	Education-K thru 12	5501 Lakebend East Dr	San Antonio	TX	78244-1616	21-22 Communities In Schools of San Antonio ACTX					3			5501 Lakebend East Dr, San Antonio, TX 78244-1616	(29.4789753, -98.354582)	5501 Lakebend E Dr, San Antonio, TX 78244, USA
182	Woodlake Hills Middle School	Education-K thru 12	6625 Woodlake Pkwy	San Antonio	TX	78244-1465	21-22 Communities In Schools of San Antonio ACTX					1			6625 Woodlake Pkwy, San Antonio, TX 78244-1465	(29.4900965, -98.3501738)	6625 Woodlake Pkwy, San Antonio, TX 78244, USA
183	Oliver Wendell Holmes Middle School	Education-K thru 12	2001 E Kiest Blvd	Dallas	TX	75216-3326	21-22 City Year Dallas ACTX	10							2001 E Kiest Blvd, Dallas, TX 75216-3326	(32.7153543, -96.7921518)	2001 E Kiest Blvd, Dallas, TX 75216, USA
184	E.B. Comstock Middle School	Education-K thru 12	7044 Hodde Street	Dallas	TX	75217-4830	21-22 City Year Dallas ACTX	10							7044 Hodde Street, Dallas, TX 75217-4830	(32.721585, -96.7022558)	7044 Hodde St, Dallas, TX 75217, USA
185	H. Grady Spruce High School	Education-K thru 12	9733 Old Seagoville Road	Dallas	TX	75217-7744	21-22 City Year Dallas ACTX	10							9733 Old Seagoville Road, Dallas, TX 75217-7744	(32.7103864, -96.65378969999999)	9733 Old Seagoville Rd, Dallas, TX 75217, USA
186	Franklin D. Roosevelt High School	Education-K thru 12	525 Bonnie View Road	Dallas	TX	75203-3556	21-22 City Year Dallas ACTX	8							525 Bonnie View Road, Dallas, TX 75203-3556	(32.7417005, -96.7953321)	525 Bonnie View Rd, Dallas, TX 75203, USA
187	Maple Lawn Elementary School	Education-K thru 12	3120 Inwood Road	Dallas	TX	75235-7626	21-22 City Year Dallas ACTX	10							3120 Inwood Road, Dallas, TX 75235-7626	(32.8262461, -96.8293619)	3120 Inwood Rd, Dallas, TX 75235, USA
188	Elisha M. Pease Elementary School	Education-K thru 12	2914 Cummings St	Dallas	TX	75216-7235	21-22 City Year Dallas ACTX	10							2914 Cummings St, Dallas, TX 75216-7235	(32.6981392, -96.77305790000001)	2914 Cummings St, Dallas, TX 75216, USA
189	Harrell Budd Elementary School	Education-K thru 12	2121 S. Marsalis Avenue	Dallas	TX	75216-2311	21-22 City Year Dallas ACTX	8							2121 S. Marsalis Avenue, Dallas, TX 75216-2311	(32.72169470000001, -96.81529669999999)	2121 S Marsalis Ave, Dallas, TX 75216, USA
190	John Neely Bryan Elementary School	Education-K thru 12	2001 Deer Path Drive	Dallas	TX	75216-4601	21-22 City Year Dallas ACTX	8							2001 Deer Path Drive, Dallas, TX 75216-4601	(32.7111422, -96.7953321)	2001 Deer Path Dr, Dallas, TX 75216, USA
191	William B. Miller Elementary School	Education-K thru 12	3111 Bonnie View Road	Dallas	TX	75216-3494	21-22 City Year Dallas ACTX	8							3111 Bonnie View Road, Dallas, TX 75216-3494	(32.7186265, -96.7795573)	3111 Bonnie View Rd, Dallas, TX 75216, USA
192	Cedar Crest Elementary School	Education-K thru 12	2020 Mouser Lane	Dallas	TX	75203-3942	21-22 City Year Dallas ACTX	8							2020 Mouser Lane, Dallas, TX 75203-3942	(32.7377887, -96.79298870000001)	2020 Mouser Ln, Dallas, TX 75203, USA
193	Lanier High School	Education-K thru 12	1514 West Durango Blvd	SAN ANTONIO	TX	78207-3992	21-22 City Year San Antonio ACTX	15							1514 West Durango Blvd, SAN ANTONIO, TX 78207-3992	(29.4220473, -98.5036803)	502W Durango Blvd, San Antonio, TX 78207, USA
194	Rhodes Middle School	Education-K thru 12	3000 Tampico St	SAN ANTONIO	TX	78207-6498	21-22 City Year San Antonio ACTX	12							3000 Tampico St, SAN ANTONIO, TX 78207-6498	(29.416063, -98.54077439999999)	3000 Tampico St, San Antonio, TX 78207, USA
195	Tafolla Middle School	Education-K thru 12	1303 West Cesar East Chavez Bl	SAN ANTONIO	TX	78207-3997	21-22 City Year San Antonio ACTX	13							1303 West Cesar East Chavez Bl, SAN ANTONIO, TX 78207-3997	(29.42279419999999, -98.51160449999999)	1303 W Cesar E. Chavez Blvd, San Antonio, TX 78207, USA
196	Antonio Margil Academy	Education-K thru 12	1000 Perez St	SAN ANTONIO	TX	78207-2334	21-22 City Year San Antonio ACTX	11							1000 Perez St, SAN ANTONIO, TX 78207-2334	(29.4328893, -98.5141781)	1000 Perez St, San Antonio, TX 78207, USA
197	Sam Houston High School	Education-K thru 12	4635 East Houston St	SAN ANTONIO	TX	78220-1792	21-22 City Year San Antonio ACTX	9							4635 East Houston St, SAN ANTONIO, TX 78220-1792	(29.4260283, -98.3999197)	4635 E Houston St, San Antonio, TX 78220, USA
198	Davis Middle School	Education-K thru 12	4702 East Houston St	SAN ANTONIO	TX	78220-3397	21-22 City Year San Antonio ACTX	10							4702 East Houston St, SAN ANTONIO, TX 78220-3397	(29.4224368, -98.4008405)	4702 E Houston St, San Antonio, TX 78220, USA
199	Carvajal Elementary School	Education-K thru 12	225 Arizona	SAN ANTONIO	TX	78207-6411	21-22 City Year San Antonio ACTX	9							225 Arizona, SAN ANTONIO, TX 78207-6411	(29.413541, -98.5415038)	225 Arizona, San Antonio, TX 78207, USA
200	Sarah King Elementary School	Education-K thru 12	1001 Ceralvo St 	SAN ANTONIO	TX	78207-7119	21-22 City Year San Antonio ACTX	11							1001 Ceralvo St, SAN ANTONIO, TX 78207-7119	(29.4079809, -98.53768529999999)	1001 Ceralvo St, San Antonio, TX 78207, USA
201	Austin Street Center	Nonprofit	2929 Hickory St	Dallas	TX	75226-2123	21-22 CitySquare ACTX					3			2929 Hickory St, Dallas, TX 75226-2123	(32.7789651, -96.77588039999999)	2929 Hickory St, Dallas, TX 75226, USA
202	BOOM	Nonprofit	4478 S Marsalis Ave	Dallas	TX	75216-6738	21-22 CitySquare ACTX						6		4478 S Marsalis Ave, Dallas, TX 75216-6738	(32.6901017, -96.8137175)	4478 S Marsalis Ave, Dallas, TX 75216, USA
203	BridgeBuilders	Nonprofit	6601 Bexar St	Dallas	TX	75215-5543	21-22 CitySquare ACTX				8.0		6		6601 Bexar St, Dallas, TX 75215-5543	(32.737489, -96.7538646)	6601 Bexar St, Dallas, TX 75215, USA
204	Carter's House	Nonprofit	2500 Romine Ave	Dallas	TX	75215-3755	21-22 CitySquare ACTX					6			2500 Romine Ave, Dallas, TX 75215-3755	(32.7589501, -96.7634708)	2500 Romine Ave, Dallas, TX 75215, USA
205	CitySquare - Community Life	Nonprofit	511 N Akard St	Dallas	TX	75201-6601	21-22 CitySquare ACTX					3			511 N Akard St, Dallas, TX 75201-6601	(32.7837585, -96.8008146)	511 N Akard St, Dallas, TX 75201, USA
206	CitySquare - Cottages	Nonprofit	1625 S Malcolm X Blvd	Dallas	TX	75226-2129	21-22 CitySquare ACTX					3			1625 S Malcolm X Blvd, Dallas, TX 75226-2129	(32.7786419, -96.7791848)	1625 S Malcolm X Blvd, Dallas, TX 75226, USA
207	CitySquare - WFE	Nonprofit	1610 S Malcolm X Blvd	Dallas	TX	75226-2101	21-22 CitySquare ACTX					6			1610 S Malcolm X Blvd, Dallas, TX 75226-2101	(32.7784615, -96.77828129999999)	Community Health Services, 1610 S Malcolm X Blvd, Dallas, TX 75226, USA
208	CitySquare - Food	Nonprofit	1610 S Malcolm X Blvd	Dallas	TX	75226-2101	21-22 CitySquare ACTX				2.0	30	15		1610 S Malcolm X Blvd, Dallas, TX 75226-2101	(32.7784615, -96.77828129999999)	Community Health Services, 1610 S Malcolm X Blvd, Dallas, TX 75226, USA
209	CitySquare - Food Pantry	Nonprofit	1610 S Malcolm X Blvd	Dallas	TX	75226-2101	21-22 CitySquare ACTX					16			1610 S Malcolm X Blvd, Dallas, TX 75226-2101	(32.7784615, -96.77828129999999)	Community Health Services, 1610 S Malcolm X Blvd, Dallas, TX 75226, USA
210	CitySquare - Food Recovery	Nonprofit	1610 S Malcolm X Blvd	Dallas	TX	75226-2101	21-22 CitySquare ACTX					9			1610 S Malcolm X Blvd, Dallas, TX 75226-2101	(32.7784615, -96.77828129999999)	Community Health Services, 1610 S Malcolm X Blvd, Dallas, TX 75226, USA
211	CitySquare - HOT	Nonprofit	1610 S Malcolm X Blvd	Dallas	TX	75226-2101	21-22 CitySquare ACTX					3			1610 S Malcolm X Blvd, Dallas, TX 75226-2101	(32.7784615, -96.77828129999999)	Community Health Services, 1610 S Malcolm X Blvd, Dallas, TX 75226, USA
212	CitySquare - NSS Walk-In	Nonprofit	1610 S Malcolm X Blvd	Dallas	TX	75226-2101	21-22 CitySquare ACTX					9			1610 S Malcolm X Blvd, Dallas, TX 75226-2101	(32.7784615, -96.77828129999999)	Community Health Services, 1610 S Malcolm X Blvd, Dallas, TX 75226, USA
213	CitySquare - Paris	Nonprofit	2515 Bonham St	Paris	TX	75460-3711	21-22 CitySquare ACTX					6	9		2515 Bonham St, Paris, TX 75460-3711	(33.6598483, -95.5837593)	2515 Bonham St, Paris, TX 75460, USA
214	CitySquare - TRAC Dallas Workforce	Nonprofit	3108 Live Oak St	Dallas	TX	75204-6174	21-22 CitySquare ACTX					3			3108 Live Oak St, Dallas, TX 75204-6174	(32.7912417, -96.78588350000001)	3108 Live Oak St, Dallas, TX 75204, USA
215	CitySquare - TRAC Forth Worth Workforce	Nonprofit	4532 Altamesa Blvd	Fort Worth	TX	76133-6216	21-22 CitySquare ACTX					3			4532 Altamesa Blvd, Fort Worth, TX 76133-6216	(32.6483446, -97.39287619999999)	4532 Altamesa Blvd, Fort Worth, TX 76133, USA
216	CitySquare - TRAC Outreach	Nonprofit	3108 Live Oak St	Dallas	TX	75204-6174	21-22 CitySquare ACTX					3			3108 Live Oak St, Dallas, TX 75204-6174	(32.7912417, -96.78588350000001)	3108 Live Oak St, Dallas, TX 75204, USA
217	CitySquare - TRAC Housing	Nonprofit	3108 Live Oak St	Dallas	TX	75204-6174	21-22 CitySquare ACTX					3			3108 Live Oak St, Dallas, TX 75204-6174	(32.7912417, -96.78588350000001)	3108 Live Oak St, Dallas, TX 75204, USA
218	Cornerstone Baptist Church	Nonprofit	2815 S Ervay St	Dallas	TX	75215-3110	21-22 CitySquare ACTX				4.0		5		2815 S Ervay St, Dallas, TX 75215-3110	(32.7627253, -96.7791419)	2815 S Ervay St, Dallas, TX 75215, USA
219	Crossroads Community Services	Nonprofit	4500 S Cockrell Hill Rd	Dallas	TX	75236-2028	21-22 CitySquare ACTX					27			4500 S Cockrell Hill Rd, Dallas, TX 75236-2028	(32.6889959, -96.8905642)	4500 S Cockrell Hill Rd, Dallas, TX 75236, USA
220	Heart House	Nonprofit	8515 Park Ln	Dallas	TX	75231-6396	21-22 CitySquare ACTX				4.0		3		8515 Park Ln, Dallas, TX 75231-6396	(32.8707541, -96.7563624)	8515 Park Ln, Dallas, TX 75231, USA
221	iLookLikeLove	Nonprofit	2711 S Ervay St, # 102	Dallas	TX	75215-2710	21-22 CitySquare ACTX						6		2711 S Ervay St, # 102, Dallas, TX 75215-2710	(32.763737, -96.7803086)	2711 S Ervay St #102, Dallas, TX 75215, USA
222	Junior Achievement	Nonprofit	Po Box 191405	Dallas	TX	75219-1405	21-22 CitySquare ACTX					6			Po Box 191405, Dallas, TX 75219-1405	(32.8122051, -96.81098519999999)	Dallas, TX 75219, USA
223	Metrocrest Social Services	Nonprofit	13801 Hutton Dr, Ste 150	Farmers Branch	TX	75234-9040	21-22 CitySquare ACTX					9			13801 Hutton Dr, Ste 150, Farmers Branch, TX 75234-9040	(32.9302789, -96.9160409)	13801 Hutton Dr #150, Farmers Branch, TX 75234, USA
224	Readers 2 Leaders	Nonprofit	2223 Singleton Blvd, Ste 140	Dallas	TX	75212-3759	21-22 CitySquare ACTX				4.0		4		2223 Singleton Blvd, Ste 140, Dallas, TX 75212-3759	(32.7798996, -96.8594067)	2223 Singleton Blvd # 140, Dallas, TX 75212, USA
225	Salvation Army - Dallas	Nonprofit	5302 Harry Hines Blvd	Dallas	TX	75235-7209	21-22 CitySquare ACTX					6			5302 Harry Hines Blvd, Dallas, TX 75235-7209	(32.8140334, -96.8377795)	5302 Harry Hines Blvd, Dallas, TX 75235, USA
226	Sharing Life Community Outreach	Nonprofit	3544 E Emporium Cir	Mesquite	TX	75150-6524	21-22 CitySquare ACTX					19	5		3544 E Emporium Cir, Mesquite, TX 75150-6524	(32.8154731, -96.6207506)	3544 E Emporium Cir, Mesquite, TX 75150, USA
227	St. Philips Community Center	Nonprofit	1600 Pennsylvania Ave	Dallas	TX	75215-3239	21-22 CitySquare ACTX						10		1600 Pennsylvania Ave, Dallas, TX 75215-3239	(32.759242, -96.77537369999999)	1600 Pennsylvania Ave, Dallas, TX 75215, USA
228	The Bridge	Nonprofit	1818 Corsicana St	Dallas	TX	75201-6102	21-22 CitySquare ACTX					6			1818 Corsicana St, Dallas, TX 75201-6102	(32.775154, -96.791545)	1818 Corsicana St, Dallas, TX 75201, USA
229	Vickery Meadow Youth Development Foundation	Nonprofit	7001 Fair Oaks Ave	Dallas	TX	75231-6024	21-22 CitySquare ACTX				10.0		14		7001 Fair Oaks Ave, Dallas, TX 75231-6024	(32.8724192, -96.7605775)	7001 Fair Oaks Ave, Dallas, TX 75231, USA
230	Welsey Rankin Community Center	Nonprofit	3100 Crossman Ave	Dallas	TX	75212-3914	21-22 CitySquare ACTX				6.0		14		3100 Crossman Ave, Dallas, TX 75212-3914	(32.7796585, -96.84058669999999)	3100 Crossman Ave, Dallas, TX 75212, USA
231	YMCA	Nonprofit	6701 S Hampton Rd	Dallas	TX	75232-3320	21-22 CitySquare ACTX				4.0		12		6701 S Hampton Rd, Dallas, TX 75232-3320	(32.6659511, -96.8576401)	6701 S Hampton Rd, Dallas, TX 75232, USA
232	College Forward-Austin HQ	Nonprofit	1023 Springdale Rd, Bldg 15	Austin	TX	78721	21-22 College Forward ACTX						18		1023 Springdale Rd, Bldg 15, Austin, TX 78721	(30.267597, -97.69267149999999)	1023 Springdale Rd #15, Austin, TX 78721, USA
233	Akins High School	Education-K thru 12	10701 S 1st St	Austin	TX	78748	21-22 College Forward ACTX		2.0						10701 S 1st St, Austin, TX 78748	(30.14970839999999, -97.80025900000001)	10701 S 1st St, Austin, TX 78748, USA
234	Connally High School	Education-K thru 12	13212 N Lamar Boulevard	Austin	TX	78753	21-22 College Forward ACTX		3.0						13212 N Lamar Boulevard, Austin, TX 78753	(30.41821, -97.67634609999999)	13212 N Lamar Blvd, Austin, TX 78753, USA
235	Crockett High School	Education-K thru 12	5601 Menchaca Road	Austin	TX	78745	21-22 College Forward ACTX		5.0						5601 Menchaca Road, Austin, TX 78745	(30.2147211, -97.7974133)	5601 Menchaca Rd, Austin, TX 78745, USA
236	Del Valle High School	Education-K thru 12	5201 Ross Road	Del Valle	TX	78617	21-22 College Forward ACTX		3.0						5201 Ross Road, Del Valle, TX 78617	(30.18012419999999, -97.61226889999999)	5201 Ross Rd, Del Valle, TX 78617, USA
237	Elgin High School	Education-K thru 12	14000 County Line Road	Elgin	TX	78621	21-22 College Forward ACTX		1.0						14000 County Line Road, Elgin, TX 78621	(30.3673701, -97.40594030000001)	14000 County Line Rd, Elgin, TX 78621, USA
238	Hays High School	Education-K thru 12	4800 Jack C Hays Trail	Buda	TX	78610	21-22 College Forward ACTX		4.0						4800 Jack C Hays Trail, Buda, TX 78610	(30.0331292, -97.8887433)	4800 Jack C Hays Trail, Buda, TX 78610, USA
239	Juan Navarro High School	Education-K thru 12	1201 Payton Gin Road	Austin	TX	78758	21-22 College Forward ACTX		2.0						1201 Payton Gin Road, Austin, TX 78758	(30.3602094, -97.7083219)	1201 Payton Gin Rd, Austin, TX 78758, USA
240	Lehman High School	Education-K thru 12	1700 Lehman Road	Kyle	TX	78640	21-22 College Forward ACTX		2.0						1700 Lehman Road, Kyle, TX 78640	(29.9970781, -97.85091159999999)	1700 Lehman Rd, Kyle, TX 78640, USA
241	Lyndon B. Johnson High School	Education-K thru 12	7309 Lazy Creek Dr	Austin	TX	78724	21-22 College Forward ACTX		1.0						7309 Lazy Creek Dr, Austin, TX 78724	(30.313495, -97.6566673)	7309 Lazy Creek Dr, Austin, TX 78724, USA
242	Manor High School	Education-K thru 12	12700 Gregg Manor Road	Manor	TX	78653	21-22 College Forward ACTX		1.0						12700 Gregg Manor Road, Manor, TX 78653	(30.3529248, -97.563403)	12700 Gregg Manor Rd, Manor, TX 78653, USA
243	Stony Point High School	Education-K thru 12	1801 Tiger Trail	Round Rock	TX	78664	21-22 College Forward ACTX		1.0						1801 Tiger Trail, Round Rock, TX 78664	(30.5299986, -97.66142339999999)	1801 Tiger Trail, Round Rock, TX 78664, USA
244	Travis High School	Education-K thru 12	1211 East Oltorf Street	Austin	TX	78704	21-22 College Forward ACTX		3.0						1211 East Oltorf Street, Austin, TX 78704	(30.23203, -97.7450654)	1211 E Oltorf St, Austin, TX 78704, USA
245	Weiss High School	Education-K thru 12	5201 Wolf Pack Drive	Pflugerville	TX	78660	21-22 College Forward ACTX		2.0						5201 Wolf Pack Drive, Pflugerville, TX 78660	(30.4287196, -97.5653031)	5201 Wolf Pack Dr, Pflugerville, TX 78660, USA
246	Austin Community College	Education-College/University	6101 Highland Campus Dr	Austin	TX	78752	21-22 College Forward ACTX		8.0			2			6101 Highland Campus Dr, Austin, TX 78752	(30.3270093, -97.7144811)	6101 Highland Campus Dr, Austin, TX 78752, USA
247	Texas State University	Education-College/University	601 University Drive	San Marcos	TX	78666	21-22 College Forward ACTX		2.0			7			601 University Drive, San Marcos, TX 78666	(29.8888838, -97.9430682)	601 University Dr, San Marcos, TX 78666, USA
248	Bastrop County Emergency Food Bank	Nonprofit	806 Fayette St	Bastrop	TX	78602-3029	21-22 Equal Heart ACTX				2.0				806 Fayette St, Bastrop, TX 78602-3029	(30.1089417, -97.3132017)	806 Fayette St, Bastrop, TX 78602, USA
249	Bedford Arts	Nonprofit	2816 Central Dr, #140	Bedford	TX	76021-7887	21-22 Equal Heart ACTX				3.0		3		2816 Central Dr, #140, Bedford, TX 76021-7887	(32.8515113, -97.1296582)	2816 Central Dr # 140, Bedford, TX 76021, USA
250	Behind Every Door	Nonprofit	2824 Swiss Ave	Dallas	TX	75204-5956	21-22 Equal Heart ACTX						6		2824 Swiss Ave, Dallas, TX 75204-5956	(32.7881428, -96.7859182)	2824 Swiss Ave, Dallas, TX 75204, USA
251	Brazoria County Dream Center	Nonprofit	792 Brazoport Blvd	Clute	TX	77531-5712	21-22 Equal Heart ACTX			3	5.0				792 Brazoport Blvd, Clute, TX 77531-5712	(29.03265979999999, -95.39863799999999)	792 Brazosport Blvd N, Clute, TX 77531, USA
252	Catholic Charities of San Antonio 	Nonprofit	"1801 W Cesar Chavez Blvd
"	San Antonio	TX	78207-0100	21-22 Equal Heart ACTX				4.0		8		1801 W Cesar Chavez Blvd, San Antonio, TX 78207-0100	(29.4233518, -98.517652)	1801 W César E Chávez Blvd, San Antonio, TX 78207, USA
253	Cornerstone Baptist Church	Nonprofit	1819 Martin L King Jr Blvd	Dallas	TX	75215-2806	21-22 Equal Heart ACTX		2.0				4		1819 Martin L King Jr Blvd, Dallas, TX 75215-2806	(32.7630543, -96.7763066)	1819 Martin Luther King Jr Blvd, Dallas, TX 75215, USA
254	Duncanville Fieldhouse	Nonprofit	1700 S Main St	Duncanville	TX	75137-4402	21-22 Equal Heart ACTX						20		1700 S Main St, Duncanville, TX 75137-4402	(32.6279803, -96.90733)	1700 S Main St, Duncanville, TX 75137, USA
255	El Pasoans Fighting Hunger	Nonprofit	9541 Plaza Circle	El Paso	TX	79927-2005	21-22 Equal Heart ACTX				10.0	25			9541 Plaza Circle, El Paso, TX 79927-2005	(31.6703224, -106.3239897)	9541 Plaza Cir, El Paso, TX 79927, USA
256	Equal Heart	Nonprofit	2862 Nagle St	Dallas	TX	75220-4530	21-22 Equal Heart ACTX	6					11		2862 Nagle St, Dallas, TX 75220-4530	(32.863428, -96.8759395)	2862 Nagle St, Dallas, TX 75220, USA
257	High Plains Food Bank	Nonprofit	815 Ross St 	Amarillo	TX	79102-3431	21-22 Equal Heart ACTX					8			815 Ross St, Amarillo, TX 79102-3431	(35.2018188, -101.8146664)	815 Ross St, Amarillo, TX 79102, USA
258	Highland Church of Christ/Christian Ministries Food Bank	Nonprofit	701 Walnut Street	Abilene 	TX	79605-5227	21-22 Equal Heart ACTX				3.0		4		701 Walnut Street, Abilene, TX 79605-5227	(32.455868, -99.7307137)	701 Walnut St, Abilene, TX 79601, USA
259	Jubilee Park & Community Center	Nonprofit	907 Bank St	Dallas	TX	75223-2819	21-22 Equal Heart ACTX		5.0						907 Bank St, Dallas, TX 75223-2819	(32.7868166, -96.75968739999999)	907 Bank St, Dallas, TX 75223, USA
260	Kids-U	Nonprofit	8515 Greenville Ave, Ste N214	Dallas	TX	75243-7010	21-22 Equal Heart ACTX		5.0				12		8515 Greenville Ave, Ste N214, Dallas, TX 75243-7010	(32.894648, -96.7543342)	8515 Greenville Ave n214, Dallas, TX 75243, USA
261	Lullaby House 	Nonprofit	7441 Marvin D Love Fwy, Ste 201	Dallas	TX	75237-3770	21-22 Equal Heart ACTX			2	4.0				7441 Marvin D Love Fwy, Ste 201, Dallas, TX 75237-3770	(32.6576072, -96.8758557)	7441 Marvin D. Love Fwy #201, Dallas, TX 75237, USA
262	New Braunfels Food Bank	Nonprofit	1620 S. Seguin Ave	New Braunfels	TX	78130-3857	21-22 Equal Heart ACTX				4.0		10		1620 S. Seguin Ave, New Braunfels, TX 78130-3857	(29.68486129999999, -98.10847109999999)	1620 S Seguin Ave, New Braunfels, TX 78130, USA
263	North Texas Food Bank	Nonprofit	"3677 Mapleshade Ln
"	Plano	TX	"75075-5753
"	21-22 Equal Heart ACTX				2.0				3677 Mapleshade Ln, Plano, TX 75075-5753	(33.0041538, -96.7596038)	3677 Mapleshade Ln, Plano, TX 75075, USA
264	San Antonio Food Bank	Nonprofit	5200 Enrique M Barrera Pkwy	San Antonio	TX	78227-2209	21-22 Equal Heart ACTX				9.0	10			5200 Enrique M Barrera Pkwy, San Antonio, TX 78227-2209	(29.4177295, -98.5910907)	5200 Enrique M. Barrera Pkwy, San Antonio, TX 78227, USA
265	Trust for Public Land	Nonprofit	325 N Saint Paul St, Ste 2210	Dallas	TX	75201-3811	21-22 Equal Heart ACTX				2.0		4		325 N Saint Paul St, Ste 2210, Dallas, TX 75201-3811	(32.7831482, -96.7974978)	325 North St. Paul Street Suite 2210, Dallas, TX 75201, USA
266	Viola's House	Nonprofit	1819 Martin Luther King, Jr. Blvd	Dallas	TX	75215-2806	21-22 Equal Heart ACTX			2	4.0				1819 Martin Luther King, Jr. Blvd, Dallas, TX 75215-2806	(32.7630543, -96.7763066)	1819 Martin Luther King Jr Blvd, Dallas, TX 75215, USA
267	Caring Foundation	Nonprofit	1001 Lookout Road	Richardson	TX	75082-4144	21-22 Equal Heart ACTX				2.0				1001 Lookout Road, Richardson, TX 75082-4144	(32.987766, -96.7072429)	1001 E Lookout Dr, Richardson, TX 75082, USA
268	Inspired Vision	Nonprofit	2019 N Masters Dr 	Dallas	TX	75217-3148	21-22 Equal Heart ACTX						10		2019 N Masters Dr, Dallas, TX 75217-3148	(32.7474371, -96.64962969999999)	2019 N Masters Dr, Dallas, TX 75217, USA
269	Household of Faith	Nonprofit	5001 New York Ave	Arlington	TX	76018-4904	21-22 Equal Heart ACTX						4		5001 New York Ave, Arlington, TX 76018-4904	(32.6651168, -97.0757699)	5001 New York Ave, Arlington, TX 76018, USA
270	South Texas Juvenile Diabeties Association	Nonprofit	313 W Nolana Ave	McAllen	TX	78504 -2514	21-22 Equal Heart ACTX						3		313 W Nolana Ave, McAllen, TX 78504 -2514	(26.2378515, -98.2167599)	313 W Nolana Ave, McAllen, TX 78504, USA
271	Front Steps: Permanent Supportive Housing	Nonprofit	2211 S IH-35 Frontage Rd	Austin	TX	78741	21-22 Front Steps ACTX	1							2211 S IH-35 Frontage Rd, Austin, TX 78741	(30.2347332, -97.73950599999999)	2211 S I-35 Frontage Rd, Austin, TX 78741, USA
272	Front Steps: ARCH	Nonprofit	500 E 7th St	Austin	TX	78701	21-22 Front Steps ACTX	3							500 E 7th St, Austin, TX 78701	(30.2678638, -97.7375115)	500 E 7th St, Austin, TX 78701, USA
273	Caritas: Permanent Supportive Housing	Nonprofit	611 Neches St	Austin	TX	78701	21-22 Front Steps ACTX	2							611 Neches St, Austin, TX 78701	(30.2673586, -97.7377236)	611 Neches St, Austin, TX 78701, USA
274	Trinity Center	Nonprofit	304 E 7th St	Austin	TX	78701	21-22 Front Steps ACTX	1							304 E 7th St, Austin, TX 78701	(30.2684973, -97.7394765)	304 E 7th St, Austin, TX 78701, USA
275	The Other Ones Foundation: Workforce First	Nonprofit	780 S Hwy 183	Austin	TX	78741	21-22 Front Steps ACTX	1							780 S Hwy 183, Austin, TX 78741	(30.2303058, -97.68672459999999)	780 S Hwy 183, Austin, TX 78741, USA
276	The Other Ones Foundation: Camp Esperanza	Nonprofit	781 S Hwy 183	Austin	TX	78741	21-22 Front Steps ACTX	1							781 S Hwy 183, Austin, TX 78741	(30.2293565, -97.68305959999999)	781 S Hwy 183, Austin, TX 78741, USA
277	Sunrise Homeless Navigation Center	Nonprofit	4430 Manchaca Rd	Austin	TX	78745	21-22 Front Steps ACTX	1							4430 Manchaca Rd, Austin, TX 78745	(30.2287841, -97.78957779999999)	4430 Menchaca Rd, Austin, TX 78745, USA
278	SAFE: Kelly White Family Shelter	Nonprofit	1401 Grove Blvd	Austin	TX	78741	21-22 Front Steps ACTX	2							1401 Grove Blvd, Austin, TX 78741	(30.2324447, -97.70539509999999)	1401 Grove Blvd, Austin, TX 78741, USA
279	SAFE: Community Resource Advocacy	Nonprofit	1402 Grove Blvd	Austin	TX	78741	21-22 Front Steps ACTX	2							1402 Grove Blvd, Austin, TX 78741	(30.2300926, -97.70634229999999)	1402 Grove Blvd, Austin, TX 78741, USA
280	SAFE: Life Skills Program / Community Resource Advocacy 	Nonprofit	1403 Grove Blvd	Austin	TX	78741	21-22 Front Steps ACTX	1							1403 Grove Blvd, Austin, TX 78741	(30.2322352, -97.7051844)	1403 Grove Blvd, Austin, TX 78741, USA
281	Casa Marianella: Posada Esperanza	Nonprofit	821 Gunter St	Austin	TX	78702	21-22 Front Steps ACTX	4							821 Gunter St, Austin, TX 78702	(30.2598728, -97.7010052)	821 Gunter St, Austin, TX 78702, USA
282	Foundation Communities	Nonprofit	3000 S IH 35 Frontage Rd #300	Austin	TX	78704	21-22 Front Steps ACTX	1							3000 S IH 35 Frontage Rd #300, Austin, TX 78704	(30.2273054, -97.7461563)	3000 S I-35 Frontage Rd #300, Austin, TX 78704, USA
283	Goodwill Industries of Central Texas: Ready to Work/WERC	Nonprofit	6505 Burleson Rd	Austin	TX	78744	21-22 Front Steps ACTX	2							6505 Burleson Rd, Austin, TX 78744	(30.2035545, -97.7143394)	6505 Burleson Rd, Austin, TX 78744, USA
284	Goodwill Industries of Central Texas, Best Single Source Plus (BSS+)	Nonprofit	2001 Rosewood Ave	Austin	TX	78702	21-22 Front Steps ACTX	1							2001 Rosewood Ave, Austin, TX 78702	(30.2693339, -97.718312)	2001 Rosewood Ave, Austin, TX 78702, USA
285	Family Eldercare: Money Management	Nonprofit	1700 Rutherford Ln	Austin	TX	78754	21-22 Front Steps ACTX	2							1700 Rutherford Ln, Austin, TX 78754	(30.3343235, -97.6796533)	1700 Rutherford Ln, Austin, TX 78754, USA
286	LifeWorks: Residential Program	Nonprofit	3700 S 1st St	Austin	TX	78704	21-22 Front Steps ACTX	1							3700 S 1st St, Austin, TX 78704	(30.2291708, -97.76836879999999)	3700 S 1st St, Austin, TX 78704, USA
287	LifeWorks: Street Outreach	Nonprofit	835 N Pleasant Valley Rd	Austin	TX	78702	21-22 Front Steps ACTX	2							835 N Pleasant Valley Rd, Austin, TX 78702	(30.2644537, -97.70802499999999)	835 N Pleasant Valley Rd, Austin, TX 78702, USA
288	LifeWorks: Young Parents Program	Nonprofit	3700 S 1st St	Austin	TX	78704	21-22 Front Steps ACTX	1							3700 S 1st St, Austin, TX 78704	(30.2291708, -97.76836879999999)	3700 S 1st St, Austin, TX 78704, USA
289	LifeWorks: After Care Transitional Services / Diversion 	Nonprofit	835 N Pleasant Valley Rd	Austin	TX	78702	21-22 Front Steps ACTX	1							835 N Pleasant Valley Rd, Austin, TX 78702	(30.2644537, -97.70802499999999)	835 N Pleasant Valley Rd, Austin, TX 78702, USA
290	STEM Center of Excellence	Nonprofit	6010 Whispering Cedars Drive	Dallas	TX	75236-1314	21-22 Girl Scouts of Northeast Texas ACTX	2		12	16.0	20			6010 Whispering Cedars Drive, Dallas, TX 75236-1314	(32.687785, -96.9277917)	6010 Whispering Cedar Dr, Dallas, TX 75236, USA
291	JoAnn Fogg Service Center	Nonprofit	6001 Summerside Drive	Dallas	TX	75252-5334	21-22 Girl Scouts of Northeast Texas ACTX			6		1			6001 Summerside Drive, Dallas, TX 75252-5334	(32.9904701, -96.8035349)	6001 Summerside Dr, Dallas, TX 75252, USA
292	Southern Sector Service Center	Nonprofit	8705 S. Hampton Road	Dallas	TX	75232-5116	21-22 Girl Scouts of Northeast Texas ACTX	2		14					8705 S. Hampton Road, Dallas, TX 75232-5116	(32.6419975, -96.85776829999999)	8705 S Hampton Rd, Dallas, TX 75232, USA
293	St. Luke United Methodist Church	Nonprofit	1306 West Lynn St	Austin	TX	78703-3956	21-22 Imagine Art ACTX	7		3					1306 West Lynn St, Austin, TX 78703-3956	(30.2813519, -97.75892340000001)	1306 W Lynn St, Austin, TX 78703, USA
294	The Austin Harmony Project	Nonprofit	1806 W. Stassney Ln, Ste. 106	Austin	TX	78703-3956	21-22 Imagine Art ACTX	1		1					1806 W. Stassney Ln, Ste. 106, Austin, TX 78703-3956	(30.2148077, -97.7954812)	1806 W Stassney Ln # 106, Austin, TX 78745, USA
295	The ARC of the Capitol Area	Nonprofit	4902 Grover Ave	Austin	TX	78703-3956	21-22 Imagine Art ACTX	3		1					4902 Grover Ave, Austin, TX 78703-3956	(30.3192419, -97.7368537)	4902 Grover Ave, Austin, TX 78756, USA
296	Foundation Communities	Nonprofit	2600 W Stassney Ln	Austin	TX	78745-3401	21-22 Literacy Coalition of Central Texas ACTX	3							2600 W Stassney Ln, Austin, TX 78745-3401	(30.2192123, -97.806248)	2600 W Stassney Ln, Austin, TX 78745, USA
297	Housing Authority of Travis County	Nonprofit	502 E Highland Mall Blvd	Austin	TX	78752-3722	21-22 Literacy Coalition of Central Texas ACTX	1							502 E Highland Mall Blvd, Austin, TX 78752-3722	(30.3283147, -97.70946719999999)	502 E Highland Mall Blvd, Austin, TX 78752, USA
298	Housing Authority of the City of Austin	Nonprofit	1124 S Ih Frontage Rd	Austin	TX	78704-2614	21-22 Literacy Coalition of Central Texas ACTX	2							1124 S Ih Frontage Rd, Austin, TX 78704-2614	(30.2457495, -97.8079243)	Frontage Rd, Austin, TX, USA
299	Goodwill Community Center	Nonprofit	1015 Norwood Park Blvd	Austin	TX	78753-6608	21-22 Literacy Coalition of Central Texas ACTX	3							1015 Norwood Park Blvd, Austin, TX 78753-6608	(30.33925349999999, -97.693913)	1015 Norwood Park Blvd, Austin, TX 78753, USA
300	iACT	Nonprofit	2921 E 17th Street, Bldg D, Ste 3	Austin	TX	78702-1509	21-22 Literacy Coalition of Central Texas ACTX	1							2921 E 17th Street, Bldg D, Ste 3, Austin, TX 78702-1509	(30.278543, -97.7100801)	2921 E 17th St d 3, Austin, TX 78702, USA
301	Lifeworks	Nonprofit	3700 South 1st Street	Austin	TX	78704-7046	21-22 Literacy Coalition of Central Texas ACTX	2							3700 South 1st Street, Austin, TX 78704-7046	(30.2291708, -97.76836879999999)	3700 S 1st St, Austin, TX 78704, USA
302	Casa Marianella	Nonprofit	821 Gunter St	Austin	TX	 78702-4020	21-22 Literacy Coalition of Central Texas ACTX	3							821 Gunter St, Austin, TX 78702-4020	(30.2598728, -97.7010052)	821 Gunter St, Austin, TX 78702, USA
303	Literacy Coalition of Central Texas 	Nonprofit	724 Eberhart Lane	Austin	TX	78745-3938	21-22 Literacy Coalition of Central Texas ACTX	9							724 Eberhart Lane, Austin, TX 78745-3938	(30.2015311, -97.7864141)	724 Eberhart Ln, Austin, TX 78745, USA
304	Todos Juntos	Nonprofit	409 W Ben White Blvd	Austin	TX	78704-7027	21-22 Literacy Coalition of Central Texas ACTX	1							409 W Ben White Blvd, Austin, TX 78704-7027	(30.2244523, -97.76785939999999)	409 W Ben White Blvd, Austin, TX 78704, USA
305	Community Action	Nonprofit	101 Uhland Road, Suite 107	San Marcos	TX	78667-0748	21-22 Literacy Coalition of Central Texas ACTX	1							101 Uhland Road, Suite 107, San Marcos, TX 78667-0748	(29.8991597, -97.9173664)	101 Uhland Rd Ste 107, San Marcos, TX 78666, USA
306	El Buen Samaritano	Nonprofit	7000 Woodhue Dr.	Austin	TX	78745-5454	21-22 Literacy Coalition of Central Texas ACTX	1							7000 Woodhue Dr., Austin, TX 78745-5454	(30.1992941, -97.8021703)	7000 Woodhue Dr, Austin, TX 78745, USA
307	Goodwill Excel Center	Nonprofit	1015 Norwood Park Blvd	Austin	TX	78753-6608	21-22 Literacy Coalition of Central Texas ACTX	4							1015 Norwood Park Blvd, Austin, TX 78753-6608	(30.33925349999999, -97.693913)	1015 Norwood Park Blvd, Austin, TX 78753, USA
308	The Alliance 	Nonprofit	6440 Hillcroft St 	Houston	TX	77081-3104	21-22 Literacy Coalition of Central Texas ACTX	3							6440 Hillcroft St, Houston, TX 77081-3104	(29.7110163, -95.4940041)	6440 Hillcroft St, Houston, TX 77081, USA
309	Baker Ripley	Nonprofit	6001 Gulf Freeway Bldg C3	Houston	TX	77023-5423	21-22 Literacy Coalition of Central Texas ACTX	3							6001 Gulf Freeway Bldg C3, Houston, TX 77023-5423	(29.7160153, -95.3118331)	6001 Gulf Fwy c3, Houston, TX 77023, USA
310	Chinese Community Centers	Nonprofit	9800 Town Park Dr	Houston	TX	77036-2316	21-22 Literacy Coalition of Central Texas ACTX	1							9800 Town Park Dr, Houston, TX 77036-2316	(29.7126827, -95.55437529999999)	9800 Town Park Dr, Houston, TX 77036, USA
311	Adult Education Center	Nonprofit	2246 Washington St	Pearland	TX	77072-4925	21-22 Literacy Coalition of Central Texas ACTX	2							2246 Washington St, Pearland, TX 77072-4925	(29.5657322, -95.2897704)	2246 Washington St, Pearland, TX 77581, USA
312	SEDES 	Nonprofit	7037 Capital Street E 221	Houston	TX	77011-4643	21-22 Literacy Coalition of Central Texas ACTX	2							7037 Capital Street E 221, Houston, TX 77011-4643	(29.7345052, -95.30102099999999)	7037 Capitol St #221, Houston, TX 77011, USA
313	YMCA International Services	Nonprofit	6300 Westpark Dr #600	Houston	TX	77057-2202	21-22 Literacy Coalition of Central Texas ACTX	2							6300 Westpark Dr #600, Houston, TX 77057-2202	(29.7241954, -95.49670780000001)	6300 Westpark Dr #600, Houston, TX 77057, USA
314	VOATX	Nonprofit	4808 Yale St	Conroe	TX	77304-2202	21-22 Literacy Coalition of Central Texas ACTX	2							4808 Yale St, Conroe, TX 77304-2202	(29.8365921, -95.4023495)	4808 Yale St, Houston, TX 77018, USA
315	Memorial Assistance Ministries 	Nonprofit	1625 Blalock Rd	Houston	TX	77080-7320	21-22 Literacy Coalition of Central Texas ACTX	2							1625 Blalock Rd, Houston, TX 77080-7320	(29.800757, -95.5250683)	1625 Blalock Rd, Houston, TX 77080, USA
316	Legacy Southwest Clinic	Nonprofit	6441 High Star Dr	Houston	TX	 77074-5005	21-22 Legacy Community Health Services ACTX	4		0		0			6441 High Star Dr, Houston, TX 77074-5005	(29.7103852, -95.49560609999999)	6441 High Star Dr, Houston, TX 77074, USA
317	Lecay Montrose Clinic	Nonprofit	1415 California St	Houston	TX	77006-2602	21-22 Legacy Community Health Services ACTX	3		0		0			1415 California St, Houston, TX 77006-2602	(29.7450095, -95.39403689999999)	1415 California St, Houston, TX 77006, USA
318	Legacy Fifth Ward Lyons Clinic	Nonprofit	3811 Lyons Ave. 	Houston	TX	77020-8306	21-22 Legacy Community Health Services ACTX	4		5		5			3811 Lyons Ave., Houston, TX 77020-8306	(29.7762137, -95.3315523)	3811 Lyons Ave, Houston, TX 77020, USA
319	Legacy Mapleridge Clinic	Nonprofit	6550 Mapleridge St Ste 106	Houston	TX	77081-4629	21-22 Legacy Community Health Services ACTX	3		5		5			6550 Mapleridge St Ste 106, Houston, TX 77081-4629	(29.7098313, -95.47475209999999)	6550 Mapleridge St #106, Houston, TX 77081, USA
320	Legacy San Jacinto Clinic	Nonprofit	4301 Garth Rd Ste 302	Baytown	TX	77521-3158	21-22 Legacy Community Health Services ACTX	2		5		5			4301 Garth Rd Ste 302, Baytown, TX 77521-3158	(29.7682066, -94.9799594)	4301 Garth Rd Ste 302, Baytown, TX 77521, USA
321	Legacy Santa Clara Clinic	Nonprofit	5616 Lawndale St Ste A108	Houston	TX	77023-3821	21-22 Legacy Community Health Services ACTX	4		5		5			5616 Lawndale St Ste A108, Houston, TX 77023-3821	(29.7261181, -95.3167038)	5616 Lawndale St a108, Houston, TX 77023, USA
322	Akins High School	Education-K thru 12	10701 S 1st St	AUSTIN	TX	78748-3807	21-22 College Advising Corps ACTX	1							10701 S 1st St, AUSTIN, TX 78748-3807	(30.14970839999999, -97.80025900000001)	10701 S 1st St, Austin, TX 78748, USA
323	Aldine High School	Education-K thru 12	11101 Airline Dr	HOUSTON	TX	77037-1113	21-22 College Advising Corps ACTX	1							11101 Airline Dr, HOUSTON, TX 77037-1113	(29.9167419, -95.4075359)	11101 Airline Dr, Houston, TX 77037, USA
324	B.F. Terry High School	Education-K thru 12	5500 Ave N	ROSENBERG	TX	77471-5652	21-22 College Advising Corps ACTX	1							5500 Ave N, ROSENBERG, TX 77471-5652	(29.5441558, -95.7729437)	5500 Avenue N, Rosenberg, TX 77471, USA
325	Blanson CTE High School	Education-K thru 12	311 W Rd	HOUSTON	TX	77038-2603	21-22 College Advising Corps ACTX	1							311 W Rd, HOUSTON, TX 77038-2603	(29.9147724, -95.4201587)	311 West Road, Houston, TX 77038, USA
326	Brackenridge High School	Education-K thru 12	400 Eagleland St	SAN ANTONIO	TX	78210-1230	21-22 College Advising Corps ACTX	1							400 Eagleland St, SAN ANTONIO, TX 78210-1230	(29.404712, -98.4903348)	400 Eagleland Dr, San Antonio, TX 78210, USA
327	Burbank High School	Education-K thru 12	1002 Edwards St	SAN ANTONIO	TX	78204-2621	21-22 College Advising Corps ACTX	1							1002 Edwards St, SAN ANTONIO, TX 78204-2621	(29.3928838, -98.5092028)	1002 Edwards, San Antonio, TX 78204, USA
328	C.E. King High School	Education-K thru 12	11433 E Sam Houston Pkwy N	HOUSTON	TX	77044-0002	21-22 College Advising Corps ACTX	2							11433 E Sam Houston Pkwy N, HOUSTON, TX 77044-0002	(29.8765405, -95.1963583)	11433 East Sam Houston Pkwy N, Houston, TX 77044, USA
329	Cleveland High School	Education-K thru 12	1600 E Houston St	CLEVELAND	TX	77327-4743	21-22 College Advising Corps ACTX	1							1600 E Houston St, CLEVELAND, TX 77327-4743	(30.3379927, -95.06848989999999)	1600 E Houston St, Cleveland, TX 77327, USA
330	Cypress Springs High School	Education-K thru 12	7909 Fry Rd	CYPRESS	TX	77433-3240	21-22 College Advising Corps ACTX	1							7909 Fry Rd, CYPRESS, TX 77433-3240	(29.8936065, -95.7211179)	7909 Fry Rd, Cypress, TX 77433, USA
331	Davis High School	Education-K thru 12	12525 Ella Blvd	HOUSTON	TX	77067-4253	21-22 College Advising Corps ACTX	1							12525 Ella Blvd, HOUSTON, TX 77067-4253	(29.9544366, -95.4329061)	12525 Ella Blvd, Houston, TX 77067, USA
332	Del Valle High School	Education-K thru 12	5201 Ross Rd	DEL VALLE	TX	78617-3202	21-22 College Advising Corps ACTX	1							5201 Ross Rd, DEL VALLE, TX 78617-3202	(30.18012419999999, -97.61226889999999)	5201 Ross Rd, Del Valle, TX 78617, USA
333	DeSoto High School	Education-K thru 12	600 Eagle Dr	DESOTO	TX	75115-6006	21-22 College Advising Corps ACTX	1							600 Eagle Dr, DESOTO, TX 75115-6006	(32.5805916, -96.8706184)	600 Eagle Dr, DeSoto, TX 75115, USA
334	Dubiski High School	Education-K thru 12	2990 S Hwy 161	GRAND PRAIRIE	TX	75052-7247	21-22 College Advising Corps ACTX	1							2990 S Hwy 161, GRAND PRAIRIE, TX 75052-7247	(32.7005095, -97.0233828)	2990 State Hwy 161, Grand Prairie, TX 75052, USA
335	Duncanville High School	Education-K thru 12	900 W Camp Wisdom	DUNCANVILLE	TX	75116-3021	21-22 College Advising Corps ACTX	2							900 W Camp Wisdom, DUNCANVILLE, TX 75116-3021	(32.6591566, -96.9293521)	900 W Camp Wisdom Rd, Duncanville, TX 75116, USA
336	Edgewood Fine Arts STEM Academy 	Education-K thru 12	607 SW 34th St	SAN ANTONIO	TX	78237	21-22 College Advising Corps ACTX	1							607 SW 34th St, SAN ANTONIO, TX 78237	(29.4217888, -98.56926879999999)	607 SW 34th St, San Antonio, TX 78237, USA
337	Edison High School 	Education-K thru 12	701 Santa Monica St	SAN ANTONIO	TX	78212-1828	21-22 College Advising Corps ACTX	1							701 Santa Monica St, SAN ANTONIO, TX 78212-1828	(29.4717598, -98.50650089999999)	701 Santa Monica St, San Antonio, TX 78212, USA
338	Eisenhower High School	Education-K thru 12	7922 Antoine Dr	HOUSTON	TX	77088-4312	21-22 College Advising Corps ACTX	1							7922 Antoine Dr, HOUSTON, TX 77088-4312	(29.8820641, -95.47073639999999)	7922 Antoine Dr, Houston, TX 77088, USA
339	Elsik High School	Education-K thru 12	12601 High Star	HOUSTON	TX	77072-1117	21-22 College Advising Corps ACTX	1							12601 High Star, HOUSTON, TX 77072-1117	(29.7095305, -95.6035823)	12601 High Star Dr, Houston, TX 77072, USA
340	El Dorado High School	Education-K thru 12	205 W Fields Ave	ELDORADO	TX	76936-2142	21-22 College Advising Corps ACTX	1							205 W Fields Ave, ELDORADO, TX 76936-2142	(30.8633019, -100.6007423)	205 W Fields Ave, Eldorado, TX 76936, USA
341	Fox Tech High School	Education-K thru 12	637 N Main Ave	SAN ANTONIO	TX	78205-1203	21-22 College Advising Corps ACTX	1							637 N Main Ave, SAN ANTONIO, TX 78205-1203	(29.432498, -98.494968)	637 N Main Ave, San Antonio, TX 78205, USA
342	Grand Prairie High School	Education-K thru 12	101 Gopher Blvd	GRAND PRAIRIE	TX	75050-3740	21-22 College Advising Corps ACTX	1							101 Gopher Blvd, GRAND PRAIRIE, TX 75050-3740	(32.7544694, -97.00334079999999)	101 Gopher Blvd, Grand Prairie, TX 75051, USA
343	Hanna High School	Education-K thru 12	2615 Price Rd	BROWNSVILLE	TX	78521-2430	21-22 College Advising Corps ACTX	1							2615 Price Rd, BROWNSVILLE, TX 78521-2430	(25.9400298, -97.48061829999999)	2615 E Price Rd, Brownsville, TX 78521, USA
344	Harlandale High School	Education-K thru 12	114 E Gerald Ave	SAN ANTONIO	TX	78214-2119	21-22 College Advising Corps ACTX	1							114 E Gerald Ave, SAN ANTONIO, TX 78214-2119	(29.3647553, -98.50277)	114 E Gerald Ave, San Antonio, TX 78214, USA
345	Harlingen South High School	Education-K thru 12	1701 Dixieland Rd	HARLINGEN	TX	78552-3321	21-22 College Advising Corps ACTX	1							1701 Dixieland Rd, HARLINGEN, TX 78552-3321	(26.1767406, -97.7190972)	1701 Dixieland Rd, Harlingen, TX 78552, USA
346	Hastings High School	Education-K thru 12	4410 Cook Rd	HOUSTON	TX	77072-1105	21-22 College Advising Corps ACTX	1							4410 Cook Rd, HOUSTON, TX 77072-1105	(29.70978, -95.5976716)	4410 Cook Rd, Houston, TX 77072, USA
347	Hidalgo High School	Education-K thru 12	910 E Pirate Dr	HIDALGO	TX	78557-4200	21-22 College Advising Corps ACTX	1							910 E Pirate Dr, HIDALGO, TX 78557-4200	(26.0968733, -98.2533248)	910 E Pirate Dr, Hidalgo, TX 78557, USA
348	Highlands High School	Education-K thru 12	3118 Elgin Ave	SAN ANTONIO	TX	78210-5536	21-22 College Advising Corps ACTX	1							3118 Elgin Ave, SAN ANTONIO, TX 78210-5536	(29.3882158, -98.44258549999999)	3118 Elgin Ave, San Antonio, TX 78210, USA
349	Horn High School	Education-K thru 12	3300 E Cartwright Rd	MESQUITE	TX	75181-2530	21-22 College Advising Corps ACTX	1							3300 E Cartwright Rd, MESQUITE, TX 75181-2530	(32.7312777, -96.55732169999999)	3300 E Cartwright Rd, Mesquite, TX 75181, USA
350	Jefferson High School	Education-K thru 12	723 Donaldson Ave	SAN ANTONIO	TX	78201-4852	21-22 College Advising Corps ACTX	1							723 Donaldson Ave, SAN ANTONIO, TX 78201-4852	(29.4659605, -98.5399056)	723 Donaldson Ave, San Antonio, TX 78201, USA
351	Juarez Lincoln High School	Education-K thru 12	7801 W Mile 7 Rd	MISSION	TX	78574-6691	21-22 College Advising Corps ACTX	1							7801 W Mile 7 Rd, MISSION, TX 78574-6691	(26.3270587, -98.39098589999999)	7801 W Mile 7 Rd, Mission, TX 78574, USA
352	Katy High School	Education-K thru 12	6331 Hwy Blvd	KATY	TX	77494-1107	21-22 College Advising Corps ACTX	1							6331 Hwy Blvd, KATY, TX 77494-1107	(29.7848552, -95.8322623)	6331 Hwy Blvd, Katy, TX 77494, USA
353	Kennedy High School	Education-K thru 12	1922 S General Mcmullen Dr	SAN ANTONIO	TX	78226-1129	21-22 College Advising Corps ACTX	1							1922 S General Mcmullen Dr, SAN ANTONIO, TX 78226-1129	(29.39556189999999, -98.55725179999999)	1922 S General McMullen Dr, San Antonio, TX 78226, USA
354	KIPP Austin Collegiate	Education-K thru 12	8004 Cameron Rd	AUSTIN	TX	78754-3808	21-22 College Advising Corps ACTX	1							8004 Cameron Rd, AUSTIN, TX 78754-3808	(30.3359989, -97.6861833)	8004 Cameron Rd, Austin, TX 78754, USA
355	KIPP Generations Collegiate	Education-K thru 12	500 Tidwell Rd	HOUSTON	TX	77022-2122	21-22 College Advising Corps ACTX	1							500 Tidwell Rd, HOUSTON, TX 77022-2122	(29.8438537, -95.3694197)	500 Tidwell Rd, Houston, TX 77022, USA
356	KIPP Northeast College Prep	Education-K thru 12	9680 Mesa Dr	HOUSTON	TX	77078-3015	21-22 College Advising Corps ACTX	1							9680 Mesa Dr, HOUSTON, TX 77078-3015	(29.8526753, -95.2614449)	9680 Mesa Dr, Houston, TX 77078, USA
357	KIPP Sunnyside High School	Education-K thru 12	11000 Scott St	HOUSTON	TX	77047-1500	21-22 College Advising Corps ACTX	1							11000 Scott St, HOUSTON, TX 77047-1500	(29.6380746, -95.3705236)	11000 Scott St, Houston, TX 77047, USA
358	Klein Forest High School	Education-K thru 12	11400 Misty Vly	HOUSTON	TX	77066-3402	21-22 College Advising Corps ACTX	1							11400 Misty Vly, HOUSTON, TX 77066-3402	(29.9671737, -95.4994121)	11400 Misty Valley Dr, Houston, TX 77066, USA
359	La Joya High School	Education-K thru 12	7801 W Mile 7 Rd	Mission	TX	78574	21-22 College Advising Corps ACTX	1							7801 W Mile 7 Rd, Mission, TX 78574	(26.3270587, -98.39098589999999)	7801 W Mile 7 Rd, Mission, TX 78574, USA
360	Lamar Consolidated High School	Education-K thru 12	4606 Mustang Ave	ROSENBERG	TX	77471-2121	21-22 College Advising Corps ACTX	1							4606 Mustang Ave, ROSENBERG, TX 77471-2121	(29.5600063, -95.7780485)	4606 Mustang Ave, Rosenberg, TX 77471, USA
361	Lancaster High School 	Education-K thru 12	200 E Wintergreen Rd	LANCASTER	TX	75134-3477	21-22 College Advising Corps ACTX	1							200 E Wintergreen Rd, LANCASTER, TX 75134-3477	(32.6170917, -96.7617787)	200 E Wintergreen Rd, Lancaster, TX 75134, USA
362	Lanier High School	Education-K thru 12	1514 W Cesar E Chavez Blvd	SAN ANTONIO	TX	78207-3936	21-22 College Advising Corps ACTX	1							1514 W Cesar E Chavez Blvd, SAN ANTONIO, TX 78207-3936	(29.4223059, -98.5172595)	1514 W César E Chávez Blvd, San Antonio, TX 78207, USA
363	Legacy of Educational Excellence High School	Education-K thru 12	1400 Jackson Keller Rd	SAN ANTONIO	TX	78213-3206	21-22 College Advising Corps ACTX	1							1400 Jackson Keller Rd, SAN ANTONIO, TX 78213-3206	(29.5065173, -98.51512149999999)	1400 Jackson Keller Rd, San Antonio, TX 78213, USA
364	Lopez High School	Education-K thru 12	3205 S Dakota Ave	BROWNSVILLE	TX	78521-6245	21-22 College Advising Corps ACTX	1							3205 S Dakota Ave, BROWNSVILLE, TX 78521-6245	(25.8819027, -97.42123629999999)	3205 S Dakota Ave, Brownsville, TX 78521, USA
365	MacArthur High School	Education-K thru 12	2923 Macarthur View	SAN ANTONIO	TX	78217-4505	21-22 College Advising Corps ACTX	1							2923 Macarthur View, SAN ANTONIO, TX 78217-4505	(29.5299611, -98.4410429)	2923 MacArthur View, San Antonio, TX 78217, USA
366	MacArthur High School (Houston)	Education-K thru 12	4400 Aldine Mail Rt	HOUSTON	TX	77039-5913	21-22 College Advising Corps ACTX	1							4400 Aldine Mail Rt, HOUSTON, TX 77039-5913	(29.9016011, -95.3277334)	4400 Aldine Mail Rte Rd, Houston, TX 77039, USA
367	Madison High School	Education-K thru 12	5005 Stahl Rd	SAN ANTONIO	TX	78247-1710	21-22 College Advising Corps ACTX	1							5005 Stahl Rd, SAN ANTONIO, TX 78247-1710	(29.5848083, -98.3920639)	5005 Stahl Rd, San Antonio, TX 78247, USA
368	Mayde Creek High School	Education-K thru 12	19202 Groschke Rd	HOUSTON	TX	77084-5600	21-22 College Advising Corps ACTX	1							19202 Groschke Rd, HOUSTON, TX 77084-5600	(29.8062573, -95.6952733)	19202 Groeschke Rd, Houston, TX 77084, USA
369	McCollum High School	Education-K thru 12	500 W Formosa Blvd	SAN ANTONIO	TX	78221-2732	21-22 College Advising Corps ACTX	1							500 W Formosa Blvd, SAN ANTONIO, TX 78221-2732	(29.342997, -98.5121192)	500 W Formosa Blvd, San Antonio, TX 78221, USA
370	Memorial High School	Education-K thru 12	1227 Memorial St	SAN ANTONIO	TX	78228-6155	21-22 College Advising Corps ACTX	1							1227 Memorial St, SAN ANTONIO, TX 78228-6155	(29.446713, -98.5644188)	1227 Memorial St, San Antonio, TX 78228, USA
371	Mesquite High School	Education-K thru 12	300 E Davis St	MESQUITE	TX	75149-4610	21-22 College Advising Corps ACTX	1							300 E Davis St, MESQUITE, TX 75149-4610	(32.7650446, -96.5950074)	300 E Davis St, Mesquite, TX 75149, USA
372	Morton Ranch High School	Education-K thru 12	21000 Franz Rd	KATY	TX	77449-5729	21-22 College Advising Corps ACTX	1							21000 Franz Rd, KATY, TX 77449-5729	(29.803736, -95.7452867)	21000 Franz Rd, Katy, TX 77449, USA
373	Navarro Early College High School	Education-K thru 12	1201 Peyton Gin Rd	AUSTIN	TX	78758-6616	21-22 College Advising Corps ACTX	1							1201 Peyton Gin Rd, AUSTIN, TX 78758-6616	(30.3602094, -97.7083219)	1201 Payton Gin Rd, Austin, TX 78758, USA
374	Navasota High School	Education-K thru 12	9238 Hwy 90	NAVASOTA	TX	77868-4776	21-22 College Advising Corps ACTX	1							9238 Hwy 90, NAVASOTA, TX 77868-4776	(30.2817636, -82.9512785)	9238 US-90, Live Oak, FL 32060, USA
375	Nimitz High School	Education-K thru 12	2005 W W Thorne Dr	HOUSTON	TX	77073-3301	21-22 College Advising Corps ACTX	1							2005 W W Thorne Dr, HOUSTON, TX 77073-3301	(30.0061143, -95.38761980000001)	2005 W W Thorne Dr, Houston, TX 77073, USA
376	North Garland High School	Education-K thru 12	2109 W Buckingham Rd	GARLAND	TX	75042-5031	21-22 College Advising Corps ACTX	1							2109 W Buckingham Rd, GARLAND, TX 75042-5031	(32.9313904, -96.6593018)	2109 W Buckingham Rd, Garland, TX 75044, USA
377	North Mesquite High School	Education-K thru 12	18201 Lbj Fwy	MESQUITE	TX	75150-4124	21-22 College Advising Corps ACTX	1							18201 Lbj Fwy, MESQUITE, TX 75150-4124	(32.8086944, -96.6294921)	18201 Lyndon B Johnson Fwy, Mesquite, TX 75150, USA
378	Pace High School	Education-K thru 12	314 W Los Ebanos Blvd	BROWNSVILLE	TX	78520-4628	21-22 College Advising Corps ACTX	1							314 W Los Ebanos Blvd, BROWNSVILLE, TX 78520-4628	(25.9355264, -97.52489349999999)	314 W Los Ebanos Blvd, Brownsville, TX 78520, USA
379	Palmview High School	Education-K thru 12	3901 N La Homa Rd	MISSION	TX	78574-5752	21-22 College Advising Corps ACTX	1							3901 N La Homa Rd, MISSION, TX 78574-5752	(26.2587712, -98.3577669)	3901 N La Homa Rd, Mission, TX 78574, USA
380	Pasadena High School	Education-K thru 12	206 S Shaver	PASADENA	TX	77506-2016	21-22 College Advising Corps ACTX	1							206 S Shaver, PASADENA, TX 77506-2016	(29.7089633, -95.2108564)	206 Shaver St, Pasadena, TX 77506, USA
381	Pasadena Memorial High School	Education-K thru 12	4410 Crenshaw	PASADENA	TX	77504-3629	21-22 College Advising Corps ACTX	1							4410 Crenshaw, PASADENA, TX 77504-3629	(29.6384854, -95.1746532)	4410 Crenshaw Rd, Pasadena, TX 77504, USA
382	Porter High School	Education-K thru 12	3500 International Blvd	BROWNSVILLE	TX	78521-3230	21-22 College Advising Corps ACTX	1							3500 International Blvd, BROWNSVILLE, TX 78521-3230	(25.913452, -97.4713967)	3500 International Blvd, Brownsville, TX 78521, USA
383	Poteet High School	Education-K thru 12	3300 Poteet Dr	MESQUITE	TX	75150-4760	21-22 College Advising Corps ACTX	1							3300 Poteet Dr, MESQUITE, TX 75150-4760	(32.8072124, -96.6093763)	3300 Poteet Dr, Mesquite, TX 75150, USA
384	PSJA Memorial High School	Education-K thru 12	800 S Alamo Rd	ALAMO	TX	78516-9516	21-22 College Advising Corps ACTX	1							800 S Alamo Rd, ALAMO, TX 78516-9516	(26.173555, -98.1231036)	800 S Alamo Rd, Alamo, TX 78516, USA
385	PSJA North Early College High School	Education-K thru 12	500 E Nolana Loop	PHARR	TX	78577-5840	21-22 College Advising Corps ACTX	1							500 E Nolana Loop, PHARR, TX 78577-5840	(26.2288384, -98.172782)	500 E Nolana Loop, Pharr, TX 78577, USA
386	Richardson High School	Education-K thru 12	1250 W Belt Line Rd	RICHARDSON	TX	75080-5850	21-22 College Advising Corps ACTX	1							1250 W Belt Line Rd, RICHARDSON, TX 75080-5850	(32.9528522, -96.7622806)	1250 W Belt Line Rd, Richardson, TX 75080, USA
387	Rivera High School	Education-K thru 12	6955 FM 802	BROWNSVILLE	TX	78526-6920	21-22 College Advising Corps ACTX	1							6955 FM 802, BROWNSVILLE, TX 78526-6920	(25.9396561, -97.41633630000001)	6955 Ruben M Torres Blvd, Brownsville, TX 78521, USA
388	Roosevelt High School	Education-K thru 12	5110 Walzem Rd	SAN ANTONIO	TX	78218-2119	21-22 College Advising Corps ACTX	2							5110 Walzem Rd, SAN ANTONIO, TX 78218-2119	(29.50790499999999, -98.39024189999999)	5110 Walzem Rd, San Antonio, TX 78218, USA
389	Rudder High School	Education-K thru 12	3251 Austins Colony Pkwy	BRYAN	TX	77808-2276	21-22 College Advising Corps ACTX	1							3251 Austins Colony Pkwy, BRYAN, TX 77808-2276	(30.6879605, -96.3417178)	3251 Austins Colony Pkwy, Bryan, TX 77808, USA
390	Sam Houston High School	Education-K thru 12	4635 E Houston St	SAN ANTONIO	TX	78220-1717	21-22 College Advising Corps ACTX	1							4635 E Houston St, SAN ANTONIO, TX 78220-1717	(29.4260283, -98.3999197)	4635 E Houston St, San Antonio, TX 78220, USA
391	Sam Rayburn High School	Education-K thru 12	2121 Cherrybrook Ln	PASADENA	TX	77502-4101	21-22 College Advising Corps ACTX	1							2121 Cherrybrook Ln, PASADENA, TX 77502-4101	(29.6777647, -95.1821616)	2121 Cherry Brook Ln, Pasadena, TX 77502, USA
392	San Marcos High School	Education-K thru 12	2601 Rattler Rd	SAN MARCOS	TX	78666-6453	21-22 College Advising Corps ACTX	1							2601 Rattler Rd, SAN MARCOS, TX 78666-6453	(29.8223592, -97.9495815)	2601 Rattler Rd, San Marcos, TX 78666, USA
393	Somerset High School	Education-K thru 12	7650 S Loop 1604 W	SOMERSET	TX	78069	21-22 College Advising Corps ACTX	1							7650 S Loop 1604 W, SOMERSET, TX 78069	(29.2285185, -98.6505193)	7650 S Loop 1604 W, Somerset, TX 78069, USA
394	South Garland High School	Education-K thru 12	600 Colonel Dr	GARLAND	TX	75043-2302	21-22 College Advising Corps ACTX	1							600 Colonel Dr, GARLAND, TX 75043-2302	(32.8722564, -96.62039329999999)	600 Colonel Dr, Garland, TX 75043, USA
395	South Grand Prairie High School	Education-K thru 12	301 W Warrior Trl	GRAND PRAIRIE	TX	75052-5718	21-22 College Advising Corps ACTX	1							301 W Warrior Trl, GRAND PRAIRIE, TX 75052-5718	(32.6953413, -97.0043204)	301 W Warrior Trail, Grand Prairie, TX 75052, USA
396	South Houston High School	Education-K thru 12	3820 S Shaver	SO HOUSTON	TX	77587-5206	21-22 College Advising Corps ACTX	1							3820 S Shaver, SO HOUSTON, TX 77587-5206	(29.6527505, -95.2116617)	3820 Shaver St, South Houston, TX 77587, USA
397	Southwest High School 	Education-K thru 12	11690 Dragon Ln	SAN ANTONIO	TX	78252-2647	21-22 College Advising Corps ACTX	1							11690 Dragon Ln, SAN ANTONIO, TX 78252-2647	(29.307749, -98.6742427)	11690 Dragon Ln, San Antonio, TX 78252, USA
398	Taylor High School	Education-K thru 12	7555 Howell Sugar Land Rd	HOUSTON	TX	77083-3338	21-22 College Advising Corps ACTX	1							7555 Howell Sugar Land Rd, HOUSTON, TX 77083-3338	(29.6958642, -95.6323231)	7555 Howell Sugar Land Rd, Houston, TX 77083, USA
399	Travis B. Bryan High School	Education-K thru 12	3450 Campus Dr	BRYAN	TX	77802-3300	21-22 College Advising Corps ACTX	1							3450 Campus Dr, BRYAN, TX 77802-3300	(30.6554172, -96.3348711)	3450 Campus Dr, Bryan, TX 77802, USA
400	Veterans Memorial Early College High School	Education-K thru 12	4550 U S Military Hwy 281	BROWNSVILLE	TX	78520-4020	21-22 College Advising Corps ACTX	1							4550 U S Military Hwy 281, BROWNSVILLE, TX 78520-4020	(25.952183, -97.55768169999999)	281 Military Rd, Brownsville, TX 78520, USA
401	Vangaurd Acadamy	Education-K thru 12	1200 E Kelly Ave	PHARR	TX	78577-5033	21-22 College Advising Corps ACTX	1							1200 E Kelly Ave, PHARR, TX 78577-5033	(26.1889249, -98.17037520000001)	1200 E Kelly Ave, Pharr, TX 78577, USA
402	West Mesquite High School	Education-K thru 12	2500 Memorial Pkwy	MESQUITE	TX	75149-3702	21-22 College Advising Corps ACTX	1							2500 Memorial Pkwy, MESQUITE, TX 75149-3702	(32.7614092, -96.63558650000002)	2500 Memorial Blvd, Mesquite, TX 75149, USA
403	Casa Linda United Methodist Church	Church	1800 Barnes Bridge Road	Dallas	TX	75228-2123	21-22 Project Transformation ACTX			0		12	0		1800 Barnes Bridge Road, Dallas, TX 75228-2123	(32.8503084, -96.67772060000001)	1800 Barnes Bridge Rd, Dallas, TX 75228, USA
404	Chapel Hill United Methodist Church	Church	12411 Templeton Trail	Farmers Branch	TX	75234-6541	21-22 Project Transformation ACTX	1		2		13			12411 Templeton Trail, Farmers Branch, TX 75234-6541	(32.9164847, -96.8651737)	12411 Templeton Trail, Farmers Branch, TX 75234, USA
405	Christ's Foundry United Methodist Mission	Church	3363 Park Lane	Dallas	TX	75220-1626	21-22 Project Transformation ACTX	2		1		12			3363 Park Lane, Dallas, TX 75220-1626	(32.8753349, -96.8651307)	3363 Park Ln, Dallas, TX 75220, USA
406	Cockrell Hill United Methodist	Church	4031 W. Clarendon Drive	Dallas	TX	75211	21-22 Project Transformation ACTX			0		12	0		4031 W. Clarendon Drive, Dallas, TX 75211	(32.7353102, -96.88678619999999)	4031 W Clarendon Dr, Dallas, TX 75211, USA
407	Elmwood El Buen Samaritano United Methodist Church	Church	1315 Berkley	Dallas	TX	75224-1221	21-22 Project Transformation ACTX	2		1		13			1315 Berkley, Dallas, TX 75224-1221	(32.7245818, -96.8435119)	1315 Berkley Ave, Dallas, TX 75224, USA
408	Grace United Methodist Church	Church	4105 Junius Street	Dallas	TX	75246-1428	21-22 Project Transformation ACTX			0		12	0		4105 Junius Street, Dallas, TX 75246-1428	(32.7934459, -96.7758798)	4105 Junius St, Dallas, TX 75246, USA
409	Oak Haven United Methodist Church	Church	1600 N. Irving Heights Dr.	Irving	TX	75061-5148	21-22 Project Transformation ACTX		1.0			14			1600 N. Irving Heights Dr., Irving, TX 75061-5148	(32.8315993, -96.9267418)	1600 N Irving Heights Dr, Irving, TX 75061, USA
410	Pleasant Mound	Church	8301 Bruton Road	Dallas	TX	75217-1905	21-22 Project Transformation ACTX	1		2		13			8301 Bruton Road, Dallas, TX 75217-1905	(32.7500328, -96.67806519999999)	8301 Bruton Rd, Dallas, TX 75217, USA
411	The River Conference	Church	3930 Boulder Dr. 	Dallas	TX	75233-3116	21-22 Project Transformation ACTX		1.0			14			3930 Boulder Dr., Dallas, TX 75233-3116	(32.6949043, -96.8736701)	3930 Boulder Dr, Dallas, TX 75233, USA
412	Walnut Hill Church	Church	10066 Marsh Lane	Dallas	TX	75229-6065	21-22 Project Transformation ACTX			0		9	0		10066 Marsh Lane, Dallas, TX 75229-6065	(32.8832341, -96.8554044)	10066 Marsh Ln, Dallas, TX 75229, USA
413	St. Philip's United Methodist	Church	3717 Broadway Blvd.	Garland	TX	75043-1612	21-22 Project Transformation ACTX					9			3717 Broadway Blvd., Garland, TX 75043-1612	(32.86925799999999, -96.61178609999999)	3717 Broadway Blvd, Garland, TX 75043, USA
414	Bayles Elementary School	Education-K thru 12	2444 Telegraph Ave	DALLAS	TX	75228-5819	21-22 Reading Partners ACTX	2							2444 Telegraph Ave, DALLAS, TX 75228-5819	(32.8008075, -96.70552579999999)	2444 Telegraph Ave, Dallas, TX 75228, USA
415	Como Elementary School	Education-K thru 12	4000 Horne St	FORT WORTH	TX	76107-6915	21-22 Reading Partners ACTX	1							4000 Horne St, FORT WORTH, TX 76107-6915	(32.7214218, -97.4096311)	4000 Horne St, Fort Worth, TX 76107, USA
416	David G Burnet Elementary School	Education-K thru 12	3200 Kinkaid Dr	DALLAS	TX	 75220-1623	21-22 Reading Partners ACTX	2							3200 Kinkaid Dr, DALLAS, TX 75220-1623	(32.8765464, -96.8685655)	3200 Kinkaid Dr, Dallas, TX 75220, USA
417	Eduardo Mata Elementary School School	Education-K thru 12	7420 La Vista	DALLAS	TX	75214-4230	21-22 Reading Partners ACTX	2							7420 La Vista, DALLAS, TX 75214-4230	(32.8065962, -96.73145579999999)	7420 La Vista Dr, Dallas, TX 75214, USA
418	George Clarke Elementary School	Education-K thru 12	3300 South Henderson St	FORT WORTH	TX	76110-6799	21-22 Reading Partners ACTX	2							3300 South Henderson St, FORT WORTH, TX 76110-6799	(32.7020737, -97.338976)	3300 S Henderson St, Fort Worth, TX 76110, USA
419	Heights Preparatory	Education-K thru 12	2650 Canada Dr	DALLAS	TX	75212-1517	21-22 Reading Partners ACTX	2							2650 Canada Dr, DALLAS, TX 75212-1517	(32.7921745, -96.8652058)	2650 Canada Dr, Dallas, TX 75212, USA
420	J N Ervin Elementary School School	Education-K thru 12	3722 Black Oak Dr	DALLAS	TX	75241-3307	21-22 Reading Partners ACTX	2							3722 Black Oak Dr, DALLAS, TX 75241-3307	(32.6798868, -96.7625316)	3722 Black Oak Dr, Dallas, TX 75241, USA
421	Jill Stone Elementary School At Vickery Meadow	Education-K thru 12	6606 Ridgecrest Rd	DALLAS	TX	75231-7002	21-22 Reading Partners ACTX	2							6606 Ridgecrest Rd, DALLAS, TX 75231-7002	(32.8652971, -96.74942019999999)	6606 Ridgecrest Rd, Dallas, TX 75231, USA
422	John T White Elementary School	Education-K thru 12	7300 John T White Rd	FORT WORTH	TX	76120-0000	21-22 Reading Partners ACTX	2							7300 John T White Rd, FORT WORTH, TX 76120-0000	(32.7651949, -97.1981385)	7300 John T White Rd, Fort Worth, TX 76120, USA
423	K B Polk Center For Academically Talented	Education-K thru 12	6911 Victoria Ave	DALLAS	TX	75209-3640	21-22 Reading Partners ACTX	2							6911 Victoria Ave, DALLAS, TX 75209-3640	(32.8423401, -96.8314858)	6911 Victoria Ave, Dallas, TX 75209, USA
424	L L Hotchkiss Elementary School	Education-K thru 12	6929 Town North Dr	DALLAS	TX	75231-8117	21-22 Reading Partners ACTX	2							6929 Town North Dr, DALLAS, TX 75231-8117	(32.8588477, -96.7413497)	6929 Town N Dr, Dallas, TX 75231, USA
425	Leonides Gonzalez Cigarroa Md Elementary School	Education-K thru 12	9990 Webb Chapel Rd	DALLAS	TX	75220-0000	21-22 Reading Partners ACTX	2							9990 Webb Chapel Rd, DALLAS, TX 75220-0000	(32.8800388, -96.864837)	9990 Webb Chapel Rd, Dallas, TX 75220, USA
426	Maude I Logan Elementary School	Education-K thru 12	2300 Dillard St	FORT WORTH	TX	76105-3898	21-22 Reading Partners ACTX	2							2300 Dillard St, FORT WORTH, TX 76105-3898	(32.722221, -97.2434577)	2300 Dillard St, Fort Worth, TX 76105, USA
427	Mitchell Boulevard Elementary School	Education-K thru 12	3601 Mitchell Blvd	FORT WORTH	TX	76105-5215	21-22 Reading Partners ACTX	2							3601 Mitchell Blvd, FORT WORTH, TX 76105-5215	(32.7091192, -97.2877955)	3601 Mitchell Blvd, Fort Worth, TX 76105, USA
428	Mount Auburn Elementary School	Education-K thru 12	6012 East Grand Ave	DALLAS	TX	75223-1423	21-22 Reading Partners ACTX	2							6012 East Grand Ave, DALLAS, TX 75223-1423	(32.7960059, -96.74387949999999)	6012 E Grand Ave, Dallas, TX 75223, USA
429	Stephen C Foster Elementary School	Education-K thru 12	3700 Clover Ln	DALLAS	TX	75220-3610	21-22 Reading Partners ACTX	2							3700 Clover Ln, DALLAS, TX 75220-3610	(32.87030379999999, -96.85440299999999)	3700 Clover Ln, Dallas, TX 75220, USA
430	Tom C Gooch Elementary School	Education-K thru 12	4030 Calculus Rd	DALLAS	TX	75244-7215	21-22 Reading Partners ACTX	2							4030 Calculus Rd, DALLAS, TX 75244-7215	(32.9166992, -96.8448781)	4030 Calculus Dr, Dallas, TX 75244, USA
431	Reading Partners Regional Dallas Office	Nonprofit	2910 Swiss Ave	DALLAS	TX	75204-5962	21-22 Reading Partners ACTX	10							2910 Swiss Ave, DALLAS, TX 75204-5962	(32.7884901, -96.7855234)	2910 Swiss Ave, Dallas, TX 75204, USA
432	Ascend Preparatory Middle School	Education-K thru 12	3301 Turf Paradise Pkwy	Fort Worth	TX	76140	21-22 Relay ACTX	1							3301 Turf Paradise Pkwy, Fort Worth, TX 76140	(32.6354662, -97.27060619999999)	3301 Turf Paradise Pkwy, Fort Worth, TX 76140, USA
433	Ascend Preparatory Primary School	Education-K thru 12	3301 Turf Paradise Pkwy	Fort Worth	TX	76140	21-22 Relay ACTX	1							3301 Turf Paradise Pkwy, Fort Worth, TX 76140	(32.6354662, -97.27060619999999)	3301 Turf Paradise Pkwy, Fort Worth, TX 76140, USA
434	Chapel Hill Academy Charter School	Education-K thru 12	4640 Sycamore School Rd	Fort Worth	TX	76133	21-22 Relay ACTX	1							4640 Sycamore School Rd, Fort Worth, TX 76133	(32.6340121, -97.39209509999999)	4640 Sycamore School Rd, Fort Worth, TX 76133, USA
435	Destiny Elementary	Education-K thru 12	3663 W Camp Wisdom Rd	Dallas	TX	75237	21-22 Relay ACTX	1							3663 W Camp Wisdom Rd, Dallas, TX 75237	(32.6636476, -96.8793213)	3663 W Camp Wisdom Rd, Dallas, TX 75237, USA
436	Elevate Preparatory Primary 	Education-K thru 12	10800 Chapin Road	Fort Worth	TX	76108 	21-22 Relay ACTX	2							10800 Chapin Road, Fort Worth, TX 76108	(32.7346144, -97.51642)	10800 Chapin Rd, Fort Worth, TX 76108, USA
437	Elevate Preparatory Middle 	Education-K thru 12	10800 Chapin Road 	Fort Worth	TX	76008	21-22 Relay ACTX	1							10800 Chapin Road, Fort Worth, TX 76008	(32.7346144, -97.51642)	10800 Chapin Rd, Fort Worth, TX 76108, USA
438	Hampton Preparatory Middle School	Education-K thru 12	8915 S Hampton Rd	Dallas	TX	75232	21-22 Relay ACTX	1							8915 S Hampton Rd, Dallas, TX 75232	(32.6395438, -96.858302)	8915 S Hampton Rd, Dallas, TX 75237, USA
439	Heights Preparatory Middle School	Education-K thru 12	2650 Canada Dr	Dallas	TX	75212	21-22 Relay ACTX	1							2650 Canada Dr, Dallas, TX 75212	(32.7921745, -96.8652058)	2650 Canada Dr, Dallas, TX 75212, USA
440	Heights Preparatory Primary	Education-K thru 12	2202 Calypso St, Dallas	Dallas	TX	75212	21-22 Relay ACTX	4							2202 Calypso St, Dallas, Dallas, TX 75212	(32.7906701, -96.85750619999999)	2202 Calypso St, Dallas, TX 75212, USA
441	Infinity Preparatory High	Education-K thru 12	1401 S Macarthur Blvd	Irving	TX	75060	21-22 Relay ACTX	1							1401 S Macarthur Blvd, Irving, TX 75060	(32.7999746, -96.9600006)	1401 S MacArthur Blvd, Irving, TX 75060, USA
442	Lee Preparatory Primary (Delmas Morton)	Education-K thru 12	401 East Grand Prairie Road 	Grand Prairie	TX	75051	21-22 Relay ACTX	1							401 East Grand Prairie Road, Grand Prairie, TX 75051	(32.7416822, -96.99827529999999)	401 E Grand Prairie Rd, Grand Prairie, TX 75051, USA
443	IDEA Achieve College Prep	Education-K thru 12	1900 Thomas Rd	Haltom City	TX	76117	21-22 Relay ACTX	1							1900 Thomas Rd, Haltom City, TX 76117	(32.7883952, -97.2636557)	1900 Thomas Rd, Haltom City, TX 76117, USA
444	IDEA Edgecliff	Education-K thru 12	1640 Altamesa Blvd	Fort Worth	TX	76134	21-22 Relay ACTX	2							1640 Altamesa Blvd, Fort Worth, TX 76134	(32.6495126, -97.34346959999999)	1640 Altamesa Blvd, Fort Worth, TX 76134, USA
445	Infinity Preparatory High	Education-K thru 12	1401 S Macarthur Blvd,	Irving	TX	75060	21-22 Relay ACTX	1							1401 S Macarthur Blvd,, Irving, TX 75060	(32.7999746, -96.9600006)	1401 S MacArthur Blvd, Irving, TX 75060, USA
446	KIPP Destiny Elementary	Education-K thru 12	3663 W Camp Wisdom Rd	Dallas	TX	75237	21-22 Relay ACTX	1							3663 W Camp Wisdom Rd, Dallas, TX 75237	(32.6636476, -96.8793213)	3663 W Camp Wisdom Rd, Dallas, TX 75237, USA
447	Kipp Oak Cliff Academy	Education-K thru 12	 3200 S Lancaster Rd	Dallas	TX	75216	21-22 Relay ACTX	1							3200 S Lancaster Rd, Dallas, TX 75216	(32.7093334, -96.8007517)	3200 S Lancaster Rd, Dallas, TX 75216, USA
448	Luna Preparatory Middle School	Education-K thru 12	2625 Elm St	Dallas	TX	75226	21-22 Relay ACTX	1							2625 Elm St, Dallas, TX 75226	(32.7846375, -96.7853777)	2625 Elm St, Dallas, TX 75226, USA
449	Mighty Preparatory Middle School	Education-K thru 12	3700 Mighty Mite Dr. 	Fort Worth	TX	76105	21-22 Relay ACTX	2							3700 Mighty Mite Dr., Fort Worth, TX 76105	(32.7095865, -97.2820198)	3700 Mighty Mite Dr, Fort Worth, TX 76105, USA
450	Peak Preparatory Middle	Education-K thru 12	4600 Bryan Street 	Dallas	TX	75204	21-22 Relay ACTX	1							4600 Bryan Street, Dallas, TX 75204	(32.8014377, -96.7757974)	4600 Bryan St, Dallas, TX 75204, USA
451	Pinnacle Preparatory Primary	Education-K thru 12	2510 S Vernon Ave	Dallas	TX	75224	21-22 Relay ACTX	2							2510 S Vernon Ave, Dallas, TX 75224	(32.7214378, -96.8361468)	2510 S Vernon Ave, Dallas, TX 75224, USA
452	Pleasant Grove	Education-K thru 12	2200 N St Augustine Dr	Dallas	TX	75227	21-22 Relay ACTX	1							2200 N St Augustine Dr, Dallas, TX 75227	(32.750126, -96.6562951)	2200 N St Augustine Rd, Dallas, TX 75227, USA
453	Summit International Preparatory Middle School	Education-K thru 12	1305 N Center St	Arlington	TX	76011	21-22 Relay ACTX	3							1305 N Center St, Arlington, TX 76011	(32.7545883, -97.1022921)	1305 N Center St, Arlington, TX 76011, USA
454	Truth Elementary	Education-K thru 12	1545 S Ewing Ave	Dallas	TX	75216	21-22 Relay ACTX	2							1545 S Ewing Ave, Dallas, TX 75216	(32.7281194, -96.8127521)	1545 S Ewing Ave, Dallas, TX 75216, USA
455	Willams Preparatory High School	Education-K thru 12	1750 Viceroy Dr	Dallas	TX	75235	21-22 Relay ACTX	3							1750 Viceroy Dr, Dallas, TX 75235	(32.8353435, -96.8675128)	1750 Viceroy Dr, Dallas, TX 75235, USA
456	Unknown KIPP (Dallas)	Education-K thru 12		Dallas	TX		21-22 Relay ACTX	4									
457	Unknown DISD (Dallas)	Education-K thru 12		Dallas	TX		21-22 Relay ACTX	1									
458	Unknown Uplift (Dallas)	Education-K thru 12		Dallas	TX		21-22 Relay ACTX	2									
459	Wisdom Preparatory High	Education-K thru 12	301 W. Camp Wisdom Rd	Dallas	TX	75232	21-22 Relay ACTX	1							301 W. Camp Wisdom Rd, Dallas, TX 75232	(32.6648028, -96.8245068)	301 W Camp Wisdom Rd, Dallas, TX 75232, USA
460	3D Academy	Education-K thru 12	500 Tidwell Rd	Houston	TX	77022	21-22 Relay ACTX	3							500 Tidwell Rd, Houston, TX 77022	(29.8438537, -95.3694197)	500 Tidwell Rd, Houston, TX 77022, USA
461	Academy Middle School	Education-K thru 12	10711 Kipp Way St	Houston	TX	77099	21-22 Relay ACTX	2							10711 Kipp Way St, Houston, TX 77099	(29.66896059999999, -95.56529669999999)	10711 Kipp Way St, Houston, TX 77099, USA
462	Academy West	Education-K thru 12	8500 S Texas 6	Houston	TX	77083	21-22 Relay ACTX	2							8500 S Texas 6, Houston, TX 77083	(29.6863427, -95.64620579999999)	8500 S Texas 6, Houston, TX 77083, USA
463	Alexander Elementary School	Education-K thru 12	8500 Brookwulf Dr,	Houston	TX	77072	21-22 Relay ACTX	1							8500 Brookwulf Dr,, Houston, TX 77072	(29.6876042, -95.6079336)	8500 Brookwulf Dr, Houston, TX 77072, USA
464	Alief Middle School	Education-K thru 12	4415 Cook Rd	Houston	TX	77072	21-22 Relay ACTX	1							4415 Cook Rd, Houston, TX 77072	(29.70882, -95.5950611)	4415 Cook Rd, Houston, TX 77072, USA
465	Cedar Brook Elementary	Education-K thru 12	2121 Ojeman Rd	Houston	TX	77080	21-22 Relay ACTX	1							2121 Ojeman Rd, Houston, TX 77080	(29.8116554, -95.5036737)	2121 Ojeman Rd, Houston, TX 77080, USA
466	Chambers Elementary School	Education-K thru 12	10700 Carvel Ln,	Houston	TX	77072	21-22 Relay ACTX	1							10700 Carvel Ln,, Houston, TX 77072	(29.6977432, -95.5664908)	10700 Carvel Ln, Houston, TX 77072, USA
467	Chancellor Elementary School	Education-K thru 12	4350 Boone Rd	Houston	TX	77072	21-22 Relay ACTX	1							4350 Boone Rd, Houston, TX 77072	(29.7097757, -95.57688639999999)	4350 Boone Rd, Houston, TX 77072, USA
468	Climb Academy	Education-K thru 12	8805 Ferndale	Houston	TX	77017	21-22 Relay ACTX	1							8805 Ferndale, Houston, TX 77017	(29.6683897, -95.2594833)	8805 Ferndale, Houston, TX 77017, USA
469	Connect Middle School	Education-K thru 12	6700 Bellaire Blvd	Houston	TX	77074	21-22 Relay ACTX	2							6700 Bellaire Blvd, Houston, TX 77074	(29.7059163, -95.5019875)	6700 Bellaire Blvd, Houston, TX 77074, USA
470	Connect Primary	Education-K thru 12	6700 Bellaire Blvd	Houston	TX	77074	21-22 Relay ACTX	2							6700 Bellaire Blvd, Houston, TX 77074	(29.7059163, -95.5019875)	6700 Bellaire Blvd, Houston, TX 77074, USA
471	Courage College Prep	Education-K thru 12	2200 Ridgecrest Dr	Houston	TX	77055	21-22 Relay ACTX	1							2200 Ridgecrest Dr, Houston, TX 77055	(29.8133872, -95.49236479999999)	2200 Ridgecrest Dr, Houston, TX 77055, USA
472	Dream Prep	Education-K thru 12	500 Tidwell Rd	Houston	TX	77022	21-22 Relay ACTX	2							500 Tidwell Rd, Houston, TX 77022	(29.8438537, -95.3694197)	500 Tidwell Rd, Houston, TX 77022, USA
473	East End High School	Education-K thru 12	5402 Lawndale St	Houston	TX	77023	21-22 Relay ACTX	1							5402 Lawndale St, Houston, TX 77023	(29.7266083, -95.32286189999999)	5402 Lawndale St, Houston, TX 77023, USA
474	Explore Academy	Education-K thru 12	5402 Lawndale St	Houston	TX	77023	21-22 Relay ACTX	3							5402 Lawndale St, Houston, TX 77023	(29.7266083, -95.32286189999999)	5402 Lawndale St, Houston, TX 77023, USA
475	Hearne Elementary School	Education-K thru 12	13939 Rio Bonito Rd	Houston	TX	77083	21-22 Relay ACTX	2							13939 Rio Bonito Rd, Houston, TX 77083	(29.7080662, -95.6327685)	13939 Rio Bonito Rd, Houston, TX 77083, USA
476	Hicks Elementary School	Education-K thru 12	8520 Hemlock Hill Dr	Houston	TX	77083	21-22 Relay ACTX	1							8520 Hemlock Hill Dr, Houston, TX 77083	(29.6866989, -95.62825749999999)	8520 Hemlock Hill Dr, Houston, TX 77083, USA
477	Hunters Creek Elementary School	Education-K thru 12	10650 Beinhorn Rd	Houston	TX	77024	21-22 Relay ACTX	1							10650 Beinhorn Rd, Houston, TX 77024	(29.7787464, -95.4971175)	10650 Beinhorn Rd, Houston, TX 77024, USA
478	Kennedy Elementary School	Education-K thru 12	10200 Huntington Pl Dr	Houston	TX	77099	21-22 Relay ACTX	1							10200 Huntington Pl Dr, Houston, TX 77099	(29.6720532, -95.60226879999999)	10200 Huntington Pl Dr, Houston, TX 77099, USA
479	Legacy Preparatory School	Education-K thru 12	9606 Mesa Dr	Houston	TX	77078	21-22 Relay ACTX	4							9606 Mesa Dr, Houston, TX 77078	(29.851443, -95.26126130000002)	9606 Mesa Dr, Houston, TX 77078, USA
480	Liberation College Preparatory	Education-K thru 12	5400 Martin Luther King Blvd	Houston	TX	77021	21-22 Relay ACTX	2							5400 Martin Luther King Blvd, Houston, TX 77021	(29.7010822, -95.3359763)	5400 Martin Luther King Blvd, Houston, TX 77021, USA
481	Mahanay Elementary School	Education-K thru 12	13215 High Star Dr	Houston	TX	77083	21-22 Relay ACTX	1							13215 High Star Dr, Houston, TX 77083	(29.7098251, -95.615816)	13215 High Star Dr, Houston, TX 77083, USA
482	Meadow Wood Elementary School	Education-K thru 12	14230 Memorial Dr	Houston	TX	77079	21-22 Relay ACTX	1							14230 Memorial Dr, Houston, TX 77079	(29.7715035, -95.5965317)	14230 Memorial Dr, Houston, TX 77079, USA
483	Mosaic Primary	Education-K thru 12	12751 Hillcroft Ave	Houston	TX	77085	21-22 Relay ACTX	2							12751 Hillcroft Ave, Houston, TX 77085	(29.6357321, -95.4929106)	12751 Hillcroft Ave, Houston, TX 77085, USA
484	Mosaic Academy	Education-K thru 12	12751 Hillcroft Ave	Houston	TX	77085	21-22 Relay ACTX	1							12751 Hillcroft Ave, Houston, TX 77085	(29.6357321, -95.4929106)	12751 Hillcroft Ave, Houston, TX 77085, USA
485	Nexus Middle School	Education-K thru 12	4211 Watonga Blvd	Houston	TX	77092	21-22 Relay ACTX	1							4211 Watonga Blvd, Houston, TX 77092	(29.82926029999999, -95.45951570000001)	4211 Watonga Blvd, Houston, TX 77092, USA
486	Nexus Primary	Education-K thru 12	4211 Watonga Blvd	Houston	TX	77092	21-22 Relay ACTX	2							4211 Watonga Blvd, Houston, TX 77092	(29.82926029999999, -95.45951570000001)	4211 Watonga Blvd, Houston, TX 77092, USA
487	Yes Prep Northwest	Education-K thru 12	14741 Yorktown Plaza Dr	Houston	TX	77040	21-22 Relay ACTX	1							14741 Yorktown Plaza Dr, Houston, TX 77040	(29.86418149999999, -95.54310819999999)	14741 Yorktown Plaza Dr, Houston, TX 77040, USA
488	Peace Elementary School	Education-K thru 12	5400 Martin Luther King Blvd	Houston	TX	77021	21-22 Relay ACTX	2							5400 Martin Luther King Blvd, Houston, TX 77021	(29.7010822, -95.3359763)	5400 Martin Luther King Blvd, Houston, TX 77021, USA
489	SHARP College Prep	Education-K thru 12	8430 Westglen Drive	Houston	TX	77063	21-22 Relay ACTX	2							8430 Westglen Drive, Houston, TX 77063	(29.7249906, -95.5122756)	8430 Westglen Dr, Houston, TX 77063, USA
490	Sharpstown College Prep	Education-K thru 12	8440 Westpark Drive	Houston	TX	77063	21-22 Relay ACTX	1							8440 Westpark Drive, Houston, TX 77063	(29.722814, -95.51260769999999)	8440 Westpark Dr, Houston, TX 77063, USA
491	Shotwell MS	Education-K thru 12	6515 Trail Valley Way	Houston	TX	77086	21-22 Relay ACTX	2							6515 Trail Valley Way, Houston, TX 77086	(29.9284412, -95.4822204)	6515 Trail Valley Way, Houston, TX 77086, USA
492	Sneed Elementary	Education-K thru 12	9855 Pagewood Ln	Houston	TX	77042	21-22 Relay ACTX	1							9855 Pagewood Ln, Houston, TX 77042	(29.7246283, -95.54483049999999)	9855 Pagewood Ln, Houston, TX 77042, USA
493	Spring Woods Middle School	Education-K thru 12	9810 Neuens Rd	Houston	TX	77080	21-22 Relay ACTX	1							9810 Neuens Rd, Houston, TX 77080	(29.8072211, -95.5322016)	9810 Neuens Rd, Houston, TX 77080, USA
494	Stephens Elementary	Education-K thru 12	2402 Aldine Mail Rte Rd	Houston	TX	77039	21-22 Relay ACTX	2							2402 Aldine Mail Rte Rd, Houston, TX 77039	(29.90159049999999, -95.3480823)	2402 Aldine Mail Rte Rd, Houston, TX 77039, USA
495	Sunnyside High School	Education-K thru 12	11000 Scott St	Houston	TX	77047	21-22 Relay ACTX	1							11000 Scott St, Houston, TX 77047	(29.6380746, -95.3705236)	11000 Scott St, Houston, TX 77047, USA
496	Unity Primary	Education-K thru 12	8500 S Texas 6	Houston	TX	77083	21-22 Relay ACTX	2							8500 S Texas 6, Houston, TX 77083	(29.6863427, -95.64620579999999)	8500 S Texas 6, Houston, TX 77083, USA
497	Unknown Aldine ISD (Houston)	Education-K thru 12		Houston	TX		21-22 Relay ACTX	4									
498	Unknown Alief ISD (Houston)	Education-K thru 12		Houston	TX		21-22 Relay ACTX	4									
499	Unknown KIPP (Houston)	Education-K thru 12		Houston	TX		21-22 Relay ACTX	30									
500	Unknown Spring Branch ISD (Houston)	Education-K thru 12		Houston	TX		21-22 Relay ACTX	4									
501	Zenith Academy	Education-K thru 12	11000 Scott St	Houston	TX	77047	21-22 Relay ACTX	2							11000 Scott St, Houston, TX 77047	(29.6380746, -95.3705236)	11000 Scott St, Houston, TX 77047, USA
502	Carver	Education-K thru 12	217 Robinson Pl	San Antonio	TX	78202	21-22 Relay ACTX	7							217 Robinson Pl, San Antonio, TX 78202	(29.4220099, -98.4724574)	217 Robinson Pl, San Antonio, TX 78202, USA
503	Compass Rose Academy Legacy Campus	Education-K thru 12	8005 Outer Circle Rd	San Antonio	TX	78234	21-22 Relay ACTX	3							8005 Outer Circle Rd, San Antonio, TX 78234	(29.3444778, -98.446442)	8005 Outer Circle Rd, San Antonio, TX 78234, USA
504	Esperanza	Education-K thru 12	239 Stark St	San Antonio	TX	78204	21-22 Relay ACTX	2							239 Stark St, San Antonio, TX 78204	(29.4080868, -98.50654379999999)	239 Stark St, San Antonio, TX 78204, USA
505	Ingram Hills	Education-K thru 12	3115 Majestic Dr	San Antonio	TX	78228	21-22 Relay ACTX	3							3115 Majestic Dr, San Antonio, TX 78228	(29.468657, -98.59506119999999)	3115 Majestic Dr, San Antonio, TX 78228, USA
506	Ogden Elementary School	Education-K thru 12	2215 Leal St	San Antonio	TX	78207	21-22 Relay ACTX	3							2215 Leal St, San Antonio, TX 78207	(29.437249, -98.5366985)	2215 Leal St, San Antonio, TX 78207, USA
507	Ollie Perry Storm Elementary School (Storm)	Education-K thru 12	435 Brady Blvd	San Antonio	TX	78207	21-22 Relay ACTX	1							435 Brady Blvd, San Antonio, TX 78207	(29.4027562, -98.5286332)	435 Brady Blvd, San Antonio, TX 78207, USA
508	South Flores Academy	Education-K thru 12	 6919 S Flores St	San Antonio	TX	78221	21-22 Relay ACTX	2							6919 S Flores St, San Antonio, TX 78221	(29.3506507, -98.48956299999999)	6919 S Flores St, San Antonio, TX 78221, USA
509	Alamo	Education-K thru 12	325 Kansas Rd	Alamo	TX	78516	21-22 Relay ACTX	1							325 Kansas Rd, Alamo, TX 78516	(26.1999154, -98.1018171)	325 Kansas Rd, Alamo, TX 78516, USA
510	IDEA Amber Creek	Education-K thru 12	10170 Kriewald Rd	San Antonio	TX	78245	21-22 Relay ACTX	1							10170 Kriewald Rd, San Antonio, TX 78245	(29.39038699999999, -98.68881290000002)	10170 Kriewald Rd, San Antonio, TX 78245, USA
511	IDEA Burke	Education-K thru 12	10434 Marbach Rd	San Antonio	TX	78245	21-22 Relay ACTX	2							10434 Marbach Rd, San Antonio, TX 78245	(29.416428, -98.696068)	10434 Marbach Rd, San Antonio, TX 78245, USA
512	IDEA Eastside	Education-K thru 12	2519 Martin Luther King Dr	San Antonio	TX	78203	21-22 Relay ACTX	1							2519 Martin Luther King Dr, San Antonio, TX 78203	(29.4146722, -98.4443768)	2519 Martin Luther King Dr, San Antonio, TX 78203, USA
513	IDEA Health Professions CP	Education-K thru 12	5816 Wilcab	Austin	TX	78721	21-22 Relay ACTX	1							5816 Wilcab, Austin, TX 78721	(30.2736873, -97.67595349999999)	5816 Wilcab Rd, Austin, TX 78721, USA
514	IDEA Horizon Vista	Education-K thru 12	201 Horizon Crossing St	Horizon City	TX	79928	21-22 Relay ACTX	1							201 Horizon Crossing St, Horizon City, TX 79928	(31.6790687, -106.2074893)	201 Horizon Crossing St, Horizon City, TX 79928, USA
515	IDEA Mays	Education-K thru 12	1210 Horal Dr	San Antonio	TX	78227	21-22 Relay ACTX	3							1210 Horal Dr, San Antonio, TX 78227	(29.4229515, -98.65339809999999)	1210 Horal Dr, San Antonio, TX 78227, USA
516	IDEA Monterrey Park	Education-K thru 12	222 SW 39th St,	San Antonio	TX	78237	21-22 Relay ACTX	2							222 SW 39th St,, San Antonio, TX 78237	(29.431314, -98.57785349999999)	222 SW 39th St, San Antonio, TX 78237, USA
517	IDEA Pflugerville	Education-K thru 12	1901 E Wells Branch Pkwy	Pflugerville	TX	78660	21-22 Relay ACTX	1							1901 E Wells Branch Pkwy, Pflugerville, TX 78660	(30.4245251, -97.6272125)	1901 E Wells Branch Pkwy, Pflugerville, TX 78660, USA
518	IDEA Owassa	Education-K thru 12	1000 E Owassa Rd	Pharr	TX	78577	21-22 Relay ACTX	1							1000 E Owassa Rd, Pharr, TX 78577	(26.2456219, -98.16384889999999)	1000 E Owassa Rd, Pharr, TX 78577, USA
519	IDEA Walzem	Education-K thru 12	6445 Walzem Rd	San Antonio	TX	78239	21-22 Relay ACTX	2							6445 Walzem Rd, San Antonio, TX 78239	(29.5032318, -98.36164409999999)	6445 Walzem Rd, San Antonio, TX 78239, USA
520	College Preparatory Mission	Education-K thru 12	1600 N Schuerbach Rd	Mission	TX	78572	21-22 Relay ACTX	2							1600 N Schuerbach Rd, Mission, TX 78572	(26.2449323, -98.35610489999999)	1600 N Schuerbach Rd, Mission, TX 78574, USA
521	College Prep-San Juan	Education-K thru 12	600 E Sioux Rd	San Juan	TX	78589	21-22 Relay ACTX	3							600 E Sioux Rd, San Juan, TX 78589	(26.2145827, -98.1414516)	600 E Sioux Rd, San Juan, TX 78589, USA
522	Corpus Christi College Prep HS	Education-K thru 12	4613 S Padre Island Dr	Corpus Christi	TX	78411	21-22 Relay ACTX	1							4613 S Padre Island Dr, Corpus Christi, TX 78411	(27.7159033, -97.3883372)	4613 S Padre Island Dr, Corpus Christi, TX 78411, USA
523	Edgemere	Education-K thru 12	15101 Edgemere Blvd	El Paso	TX	79938	21-22 Relay ACTX	2							15101 Edgemere Blvd, El Paso, TX 79938	(31.7994202, -106.1952545)	15101 Edgemere Blvd, El Paso, TX 79938, USA
524	Edinburg	Education-K thru 12	2553 Roegiers Rd	Edinburg	TX	78541	21-22 Relay ACTX	4							2553 Roegiers Rd, Edinburg, TX 78541	(26.3282521, -98.1499872)	2553 Roegiers Rd, Edinburg, TX 78541, USA
525	Montopolis (Allan)	Education-K thru 12	1701 Vargas Rd	Austin	TX	78741	21-22 Relay ACTX	5							1701 Vargas Rd, Austin, TX 78741	(30.2261244, -97.6989996)	1701 Vargas Rd, Austin, TX 78741, USA
526	Rio Vista	Education-K thru 12	210 N Rio Vista Rd	Socorro	TX	79927	21-22 Relay ACTX	4							210 N Rio Vista Rd, Socorro, TX 79927	(31.6556689, -106.2873477)	210 N Rio Vista Rd, Socorro, TX 79927, USA
527	Riverview	Education-K thru 12	30 Palm Blvd	Brownsville	TX	78520	21-22 Relay ACTX	2							30 Palm Blvd, Brownsville, TX 78520	(25.8920213, -97.5190555)	30 Palm Blvd, Brownsville, TX 78520, USA
528	San Benito	Education-K thru 12	2151 Russell Ln	San Benito	TX	78586	21-22 Relay ACTX	1							2151 Russell Ln, San Benito, TX 78586	(26.1640035, -97.6533381)	2151 Russell Ln, San Benito, TX 78586, USA
529	Travis	Education-K thru 12	900 E Gist Ave	Midland	TX	79701	21-22 Relay ACTX	6							900 E Gist Ave, Midland, TX 79701	(31.981254, -102.0620542)	900 E Gist Ave, Midland, TX 79701, USA
530	Unknown KIPP (San Antonio)	Education-K thru 12			TX		21-22 Relay ACTX	7									
531	Unknown IDEA (San Antonio)	Education-K thru 12			TX		21-22 Relay ACTX	3									
532	Weslaco	Education-K thru 12	2931 Sugar Cane Dr	Weslaco	TX	78599	21-22 Relay ACTX	1							2931 Sugar Cane Dr, Weslaco, TX 78599	(26.1859447, -97.9622662)	2931 Sugar Cane Dr, Weslaco, TX 78599, USA
533	Weslaco Pike College Preparatory	Education-K thru 12	1000 E Pike Blvd	Weslaco	TX	78596	21-22 Relay ACTX	2							1000 E Pike Blvd, Weslaco, TX 78596	(26.168619, -97.9791896)	1000 E Pike Blvd, Weslaco, TX 78596, USA
534	Alief ISD	Education-K thru 12	4250 Cook Road 	Houston 	TX	77072	21-22 Sewa International ACTX		12.0						4250 Cook Road, Houston, TX 77072	(29.7117125, -95.5967687)	4250 Cook Rd, Houston, TX 77072, USA
535	Villa Madrid	Other	10202 Club Creek Drive 	Houston 	TX	77036	21-22 Sewa International ACTX			2					10202 Club Creek Drive, Houston, TX 77036	(29.688289, -95.55097239999999)	10202 Club Creek Dr, Houston, TX 77036, USA
536	San Marcos	Other	6301 West Bellfort Avenue 	Houston 	TX	77035	21-22 Sewa International ACTX			2					6301 West Bellfort Avenue, Houston, TX 77035	(29.656092, -95.501227)	6301 W Bellfort Ave, Houston, TX 77035, USA
537	Los Arcos	Other	11315 Fondren Road 	Houston 	TX	77035	21-22 Sewa International ACTX			2					11315 Fondren Road, Houston, TX 77035	(29.6531605, -95.506993)	11315 Fondren Rd, Houston, TX 77035, USA
538	Sewa International, Inc.	Nonprofit	1000 West Oaks Mall 	Houston 	TX	77082	21-22 Sewa International ACTX			9					1000 West Oaks Mall, Houston, TX 77082	(29.73239019999999, -95.64873560000001)	1000 W Oaks Mall, Houston, TX 77082, USA
539	Dallas ISD	Education-K thru 12	9400 N. Central Expressway	Dallas	TX	75231	21-22 Teach For America ACTX	111							9400 N. Central Expressway, Dallas, TX 75231	(32.8763612, -96.7682256)	9400 N Central Expy, Dallas, TX 75231, USA
540	Fort Worth ISD	Education-K thru 12	100 N University Drive	Fort Worth	TX	76107	21-22 Teach For America ACTX	55							100 N University Drive, Fort Worth, TX 76107	(32.7601517, -97.3603495)	100 N University Dr, Fort Worth, TX 76107, USA
541	KIPP DFW	Education-K thru 12	3200 S Lancaster Rd	Dallas	TX	75216	21-22 Teach For America ACTX	7							3200 S Lancaster Rd, Dallas, TX 75216	(32.7093334, -96.8007517)	3200 S Lancaster Rd, Dallas, TX 75216, USA
542	Uplift Education	Education-K thru 12	3000 Pegasus Park Dr.	Dallas	TX	75241	21-22 Teach For America ACTX	35							3000 Pegasus Park Dr., Dallas, TX 75241	(32.8101817, -96.8601363)	3000 Pegasus Park Dr, Dallas, TX 75247, USA
543	IDEA Public Schools - Tarrant County	Education-K thru 12	600 Bryan Ave.	Fort Worth	TX	76104	21-22 Teach For America ACTX	12							600 Bryan Ave., Fort Worth, TX 76104	(32.7382496, -97.32552629999999)	600 Bryan Ave, Fort Worth, TX 76104, USA
544	Richardson ISD	Education-K thru 12	400 S. Greenville Ave.	Richardson	TX	75081	21-22 Teach For America ACTX	17							400 S. Greenville Ave., Richardson, TX 75081	(32.9444437, -96.7330085)	400 S Greenville Ave, Richardson, TX 75081, USA
545	KIPP Houston Public Schools	Education-K thru 12	10711 Kipp Way	Houston	TX	77099	21-22 Teach For America ACTX	42							10711 Kipp Way, Houston, TX 77099	(29.66896059999999, -95.56529669999999)	10711 Kipp Way St, Houston, TX 77099, USA
546	Houston Independent School District	Education-K thru 12	4400 West 18th St.	Houston	TX	77092	21-22 Teach For America ACTX	80							4400 West 18th St., Houston, TX 77092	(29.8020222, -95.4526575)	4400 W 18th St, Houston, TX 77092, USA
547	BakerRipley	Education-K thru 12	4500 Bissonnet St.	Bellaire	TX	77401	21-22 Teach For America ACTX	5							4500 Bissonnet St., Bellaire, TX 77401	(29.7164919, -95.4524872)	4500 Bissonnet St, Bellaire, TX 77401, USA
548	YES Prep Public Schools	Education-K thru 12	5515 South Loop East	Houston	TX	77033	21-22 Teach For America ACTX	38							5515 South Loop East, Houston, TX 77033	(29.6884259, -95.3364416)	5515 South Loop, Houston, TX 77033, USA
549	Aldine ISD	Education-K thru 12	2520 W.W. Thorne Blvd.	Houston	TX	77073	21-22 Teach For America ACTX	64							2520 W.W. Thorne Blvd., Houston, TX 77073	(30.00349049999999, -95.38961979999999)	2520 W W Thorne Blvd, Houston, TX 77073, USA
550	Harlingen CISD	Education-K thru 12	407 North Sunshine Strip	Harlingen	TX	78550	21-22 Teach For America ACTX	6							407 North Sunshine Strip, Harlingen, TX 78550	(26.1962947, -97.68101010000001)	407 N 77 Sunshine Strip, Harlingen, TX 78550, USA
551	IDEA Public Schools- Rio Grande Valley	Education-K thru 12	2115 W. Pike	Weslaco	TX	78596	21-22 Teach For America ACTX	20							2115 W. Pike, Weslaco, TX 78596	(26.1690154, -98.01204750000001)	2115 W Pike Blvd, Weslaco, TX 78596, USA
552	Pharr-San Juan-Alamo ISD	Education-K thru 12	601 East Kelly	Pharr	TX	78577	21-22 Teach For America ACTX	10							601 East Kelly, Pharr, TX 78577	(26.191933, -98.17690259999999)	601 E Kelly Ave, Pharr, TX 78577, USA
553	Donna ISD	Education-K thru 12	116 N. 10th St.	Donna	TX	78537	21-22 Teach For America ACTX	11							116 N. 10th St., Donna, TX 78537	(26.1729009, -98.0524428)	116 N 10th St, Donna, TX 78537, USA
554	Point Isabel ISD	Education-K thru 12	101 Port Road	Port Isabel	TX	78578	21-22 Teach For America ACTX	2							101 Port Road, Port Isabel, TX 78578	(26.0709163, -97.21898329999999)	101 Port Rd, Port Isabel, TX 78578, USA
555	Vanguard Academy	Education-K thru 12	1200 E. Kelly	Pharr	TX	78577	21-22 Teach For America ACTX	2							1200 E. Kelly, Pharr, TX 78577	(26.1889249, -98.17037520000001)	1200 E Kelly Ave, Pharr, TX 78577, USA
556	San Benito CISD	Education-K thru 12	240 N. Crockett St.	San Benito	TX	78586	21-22 Teach For America ACTX	2							240 N. Crockett St., San Benito, TX 78586	(26.1310728, -97.6284098)	240 N Crockett St, San Benito, TX 78586, USA
557	Edgewood ISD	Education-K thru 12	5358 W Commerce Street	San Antonio	TX	78237	21-22 Teach For America ACTX	7							5358 W Commerce Street, San Antonio, TX 78237	(29.4317604, -98.56702589999999)	5358 W Commerce St, San Antonio, TX 78237, USA
558	San Antonio ISD	Education-K thru 12	141 Lavaca St	San Antonio	TX	78210	21-22 Teach For America ACTX	85							141 Lavaca St, San Antonio, TX 78210	(29.4173952, -98.4869476)	141 Lavaca St, San Antonio, TX 78210, USA
559	KIPP San Antonio	Education-K thru 12	731 Fredericksburg Rd	San Antonio	TX	78201	21-22 Teach For America ACTX	21							731 Fredericksburg Rd, San Antonio, TX 78201	(29.4497468, -98.5119691)	731 Fredericksburg Rd, San Antonio, TX 78201, USA
560	IDEA Public Schools- San Antonio	Education-K thru 12	217 Robinson Pl	San Antonio	TX	78202	21-22 Teach For America ACTX	7							217 Robinson Pl, San Antonio, TX 78202	(29.4220099, -98.4724574)	217 Robinson Pl, San Antonio, TX 78202, USA
561	Compass Rose	Education-K thru 12	8005 Outer Circle Rd	San Antonio	TX	78234	21-22 Teach For America ACTX	7							8005 Outer Circle Rd, San Antonio, TX 78234	(29.3444778, -98.446442)	8005 Outer Circle Rd, San Antonio, TX 78234, USA
562	PreK4SA	Education-K thru 12	7031 S New Braunfels Ave.	San Antonio	TX	78223	21-22 Teach For America ACTX	4							7031 S New Braunfels Ave., San Antonio, TX 78223	(29.3562409, -98.4512415)	7031 S New Braunfels Ave, San Antonio, TX 78223, USA
563	Communities in Schools (CIS) Coastal Bend	Nonprofit	"5241 Kentner St
"	 Corpus Christi	TX	78412	21-22 Texas Network of Youth Services ACTX	2							5241 Kentner St, Corpus Christi, TX 78412	(27.7228861, -97.3526053)	5241 Kentner St, Corpus Christi, TX 78412, USA
564	Connections Individual and Family Services (IFS)	Nonprofit	"1414 W. San Antonio Street
"	New Braunfels	TX	78130	21-22 Texas Network of Youth Services ACTX	1							1414 W. San Antonio Street, New Braunfels, TX 78130	(29.69122819999999, -98.1365441)	1414 W San Antonio St, New Braunfels, TX 78130, USA
565	El Paso Center For Children	Nonprofit		El Paso	TX	79930	21-22 Texas Network of Youth Services ACTX	1									
566	Harris County Resources - Youth Services Division	Education-College/University	6300 Chimney Rock Rd	Houston	TX	77081	21-22 Texas Network of Youth Services ACTX	2							6300 Chimney Rock Rd, Houston, TX 77081	(29.7116497, -95.4772077)	6300 Chimney Rock Rd, Houston, TX 77081, USA
567	Harris County Resources - Houston Alumni and Youth Center (HAY Center)	Education-College/University	1216 West Clay	Houston	TX	77019	21-22 Texas Network of Youth Services ACTX	2							1216 West Clay, Houston, TX 77019	(29.7556225, -95.39503189999999)	1216 W Clay St, Houston, TX 77019, USA
568	Jonathan's Place	Nonprofit	"6065 Duck Creek Dr
"	Garland	TX	75043	21-22 Texas Network of Youth Services ACTX	1							6065 Duck Creek Dr, Garland, TX 75043	(32.8438499, -96.6026437)	6065 Duck Creek Dr, Garland, TX 75043, USA
569	Parks Youth Ranch	Nonprofit	11614 FM 361 Rd	Richmond	TX	77469	21-22 Texas Network of Youth Services ACTX	1							11614 FM 361 Rd, Richmond, TX 77469	(29.4142006, -95.76205639999999)	11614 FM 361 Rd, Richmond, TX 77469, USA
570	Promise House	Nonprofit	"4212 E. Grand Ave.
"	Dallas	TX	75223	21-22 Texas Network of Youth Services ACTX	1							4212 E. Grand Ave., Dallas, TX 75223	(32.7825969, -96.75890319999999)	4212 E Grand Ave, Dallas, TX 75223, USA
571	Texas Network of Youth Services	Nonprofit	7703 N Lamar Blvd 	Austin	TX	78752	21-22 Texas Network of Youth Services ACTX	1							7703 N Lamar Blvd, Austin, TX 78752	(30.3445884, -97.7128608)	7703 N Lamar Blvd, Austin, TX 78752, USA
572	Allison Elementary School	Education-K thru 12	515 Vargas Rd	 Austin	TX	78741-2455	21-22 Travis County 4-H CAPITAL ACTX	1	1.0						515 Vargas Rd, Austin, TX 78741-2455	(30.2357841, -97.6920353)	515 Vargas Rd, Austin, TX 78741, USA
573	Baty Elementary School	Education-K thru 12	2101 Faro Dr	 Austin	TX	78741-3361	21-22 Travis County 4-H CAPITAL ACTX	1							2101 Faro Dr, Austin, TX 78741-3361	(30.2267143, -97.71406979999999)	2101 Faro Dr, Austin, TX 78741, USA
574	Bedichek Middle School	Education-K thru 12	6800 Bill Hughes Rd	Austin	TX	78745-5605	21-22 Travis County 4-H CAPITAL ACTX		2.0						6800 Bill Hughes Rd, Austin, TX 78745-5605	(30.1952599, -97.787136)	6800 Bill Hughes Rd, Austin, TX 78745, USA
575	Brown Elementary School	Education-K thru 12	400 Cooper Dr	 Austin	TX	78753-5030	21-22 Travis County 4-H CAPITAL ACTX	1	1.0						400 Cooper Dr, Austin, TX 78753-5030	(30.36104, -97.6970757)	400 Cooper Dr, Austin, TX 78753, USA
576	Creedmoor Elementary School	Education-K thru 12	5604 FM 1327	Creedmoor	TX	78610-2039	21-22 Travis County 4-H CAPITAL ACTX	1							5604 FM 1327, Creedmoor, TX 78610-2039	(30.0910186, -97.7209737)	5604 FM1327, Creedmoor, TX 78610, USA
577	Harris Elementary School	Education-K thru 12	1711 Wheless Ln	 Austin	TX	78723-1910	21-22 Travis County 4-H CAPITAL ACTX	1							1711 Wheless Ln, Austin, TX 78723-1910	(30.31410319999999, -97.6919293)	1711 Wheless Ln, Austin, TX 78723, USA
578	Hillcrest Elementary School	Education-K thru 12	6910 E William Cannon Dr	 Austin	TX	78744-8312	21-22 Travis County 4-H CAPITAL ACTX	1	1.0						6910 E William Cannon Dr, Austin, TX 78744-8312	(30.1660087, -97.72900369999999)	6910 E William Cannon Dr, Austin, TX 78744, USA
579	Hornsby-Dunlap Elementary School	Education-K thru 12	13901 FM 969	Austin	TX	78724-6345	21-22 Travis County 4-H CAPITAL ACTX	1							13901 FM 969, Austin, TX 78724-6345	(30.2478695, -97.5876121)	13901 FM 969, Austin, TX 78724, USA
580	Houston Elementary School	Education-K thru 12	5409 Ponciana Dr	 Austin	TX	78744-2838	21-22 Travis County 4-H CAPITAL ACTX	1	1.0						5409 Ponciana Dr, Austin, TX 78744-2838	(30.1964787, -97.7554729)	5409 Ponciana Dr, Austin, TX 78744, USA
581	Langford Elementary School 	Education-K thru 12	2206 Blue Meadow Dr. 	 Austin	TX	78744	21-22 Travis County 4-H CAPITAL ACTX	1							2206 Blue Meadow Dr., Austin, TX 78744	(30.1828353, -97.7635504)	2206 Blue Meadow Dr, Austin, TX 78744, USA
582	Newton-Collins Elementary School	Education-K thru 12	8100 Colton-Bluff Springs Rd	 Austin	TX	78744	21-22 Travis County 4-H CAPITAL ACTX	1							8100 Colton-Bluff Springs Rd, Austin, TX 78744	(30.1524059, -97.7137516)	8100 Colton-Bluff Springs Rd, Austin, TX 78744, USA
583	Oak Springs Elementary School	Education-K thru 12	3601 Webberville Rd	Austin	TX	78702-3008	21-22 Travis County 4-H CAPITAL ACTX	1							3601 Webberville Rd, Austin, TX 78702-3008	(30.2719146, -97.70454679999999)	3601 Webberville Rd, Austin, TX 78702, USA
584	Ortega Elementary School	Education-K thru 12	1135 Garland Ave	 Austin	TX	78721-2625	21-22 Travis County 4-H CAPITAL ACTX	1	1.0						1135 Garland Ave, Austin, TX 78721-2625	(30.2699717, -97.6842751)	Child inc Ortega, 1135 Garland Ave, Austin, TX 78721, USA
585	Del Valle Elementary School 	Education-K thru 12	5400 Ross Rd. 	Del Valle	TX	78617	21-22 Travis County 4-H CAPITAL ACTX		2.0						5400 Ross Rd., Del Valle, TX 78617	(30.174399, -97.62314889999999)	5400 Ross Rd, Del Valle, TX 78617, USA
586	Pecan Springs Elementary School	Education-K thru 12	3100 Rogge Ln	 Austin	TX	78723-4831	21-22 Travis County 4-H CAPITAL ACTX	1	1.0						3100 Rogge Ln, Austin, TX 78723-4831	(30.3033297, -97.6767701)	3100 Rogge Ln, Austin, TX 78723, USA
587	Perez Elementary School	Education-K thru 12	7500 S Pleasant Valley Rd	 Austin	TX	78744-6412	21-22 Travis County 4-H CAPITAL ACTX	1	1.0						7500 S Pleasant Valley Rd, Austin, TX 78744-6412	(30.170521, -97.7561855)	7500 S Pleasant Valley Rd, Austin, TX 78744, USA
588	Popham Elementary School	Education-K thru 12	7014 Elroy Rd	 Del Valle	TX	78617-3505	21-22 Travis County 4-H CAPITAL ACTX	1							7014 Elroy Rd, Del Valle, TX 78617-3505	(30.1573198, -97.6436221)	7014 Elroy Rd, Del Valle, TX 78617, USA
589	Rodriguez Elementary School	Education-K thru 12	4400 Franklin Park Dr.	Austin	TX	78744-2929	21-22 Travis County 4-H CAPITAL ACTX	1							4400 Franklin Park Dr., Austin, TX 78744-2929	(30.2006302, -97.7460627)	4400 Franklin Park Dr, Austin, TX 78744, USA
590	Smith Elementary School	Education-K thru 12	4209 Smith School Rd	Austin	TX	78744-3217	21-22 Travis County 4-H CAPITAL ACTX	1							4209 Smith School Rd, Austin, TX 78744-3217	(30.1958227, -97.7132426)	4209 Smith School Rd, Austin, TX 78744, USA
591	Widen Elementary School	Education-K thru 12	5605 Nuckols Crossing Rd	 Austin	TX	78744-4615	21-22 Travis County 4-H CAPITAL ACTX	1							5605 Nuckols Crossing Rd, Austin, TX 78744-4615	(30.188201, -97.7406518)	5605 Nuckols Crossing Rd, Austin, TX 78744, USA
592	Wooten Elementary School School	Education-K thru 12	1406 Dale Dr	 Austin	TX	78757-8310	21-22 Travis County 4-H CAPITAL ACTX	1	1.0						1406 Dale Dr, Austin, TX 78757-8310	(30.3535065, -97.718885)	1406 Dale Dr, Austin, TX 78757, USA
593	Texas A&M AgriLife Extension	Education-K thru 12	1600B Smith Rd	Austin	TX	78721-3541	21-22 Travis County 4-H CAPITAL ACTX	4							1600B Smith Rd, Austin, TX 78721-3541	(30.2582726, -97.6783525)	1600b Smith Rd, Austin, TX 78721, USA
594	Dallas Independent School District	Education-K thru 12	9400 N. Central Expressway	Dallas 	TX	75231	21-22 University of North Texas HIPPY ACTX			14					9400 N. Central Expressway, Dallas, TX 75231	(32.8763612, -96.7682256)	9400 N Central Expy, Dallas, TX 75231, USA
595	Houston Independent School District	Education-K thru 12	4400 West 18th Street 	Houston 	TX	77092	21-22 University of North Texas HIPPY ACTX			24					4400 West 18th Street, Houston, TX 77092	(29.8020222, -95.4526575)	4400 W 18th St, Houston, TX 77092, USA
596	Irving Independent School District	Education-K thru 12	820 N O'Connor	Irving 	TX	75061	21-22 University of North Texas HIPPY ACTX			24					820 N O'Connor, Irving, TX 75061	(32.8225893, -96.9493608)	820 N O'Connor Rd, Irving, TX 75061, USA
597	Education Service Center, Region 2	Nonprofit	209 N. Water St.	Corpus Christi	TX	78401	21-22 University of North Texas HIPPY ACTX			10					209 N. Water St., Corpus Christi, TX 78401	(27.7934299, -97.3941152)	209 N Water St, Corpus Christi, TX 78401, USA
598	Madonna Neighborhood Center	Nonprofit	1906 Castroville Road	San Antonio 	TX	78237	21-22 University of North Texas HIPPY ACTX			5					1906 Castroville Road, San Antonio, TX 78237	(29.4135384, -98.56637169999999)	1906 Castroville Rd, San Antonio, TX 78237, USA
599	Wellness Pointe	Nonprofit	1107 E. Marshall Ave. 	Longview 	TX	75601	21-22 University of North Texas HIPPY ACTX			4					1107 E. Marshall Ave., Longview, TX 75601	(32.5038849, -94.72460009999999)	1107 E Marshall Ave, Longview, TX 75601, USA
600	UTPB	Education-College/University	4901 E University 	Odessa 	TX	79762	21-22 University of North Texas HIPPY ACTX			9					4901 E University, Odessa, TX 79762	(31.8875691, -102.323325)	4901 E University Blvd, Odessa, TX 79762, USA
601	Easter Seals - Rio Grande Valley	Nonprofit	1217 W. Houston Ave. 	McAllen	TX	78501	21-22 University of North Texas HIPPY ACTX			5					1217 W. Houston Ave., McAllen, TX 78501	(26.1961335, -98.2344147)	1217 W Houston Ave, McAllen, TX 78501, USA
602	North Texas Area United Way	Nonprofit	1105 Holliday 	Wichita Falls 	TX	76301	21-22 University of North Texas HIPPY ACTX			8					1105 Holliday, Wichita Falls, TX 76301	(33.9036995, -98.4977528)	1105 Holliday St, Wichita Falls, TX 76301, USA
603	Richardson Independent School District	Education-K thru 12	14040 Rolling Hills Lane 	Richardson 	TX	75240	21-22 University of North Texas HIPPY ACTX			1					14040 Rolling Hills Lane, Richardson, TX 75240	(32.9340551, -96.7635145)	14040 Rolling Hills Ln, Dallas, TX 75240, USA
604	Coalition of Health Services	Nonprofit	301 S. Polk Ste. 740	Amarillo 	TX	791010	21-22 University of North Texas HIPPY ACTX			6					301 S. Polk Ste. 740, Amarillo, TX 791010	(35.2104095, -101.8361078)	301 S Polk St # 740, Amarillo, TX 79101, USA
605	Allison Elementary School	Education-K thru 12	515 Vargas Rd	Austin	TX	78741-2455	21-22 Literacy First ACTX		4.0						515 Vargas Rd, Austin, TX 78741-2455	(30.2357841, -97.6920353)	515 Vargas Rd, Austin, TX 78741, USA
606	Andrews Elementary School	Education-K thru 12	6801 Northeast Dr	Austin	TX	78723-2130	21-22 Literacy First ACTX		4.0	0					6801 Northeast Dr, Austin, TX 78723-2130	(30.3172255, -97.6795685)	6801 Northeast Dr, Austin, TX 78723, USA
607	Cook Elementary School	Education-K thru 12	1511 Cripple Creek	Austin	TX	78758-5053	21-22 Literacy First ACTX		3.0						1511 Cripple Creek, Austin, TX 78758-5053	(30.3772861, -97.70524669999999)	1511 Cripple Creek Dr, Austin, TX 78758, USA
608	Govalle Elementary School	Education-K thru 12	3601 Govalle Ave	Austin	TX	78702-3715	21-22 Literacy First ACTX		4.0						3601 Govalle Ave, Austin, TX 78702-3715	(30.2636867, -97.6989906)	3601 Govalle Ave, Austin, TX 78702, USA
609	Harris Elementary School	Education-K thru 12	1711 Wheless Ln	Austin	TX	78723-1998	21-22 Literacy First ACTX		3.0						1711 Wheless Ln, Austin, TX 78723-1998	(30.31410319999999, -97.6919293)	1711 Wheless Ln, Austin, TX 78723, USA
610	Houston Elementary School	Education-K thru 12	5409 Ponciana Dr	Austin	TX	78744-2838	21-22 Literacy First ACTX		3.0						5409 Ponciana Dr, Austin, TX 78744-2838	(30.1964787, -97.7554729)	5409 Ponciana Dr, Austin, TX 78744, USA
611	Langford Elementary School	Education-K thru 12	2206 Blue Meadow Dr	Austin	TX	78744-5016	21-22 Literacy First ACTX		3.0						2206 Blue Meadow Dr, Austin, TX 78744-5016	(30.1828353, -97.7635504)	2206 Blue Meadow Dr, Austin, TX 78744, USA
612	Linder Elementary School	Education-K thru 12	2800 Metcalfe Rd	Austin	TX	78741-5633	21-22 Literacy First ACTX		4.0						2800 Metcalfe Rd, Austin, TX 78741-5633	(30.2243975, -97.7377661)	2800 Metcalfe Rd, Austin, TX 78741, USA
613	Oak Springs Elementary School	Education-K thru 12	3601 Webberville Rd	Austin	TX	78702-3099	21-22 Literacy First ACTX		2.0	1					3601 Webberville Rd, Austin, TX 78702-3099	(30.2719146, -97.70454679999999)	3601 Webberville Rd, Austin, TX 78702, USA
614	Ortega Elementary School	Education-K thru 12	1135 Garland Ave	Austin	TX	78721-2699	21-22 Literacy First ACTX		0.0	2					1135 Garland Ave, Austin, TX 78721-2699	(30.2699717, -97.6842751)	Child inc Ortega, 1135 Garland Ave, Austin, TX 78721, USA
615	Perez Elementary School	Education-K thru 12	7500 S. Pleasant Valley Rd	Austin	TX	78744-6412	21-22 Literacy First ACTX		4.0						7500 S. Pleasant Valley Rd, Austin, TX 78744-6412	(30.170521, -97.7561855)	7500 S Pleasant Valley Rd, Austin, TX 78744, USA
616	Sanchez Elementary School	Education-K thru 12	73 San Marcos St	Austin	TX	78702-5237	21-22 Literacy First ACTX		3.0	1					73 San Marcos St, Austin, TX 78702-5237	(30.2573795, -97.734541)	73 San Marcos St, Austin, TX 78702, USA
617	Walnut Creek Elementary School	Education-K thru 12	401 West Braker Ln	Austin	TX	78753-3038	21-22 Literacy First ACTX		4.0						401 West Braker Ln, Austin, TX 78753-3038	(30.3791937, -97.6838935)	401 W Braker Ln, Austin, TX 78753, USA
618	Widen Elementary School	Education-K thru 12	5605 Nuckols Crossing Rd	Austin	TX	78744-4615	21-22 Literacy First ACTX		4.0						5605 Nuckols Crossing Rd, Austin, TX 78744-4615	(30.188201, -97.7406518)	5605 Nuckols Crossing Rd, Austin, TX 78744, USA
619	Wooldridge Elementary School	Education-K thru 12	1412 Norseman Ter	Austin	TX	78758-6529	21-22 Literacy First ACTX		4.0						1412 Norseman Ter, Austin, TX 78758-6529	(30.364953, -97.70984899999999)	1412 Norseman Terrace, Austin, TX 78758, USA
620	Wooten Elementary School	Education-K thru 12	1406 Dale Dr	Austin	TX	78757-8310	21-22 Literacy First ACTX		3.0						1406 Dale Dr, Austin, TX 78757-8310	(30.3535065, -97.718885)	1406 Dale Dr, Austin, TX 78757, USA
621	Zavala Elementary School	Education-K thru 12	310 Robert Martinez Jr St	Austin	TX	78702-4536	21-22 Literacy First ACTX		1.0	1					310 Robert Martinez Jr St, Austin, TX 78702-4536	(30.2582433, -97.7198811)	310 Robert T Martinez Jr St, Austin, TX 78702, USA
622	Austin Achieve Elementary School	Education-K thru 12	5908 Manor Rd	Austin	TX	78723-0000	21-22 Literacy First ACTX		8.0						5908 Manor Rd, Austin, TX 78723-0000	(30.3073609, -97.6801833)	5908 Manor Rd, Austin, TX 78723, USA
623	Wayside Schools Real Learning Academy	Education-K thru 12	6405 S. Ih 35	Austin	TX	78744-3401	21-22 Literacy First ACTX		4.0						6405 S. Ih 35, Austin, TX 78744-3401	(30.1914238, -97.76713509999999)	6405 S I-35 Frontage Rd, Austin, TX 78744, USA
624	Wayside Schools Altamira	Education-K thru 12	10704 Bradshaw Rd	Austin	TX	78747-7800	21-22 Literacy First ACTX		4.0						10704 Bradshaw Rd, Austin, TX 78747-7800	(30.1370375, -97.7754802)	10704 Bradshaw Rd, Austin, TX 78747, USA
625	Wayside Schools Eden Park	Education-K thru 12	6215 Menchaca Rd	Austin	TX	78745-4927	21-22 Literacy First ACTX		2.0	0					6215 Menchaca Rd, Austin, TX 78745-4927	(30.2097768, -97.8036994)	6215 Menchaca Rd, Austin, TX 78745, USA
626	UT Austin Dana Center	Education-College/University	3925 W Braker La	Austin	TX	78759-5371	21-22 Literacy First ACTX	4							3925 W Braker La, Austin, TX 78759-5371	(30.3955828, -97.73522)	3925 W Braker Ln, Austin, TX 78759, USA
627	Hanna High School	Education-K thru 12	2615 Price Rd	Brownsville	TX	78521	21-22 UTRGV ACTX					12			2615 Price Rd, Brownsville, TX 78521	(25.9400298, -97.48061829999999)	2615 E Price Rd, Brownsville, TX 78521, USA
628	Veterans High School	Education-K thru 12	4550 Us Military Hwy 281	Brownsville	TX	78520	21-22 UTRGV ACTX					12			4550 Us Military Hwy 281, Brownsville, TX 78520	(25.952183, -97.55768169999999)	281 Military Rd, Brownsville, TX 78520, USA
629	Lopez High School	Education-K thru 12	3205 South Dakota Avenue	Brownsville	TX	78521	21-22 UTRGV ACTX					12			3205 South Dakota Avenue, Brownsville, TX 78521	(25.8819027, -97.42123629999999)	3205 S Dakota Ave, Brownsville, TX 78521, USA
630	Pace High School	Education-K thru 12	314 W Los Ebanos Blvd	Brownsville	TX	78520	21-22 UTRGV ACTX					12			314 W Los Ebanos Blvd, Brownsville, TX 78520	(25.9355264, -97.52489349999999)	314 W Los Ebanos Blvd, Brownsville, TX 78520, USA
631	Porter High School	Education-K thru 12	3500 International Blvd	Brownsville	TX	78521	21-22 UTRGV ACTX					14			3500 International Blvd, Brownsville, TX 78521	(25.913452, -97.4713967)	3500 International Blvd, Brownsville, TX 78521, USA
632	Rivera High School	Education-K thru 12	6955 FM 802	Brownsville	TX	78521	21-22 UTRGV ACTX					10			6955 FM 802, Brownsville, TX 78521	(25.9396561, -97.41633630000001)	6955 Ruben M Torres Blvd, Brownsville, TX 78521, USA
633	Brownsville Learning Academy	Education-K thru 12	4350 Morrison Rd	Brownsville	TX	78526	21-22 UTRGV ACTX					2			4350 Morrison Rd, Brownsville, TX 78526	(25.9611459, -97.44990399999999)	4350 Morrison Rd, Brownsville, TX 78526, USA
634	Lincoln Park	Education-K thru 12	7 Orange Street	Brownsville	TX	78521	21-22 UTRGV ACTX					2			7 Orange Street, Brownsville, TX 78521	(25.9014776, -97.4782877)	7 Orange St, Brownsville, TX 78521, USA
635	Brownsville Early College Campus	Education-K thru 12	343 Ringgold Rd	Brownsville	TX	78520	21-22 UTRGV ACTX					4			343 Ringgold Rd, Brownsville, TX 78520	(25.8938685, -97.4940168)	343 Ringgold Rd, Brownsville, TX 78520, USA
636	San Benito High School	Education-K thru 12	450 S Oscar Williams Rd	San Benito	TX	78586	21-22 UTRGV ACTX					10			450 S Oscar Williams Rd, San Benito, TX 78586	(26.141712, -97.650954)	450 S Oscar Williams Rd, San Benito, TX 78586, USA
637	Edinburg High School	Education-K thru 12	2600 E Wisconsin Rd	Edinburg	TX	78542	21-22 UTRGV ACTX					12			2600 E Wisconsin Rd, Edinburg, TX 78542	(26.2622994, -98.13881649999999)	2600 E Wisconsin Rd, Edinburg, TX 78542, USA
638	Edinburg North High School	Education-K thru 12	3101 N Closener Blvd	Edinburg	TX	78541	21-22 UTRGV ACTX					14			3101 N Closener Blvd, Edinburg, TX 78541	(26.3333192, -98.1587158)	3101 N Closner Blvd, Edinburg, TX 78541, USA
639	Economedes High School	Education-K thru 12	1414 N Alamo Rd	Edinburg	TX	78542	21-22 UTRGV ACTX					12			1414 N Alamo Rd, Edinburg, TX 78542	(26.3091789, -98.1027163)	1414 N Alamo Rd, Edinburg, TX 78542, USA
640	Vela High School	Education-K thru 12	801 Canton Rd.	Edinburg	TX	78539	21-22 UTRGV ACTX					10			801 Canton Rd., Edinburg, TX 78539	(26.2756787, -98.1597346)	801 E Canton Rd, Edinburg, TX 78539, USA
641	McAllen High School	Education-K thru 12	2021 La Vista Ave	McAllen	TX	78501	21-22 UTRGV ACTX					12			2021 La Vista Ave, McAllen, TX 78501	(26.2261944, -98.2387864)	2021 La Vista Ave, McAllen, TX 78501, USA
642	Memorial High School	Education-K thru 12	101 E Hackberry Ave	McAllen	TX	78501	21-22 UTRGV ACTX					12			101 E Hackberry Ave, McAllen, TX 78501	(26.2104467, -98.2172822)	101 E Hackberry Ave, McAllen, TX 78501, USA
643	Rowe High School	Education-K thru 12	2101 N Ware Rd	McAllen	TX	78501	21-22 UTRGV ACTX					14			2101 N Ware Rd, McAllen, TX 78501	(26.2272625, -98.2611254)	2101 N Ware Rd, McAllen, TX 78501, USA
644	Achieve Early College Campus	Education-K thru 12	2000 N 23Rd St	McAllen	TX	78501	21-22 UTRGV ACTX					2			2000 N 23Rd St, McAllen, TX 78501	(26.2237055, -98.2417217)	2000 N 23rd St, McAllen, TX 78501, USA
645	Lamar Academy	Education-K thru 12	1009 N 10th St	McAllen	TX	78501	21-22 UTRGV ACTX					2			1009 N 10th St, McAllen, TX 78501	(26.213484, -98.22984269999999)	1009 N 10th St, McAllen, TX 78501, USA
646	Bowling Family YMCA	Nonprofit	5509 Will Ruth Ave	El Paso	TX	79924-5433	21-22 United Way of El Paso ACTX	3							5509 Will Ruth Ave, El Paso, TX 79924-5433	(31.8863833, -106.4128907)	5509 Will Ruth Ave, El Paso, TX 79924, USA
647	Canutillo ISD	Education-K thru 12	7000 5th Street	El Paso	TX	79932-1069	21-22 United Way of El Paso ACTX	3							7000 5th Street, El Paso, TX 79932-1069	(31.9134026, -106.5945946)	7000 5th St, Canutillo, TX 79835, USA
648	El Paso Housing Authority - Fabens	Nonprofit	650 Ne G Avenue	Fabens	TX	79938-0001	21-22 United Way of El Paso ACTX	2							650 Ne G Avenue, Fabens, TX 79938-0001	(31.5014453, -106.1487897)	650 NE G Ave, Fabens, TX 79838, USA
649	Fred & Maria Loya Family YMCA	Nonprofit	2044 Trawood Dr	El Paso	TX	79935-3503	21-22 United Way of El Paso ACTX	3							2044 Trawood Dr, El Paso, TX 79935-3503	(31.7647018, -106.33164)	2044 Trawood Dr, El Paso, TX 79935, USA
650	Project Vida	Nonprofit	3612 Pera Ave	El Paso	TX	79905-2412	21-22 United Way of El Paso ACTX	3							3612 Pera Ave, El Paso, TX 79905-2412	(31.7720428, -106.4502956)	3612 Pera Ave, El Paso, TX 79905, USA
651	Westside Family YMCA	Nonprofit	7145 N Mesa St	El Paso	TX	79912-3650	21-22 United Way of El Paso ACTX	3							7145 N Mesa St, El Paso, TX 79912-3650	(31.8348446, -106.553631)	7145 N Mesa St, El Paso, TX 79912, USA
652	YMCA of El Paso Metropolitan Offices	Nonprofit	810 Wyoming Ave	El Paso	TX	79901-5340	21-22 United Way of El Paso ACTX	3							810 Wyoming Ave, El Paso, TX 79901-5340	(31.76591819999999, -106.4846469)	810 Wyoming Ave, El Paso, TX 79902, USA
653	West Texas A&M University	Education-College/University	2501 4th Avenue	Canyon	TX	79016-0001	21-22 West Texas A&M University ACTX	1		 		15	10		2501 4th Avenue, Canyon, TX 79016-0001	(34.9813968, -101.9158737)	2501 4th Ave, Canyon, TX 79015, USA
654	Frank Phillips Community College	Education-College/University	1301 Roosevelt St 	Borger	TX	79007	21-22 West Texas A&M University ACTX			 	1.0	3	2		1301 Roosevelt St, Borger, TX 79007	(35.653928, -101.4056861)	1301 Roosevelt St, Borger, TX 79007, USA
655	Amarillo College	Education-College/University	2201 S Washington St #2411 	Amarillo	TX	79109	21-22 West Texas A&M University ACTX	 		 		5			2201 S Washington St #2411, Amarillo, TX 79109	(35.1887941, -101.847966)	2201 S Washington St #2411, Amarillo, TX 79109, USA
656	Clarendon College	Education-College/University	1122 College Dr	Clarendon	TX	79226	21-22 West Texas A&M University ACTX			 		2	2		1122 College Dr, Clarendon, TX 79226	(34.944589, -100.9024097)	1122 College Dr, Clarendon, TX 79226, USA
657	No Limits No Excuses/Amarillo Area Foundation	Nonprofit	801 S. Fillmore	Amarillo	TX	79101	21-22 West Texas A&M University ACTX	1		 		1			801 S. Fillmore, Amarillo, TX 79101	(35.2045368, -101.834739)	801 S Fillmore St, Amarillo, TX 79101, USA
658	Borger high School	Education-K thru 12	600 West First Street	Borger	TX	79007	21-22 West Texas A&M University ACTX	 		 		 	1		600 West First Street, Borger, TX 79007	(35.6656348, -101.396659)	600 W 1st St, Borger, TX 79007, USA
659	Perryton High School	Education-K thru 12	1200 S Jefferson St	Perryton	TX	79070	21-22 West Texas A&M University ACTX			 		 	1		1200 S Jefferson St, Perryton, TX 79070	(36.3875809, -100.8160491)	1200 S Jefferson St, Perryton, TX 79070, USA
660	Spearman High School	Education-K thru 12	403 E 11th Ave	Spearman	TX	79081	21-22 West Texas A&M University ACTX			 		 	1		403 E 11th Ave, Spearman, TX 79081	(36.1841138, -101.1893005)	403 E 11th Ave, Spearman, TX 79081, USA
661	Canadian/Higgins High School	Education-K thru 12	621 S 5th St	Canadian	TX	79014	21-22 West Texas A&M University ACTX	 		 		1			621 S 5th St, Canadian, TX 79014	(35.908992, -100.3853217)	621 S 5th St, Canadian, TX 79014, USA
662	Dalhart High School	Education-K thru 12	2100 Spirit Trail	Dalhart	TX	79022	21-22 West Texas A&M University ACTX			 		 	1		2100 Spirit Trail, Dalhart, TX 79022	(36.0470749, -102.4991533)	2100 Spirit Trail, Dalhart, TX 79022, USA
663	Pampa High School	Education-K thru 12	111 E Harvester Ave	Pampa	TX	79065	21-22 West Texas A&M University ACTX	 		 	1.0	1			111 E Harvester Ave, Pampa, TX 79065	(35.5506632, -100.9642873)	111 E Harvester Ave, Pampa, TX 79065, USA
664	The Well	Nonprofit	1203 N Hobart St #37	Pampa	TX	79065	21-22 West Texas A&M University ACTX			 		1			1203 N Hobart St #37, Pampa, TX 79065	(35.5460402, -100.9741653)	1203 N Hobart St #37, Pampa, TX 79065, USA
665	Wheeler High School	Education-K thru 12	1 Mustang Drive	Wheeler	TX	79096-1010	21-22 West Texas A&M University ACTX					 	1		1 Mustang Drive, Wheeler, TX 79096-1010	(35.4472943, -100.27353)	Mustang Dr, Wheeler, TX 79096, USA
666	Claude High School	Education-K thru 12	500 5th St	Claude	TX	79019	21-22 West Texas A&M University ACTX					 	1		500 5th St, Claude, TX 79019	(35.1063993, -101.3661178)	500 5th St, Claude, TX 79019, USA
667	Shamrock High School	Education-K thru 12	100 S Illinois St	Shamrock	TX	79079	21-22 West Texas A&M University ACTX					 	1		100 S Illinois St, Shamrock, TX 79079	(35.2141562, -100.2395097)	100 S Illinois St, Shamrock, TX 79079, USA
668	Childress High School	Education-K thru 12	800 Ave J NW	Childress	TX	79201	21-22 West Texas A&M University ACTX					 	1		800 Ave J NW, Childress, TX 79201	(34.4334665, -100.2108573)	800 Ave J NW, Childress, TX 79201, USA
669	Valley School (Turkey-Quitaque)	Education-K thru 12	11826 Hwy 86	Turkey	TX	79261	21-22 West Texas A&M University ACTX					 	0.5		11826 Hwy 86, Turkey, TX 79261	(34.3716443, -100.9846745)	11826 TX-86, Turkey, TX 79261, USA
670	Silverton School	Education-K thru 12	700 Loretta St, Silverton	Silverton	TX	79257	21-22 West Texas A&M University ACTX					 	0.5		700 Loretta St, Silverton, Silverton, TX 79257	(34.470734, -101.3097825)	700 Loretta St, Silverton, TX 79257, USA
671	Hereford High School	Education-K thru 12	200 Ave F	Hereford	TX	79045	21-22 West Texas A&M University ACTX	 		 	1.0	1			200 Ave F, Hereford, TX 79045	(34.8274799, -102.3959735)	Hereford High School Physical Education Gyms, 200 Ave F, Hereford, TX 79045, USA
672	Friona High School	Education-K thru 12	810 W 7th St	Friona	TX	79035	21-22 West Texas A&M University ACTX					1	 		810 W 7th St, Friona, TX 79035	(34.6380907, -102.7303906)	810 W 7th St, Friona, TX 79035, USA
673	Highland Park High School	Education-K thru 12	15300 E Amarillo Blvd	Amarillo	TX	79108	21-22 West Texas A&M University ACTX					 	1		15300 E Amarillo Blvd, Amarillo, TX 79108	(35.2495485, -101.6561362)	15300 E Amarillo Blvd, Amarillo, TX 79108, USA
674	River Road High School	Education-K thru 12	101 W Mobley St,	Amarillo	TX	79108	21-22 West Texas A&M University ACTX			 		 	1		101 W Mobley St,, Amarillo, TX 79108	(35.3070519, -101.8350952)	101 W Mobley St, Amarillo, TX 79108, USA
675	Boys Ranch High School	Education-K thru 12	27 Julian Bivins Ave	Cal Farley's Boys Ranch	TX	79010	21-22 West Texas A&M University ACTX					 	1		27 Julian Bivins Ave, Cal Farley's Boys Ranch, TX 79010	(35.5316581, -102.2526855)	27 Julian Bivins Ave, Boys Ranch, TX 79010, USA
676	Dumas High School	Education-K thru 12	411 Miller Ave	Dumas	TX	79029	21-22 West Texas A&M University ACTX			 		 	1		411 Miller Ave, Dumas, TX 79029	(35.8632746, -101.9783208)	411 Miller Ave, Dumas, TX 79029, USA
677	Sunray High School	Education-K thru 12	900 Ave Q	Sunray	TX	79086	21-22 West Texas A&M University ACTX					 	1		900 Ave Q, Sunray, TX 79086	(36.01349829999999, -101.8202223)	900 Ave Q, Sunray, TX 79086, USA
678	Canyon High School	Education-K thru 12	1701 23rd St	Canyon	TX	79015	21-22 West Texas A&M University ACTX					1	1		1701 23rd St, Canyon, TX 79015	(34.965791, -101.915835)	1701 23rd St, Canyon, TX 79015, USA
679	Randall High School	Education-K thru 12	5800 Attebury Dr	Canyon	TX	79118	21-22 West Texas A&M University ACTX	 			1.0	1			5800 Attebury Dr, Canyon, TX 79118	(35.112885, -101.8989748)	5800 Attebury Dr, Amarillo, TX 79118, USA
680	Midway Alternative School	Education-K thru 12	1401 23rd St	Canyon	TX	79015	21-22 West Texas A&M University ACTX	 				1	1		1401 23rd St, Canyon, TX 79015	(34.9694149, -101.91887)	1401 23rd St, Canyon, TX 79015, USA
681	Tulia High School	Education-K thru 12	501 Hornet Pl	Tulia	TX	79088	21-22 West Texas A&M University ACTX	1				1			501 Hornet Pl, Tulia, TX 79088	(34.5419281, -101.7576587)	501 Hornet Pl, Tulia, TX 79088, USA
